,address,id,lat,lng,location,name,subCategory,details
1,Diemerparklaan,28331,52.352236531042,4.987964630127,Amsterdam,Diemerpark,Park,http://tour-pedia.org/api/getPlaceDetails?id=28331
6,krijn taconiskade,28336,52.353173633184,5.0047123432159,Amsterdam,Jachthaven ijburg,Surf Spot,http://tour-pedia.org/api/getPlaceDetails?id=28336
11,Talbotstraat,28341,52.357249384329,4.9957458829493,Amsterdam,Speeltuin Talbotstraat,Playground,http://tour-pedia.org/api/getPlaceDetails?id=28341
13,Emmy Andriessestraat,28344,52.350178768514,5.0053882598877,Amsterdam,Theo van Goghpark,Park,http://tour-pedia.org/api/getPlaceDetails?id=28344
16,IJburg buitenom,28347,52.355692244205,4.9947434363994,Amsterdam,Rondje IJburg,Athletics & Sports,http://tour-pedia.org/api/getPlaceDetails?id=28347
17,Amsterdam,28348,52.356341851732,4.9945360563473,Amsterdam,2013,Arcade,http://tour-pedia.org/api/getPlaceDetails?id=28348
18,Cas Oorthuyskade,28350,52.36073854996,4.9907092442671,Amsterdam,Haveneiland,Neighborhood,http://tour-pedia.org/api/getPlaceDetails?id=28350
19,Egelkopstraat,28353,52.35313,4.996105,Amsterdam,Glijbaan Egelkopstraat,Playground,http://tour-pedia.org/api/getPlaceDetails?id=28353
21,Diemerpark,28355,52.355837716039,4.9795123384286,Amsterdam,AHC IJburg (hockeyclub),Field,http://tour-pedia.org/api/getPlaceDetails?id=28355
24,Krijn Taconiskade,28359,52.353161032779,5.0056608999175,Amsterdam,Haven IJburg,Harbor / Marina,http://tour-pedia.org/api/getPlaceDetails?id=28359
25,KRIJN TACONISKADE 444- bg,28360,52.353834,5.006561,Amsterdam,Amsterdam Dance Centre IJburg,Dance Studio,http://tour-pedia.org/api/getPlaceDetails?id=28360
26,Bert Haanstrakade,28362,52.353991,5.000551,Amsterdam,Brug jachthaven IJburg,Bridge,http://tour-pedia.org/api/getPlaceDetails?id=28362
30,Joris Ivensplein,28370,52.359027,4.990614,Amsterdam,Magic Circus op IJburg,General Entertainment,http://tour-pedia.org/api/getPlaceDetails?id=28370
31,Paul Hufkade,28371,52.357488240271,4.9896737587739,Amsterdam,Nijlpaard sluis,Lake,http://tour-pedia.org/api/getPlaceDetails?id=28371
32,Bert Haanstrakade,28372,52.360677045178,4.9903369280245,Amsterdam,De 100m Rode Bank,Public Art,http://tour-pedia.org/api/getPlaceDetails?id=28372
34,Ijburg,28374,52.350211052712,5.0002149741818,Amsterdam,Strand Ijburg,Beach,http://tour-pedia.org/api/getPlaceDetails?id=28374
35,Diemerpark,28375,52.354438361914,4.9868488311768,Amsterdam,Diemerstrandje,Beach,http://tour-pedia.org/api/getPlaceDetails?id=28375
38,Theo van Goghpark,28384,52.350195275823,5.0058370270675,Amsterdam,Stormbaan,Athletics & Sports,http://tour-pedia.org/api/getPlaceDetails?id=28384
40,Ijburglaan 586,28388,52.35782,4.9898743629456,Amsterdam,Zanzibar Bar Privé,Bar,http://tour-pedia.org/api/getPlaceDetails?id=28388
42,Ruigoord,28395,52.410513,4.748247,Amsterdam,Shoeless open air Ruigoord,Music Venue,http://tour-pedia.org/api/getPlaceDetails?id=28395
44,Ruigoord,28397,52.409847718478,4.7493875026703,Amsterdam,Spacen als planeten,Theme Park,http://tour-pedia.org/api/getPlaceDetails?id=28397
45,Bauduinlaan 35,28398,52.399483529621,4.7459069341715,Amsterdam,Amsterdamse golf club,Golf Course,http://tour-pedia.org/api/getPlaceDetails?id=28398
55,Heining 32,28443,52.397576298414,4.770681174472,Amsterdam,Martin Gaus Hondenschool,Dog Run,http://tour-pedia.org/api/getPlaceDetails?id=28443
62,Lange Bretten,28467,52.385160801083,4.777250289917,Amsterdam,Alex's Hill,Scenic Lookout,http://tour-pedia.org/api/getPlaceDetails?id=28467
63,osdorperweg 937,28473,52.378907526596,4.761494134171,Amsterdam,De Kwekerij,Farm,http://tour-pedia.org/api/getPlaceDetails?id=28473
64,Baron S. van der Oyeweg 10,28486,52.377646,4.774752,Amsterdam,Huisje Tuinpark Osdorp,Garden,http://tour-pedia.org/api/getPlaceDetails?id=28486
65,Osdorperweg 756,28487,52.3750836,4.7703173,Amsterdam,Kooter hooveniers,Farm,http://tour-pedia.org/api/getPlaceDetails?id=28487
69,Lutkemeerweg 262,28511,52.36029,4.766698,Amsterdam,De Boterbloem,Farm,http://tour-pedia.org/api/getPlaceDetails?id=28511
71,Bilderdijk 20,28513,52.35802730323,4.765764128341,Amsterdam,Pocahondas,Farm,http://tour-pedia.org/api/getPlaceDetails?id=28513
77,Ookmeerweg 273-275,28522,52.359655773182,4.7786750162152,Amsterdam,Westgaarde Begraafplaats,Cemetery,http://tour-pedia.org/api/getPlaceDetails?id=28522
78,Lutkemeerweg 400,28524,52.355582714081,4.7608941793442,Amsterdam,Pius Floris Boomverzorging,Garden,http://tour-pedia.org/api/getPlaceDetails?id=28524
87,Tijnmuiden 22,28543,52.390143732186,4.780345401366,Amsterdam,POWER SOUND STUDIO,Music Venue,http://tour-pedia.org/api/getPlaceDetails?id=28543
89,Leemringweg,28545,52.384184,4.780457,Amsterdam,Voorsterbos,Trail,http://tour-pedia.org/api/getPlaceDetails?id=28545
91,Het Rijk van de Keizer,28547,52.383283504622,4.780956647005,Amsterdam,Shoeless Open Air,Nightclub,http://tour-pedia.org/api/getPlaceDetails?id=28547
95,Bok de Korverweg 10,28551,52.379326214057,4.7871119007756,Amsterdam,Amsterdam Panthers,Athletics & Sports,http://tour-pedia.org/api/getPlaceDetails?id=28551
97,Nico Broekhuysenweg 7,28553,52.37758413,4.7758381,Amsterdam,Buitenverblijf De Boois,Sculpture Garden,http://tour-pedia.org/api/getPlaceDetails?id=28553
99,Tom schreursweg 10,28555,52.382453126139,4.7909099185355,Amsterdam,BeeVee Strand,Beach,http://tour-pedia.org/api/getPlaceDetails?id=28555
101,Bok de korverweg,28558,52.380405,4.786109,Amsterdam,P & T,Soccer Field,http://tour-pedia.org/api/getPlaceDetails?id=28558
105,Bok de Korverweg 6,28562,52.378008316957,4.7862056413407,Amsterdam,AAC Rugby,Other Great Outdoors,http://tour-pedia.org/api/getPlaceDetails?id=28562
107,Nico Broekhuysenweg 4,28564,52.375656366348,4.781831,Amsterdam,Osdorperpolder,Other Great Outdoors,http://tour-pedia.org/api/getPlaceDetails?id=28564
109,Nico broekhuijsenweg,28566,52.373967511725,4.7851538174806,Amsterdam,Tigeno Tuincomplex,Campground,http://tour-pedia.org/api/getPlaceDetails?id=28566
113,Osdorperweg 578,28570,52.36828436904,4.7828705866175,Amsterdam,Bierbrouwerij De 7 Deugden,Brewery,http://tour-pedia.org/api/getPlaceDetails?id=28570
114,Jan Rebelstraat 21,28571,52.361204806022,4.7837334786571,Amsterdam,Salon Osdorp,Lounge,http://tour-pedia.org/api/getPlaceDetails?id=28571
118,bonhoeffersingel,28575,52.355078542605,4.7804396878928,Amsterdam,Huis van jody en karen,Comedy Club,http://tour-pedia.org/api/getPlaceDetails?id=28575
121,Keukenplein,28579,52.3603879,4.7847015,Amsterdam,Keukenplein,Plaza,http://tour-pedia.org/api/getPlaceDetails?id=28579
129,Lutkemeer,28587,52.362754,4.787343,Amsterdam,Manege Het Molenpaardje,Stables,http://tour-pedia.org/api/getPlaceDetails?id=28587
131,Dinarpromenade,28593,52.3469,4.783665,Amsterdam,Forza Roma Club Couch,Soccer Stadium,http://tour-pedia.org/api/getPlaceDetails?id=28593
132,Lange Leidsedwarsstraat 90,28595,52.346951357514,4.7835719115236,Amsterdam,Bloomingdale,Lounge,http://tour-pedia.org/api/getPlaceDetails?id=28595
134,Zwartepad 30,28598,52.346991462151,4.7834818234948,Amsterdam,Dog Meeting Point De Oude Molen,Dog Run,http://tour-pedia.org/api/getPlaceDetails?id=28598
136,Iseoplantsoen,28603,52.348824173814,4.7799806840881,Amsterdam,Iseoplantsoen,Field,http://tour-pedia.org/api/getPlaceDetails?id=28603
148,haarlemmerweg,28635,52.380090222035,4.7892194575512,Amsterdam,speeltuin geuzenveld,Playground,http://tour-pedia.org/api/getPlaceDetails?id=28635
154,Abe Lenstralaan 10,28642,52.372977,4.79395682,Amsterdam,K.N.H.S. Concordia,Field,http://tour-pedia.org/api/getPlaceDetails?id=28642
157,Herman Bonpad 6,28645,52.36754222851,4.7942984104156,Amsterdam,Molen De 1100 Roe,Monument / Landmark,http://tour-pedia.org/api/getPlaceDetails?id=28645
159,Osdorper Ban 840,28647,52.362382,4.791225,Amsterdam,Future Cafe,Bar,http://tour-pedia.org/api/getPlaceDetails?id=28647
166,Tussen Meer 377/C,28654,52.356326922509,4.7922436881287,Amsterdam,"Café/Restaurant ""De Uitweg""",Bar,http://tour-pedia.org/api/getPlaceDetails?id=28654
168,Badenpouwellweg,28656,52.355856,4.792593,Amsterdam,Brian's Boomhut,Trail,http://tour-pedia.org/api/getPlaceDetails?id=28656
170,evertsweertplantsoen 142,28658,52.355375417373,4.7928392887115,Amsterdam,NickieNonstop's Studio,Dance Studio,http://tour-pedia.org/api/getPlaceDetails?id=28658
171,Baden Powelweg 1307,28659,52.351927,4.789151,Amsterdam,Sander Bras's!,Strip Club,http://tour-pedia.org/api/getPlaceDetails?id=28659
173,Akersluis 8,28665,52.344254239783,4.7902152675556,Amsterdam,De Aker,Other Great Outdoors,http://tour-pedia.org/api/getPlaceDetails?id=28665
174,Hebridenlaan,28667,52.347418,4.7947133666667,Amsterdam,Osdorp Palace Garden,Garden,http://tour-pedia.org/api/getPlaceDetails?id=28667
175,P. Hans Frankfurthersingel,28669,52.343953289724,4.7903431358516,Amsterdam,Frankfurther in De Aker,Neighborhood,http://tour-pedia.org/api/getPlaceDetails?id=28669
177,Nierkerkestraat,28671,52.353657,4.795258,Amsterdam,Ins Nikita (Michèle's ResQ bunker),Playground,http://tour-pedia.org/api/getPlaceDetails?id=28671
186,Sluispolderweg,28685,52.40661864,4.80151826,Amsterdam,Sluispolder,Golf Course,http://tour-pedia.org/api/getPlaceDetails?id=28685
189,Joost bilhamerstraat,28688,52.383516,4.797299,Amsterdam,Speeltuin joost bilhamer,Playground,http://tour-pedia.org/api/getPlaceDetails?id=28688
190,Philip vingboonsstraat,28689,52.383493,4.797778,Amsterdam,Speeltuin philip vingboon,Playground,http://tour-pedia.org/api/getPlaceDetails?id=28689
192,Pieterpostsingel 60,28691,52.383462,4.797634,Amsterdam,Pieterpostsingel,Dog Run,http://tour-pedia.org/api/getPlaceDetails?id=28691
204,lambertus zijlplein 8,28703,52.377583273069,4.8019351519784,Amsterdam,"Lambertus Zijlplein, amsterdam",Plaza,http://tour-pedia.org/api/getPlaceDetails?id=28703
207,Herman Bonpad,28706,52.367854,4.795785,Amsterdam,Devonello,Football Stadium,http://tour-pedia.org/api/getPlaceDetails?id=28706
208,Han Hollanderlaan 3,28707,52.370100220071,4.795931888888,Amsterdam,Zsgowms,Other Great Outdoors,http://tour-pedia.org/api/getPlaceDetails?id=28707
213,Han Hollanderlaan 2,28712,52.36954098,4.798735,Amsterdam,C.V.V. Vlug en Vaardig,Other Great Outdoors,http://tour-pedia.org/api/getPlaceDetails?id=28712
214,Aalbersestraat,28713,52.378264851342,4.8023772239685,Amsterdam,Huize Tas,Field,http://tour-pedia.org/api/getPlaceDetails?id=28713
216,Herman Bonpad,28715,52.366693989927,4.7993540876579,Amsterdam,Amsterdam Pirates,Baseball Stadium,http://tour-pedia.org/api/getPlaceDetails?id=28715
219,Osdorpplein,28718,52.362295068531,4.7950226107409,Amsterdam,Osdorpperplein,Plaza,http://tour-pedia.org/api/getPlaceDetails?id=28718
220,Notweg 32,28719,52.363571176873,4.8005670225831,Amsterdam,Nederlandse WingTsun Organisatie,Athletics & Sports,http://tour-pedia.org/api/getPlaceDetails?id=28719
222,Reimerswaalstraat 5,28721,52.362382,4.794656,Amsterdam,Tulip Inn Amsterdam City West,Hotel Bar,http://tour-pedia.org/api/getPlaceDetails?id=28721
224,Herman Bonpad,28723,52.366978842203,4.7993624210358,Amsterdam,Mokum H.A.W.K.S.,Baseball Field,http://tour-pedia.org/api/getPlaceDetails?id=28723
231,Dr. Meurerlaan,28730,52.365947265024,4.8022664676683,Amsterdam,Sportvelden Club West,Field,http://tour-pedia.org/api/getPlaceDetails?id=28730
236,Wolbrantskerkweg,28736,52.354641,4.798157,Amsterdam,Bar Jorritsma,Bar,http://tour-pedia.org/api/getPlaceDetails?id=28736
238,Tussen Meer 107,28738,52.356891,4.797637,Amsterdam,Future Café :: Tussen Meer 107,Lounge,http://tour-pedia.org/api/getPlaceDetails?id=28738
240,Jan Oudegeeststraat,28740,52.353140740334,4.7982835947444,Amsterdam,Speeltuin Jan Oudegeeststraat,Playground,http://tour-pedia.org/api/getPlaceDetails?id=28740
243,Slimmeweg 8,28744,52.342507,4.79537677,Amsterdam,Matchroom Sloten,Sports Bar,http://tour-pedia.org/api/getPlaceDetails?id=28744
247,Jan van zutphenplantsoen,28748,52.34982403907,4.800022874413,Amsterdam,Picknick Spot Don & Josien,Park,http://tour-pedia.org/api/getPlaceDetails?id=28748
250,Sloterweg 1301,28751,52.34162856,4.79555538,Amsterdam,Speeltuin Sloten,Playground,http://tour-pedia.org/api/getPlaceDetails?id=28751
253,Nieuw Zeelandweg,28758,52.404464996398,4.8021473246544,Amsterdam,Amsterdam Chapter,Bar,http://tour-pedia.org/api/getPlaceDetails?id=28758
254,Theemsweg 60,28759,52.390111075169,4.8111748695374,Amsterdam,Muziekstudio De Haas,Music Venue,http://tour-pedia.org/api/getPlaceDetails?id=28759
256,"Ewoud Worststraat, 1067 Amsterdam",28761,52.381362915039,4.8038883209229,Amsterdam,kippies,Farm,http://tour-pedia.org/api/getPlaceDetails?id=28761
257,Geuzenveld,28762,52.38009232,4.80253141,Amsterdam,:: Guidance::  Supreme Divine ::,Playground,http://tour-pedia.org/api/getPlaceDetails?id=28762
258,Wigbolt Ripperdastraat,28763,52.381476,4.804534,Amsterdam,Speeltuin Wigbolt Ripperdastraat,Playground,http://tour-pedia.org/api/getPlaceDetails?id=28763
260,Eendrachtspark,28766,52.382713,4.80943,Amsterdam,Poedelbadje Eendrachtspark,Pool,http://tour-pedia.org/api/getPlaceDetails?id=28766
262,Dr H Colijnstraat,28768,52.377655755586,4.8073768615723,Amsterdam,Speelpark Confucius,Playground,http://tour-pedia.org/api/getPlaceDetails?id=28768
264,Dr. H. Colijnstraat,28770,52.377817990207,4.8079762269218,Amsterdam,Speeltuin Colijnstraat,Playground,http://tour-pedia.org/api/getPlaceDetails?id=28770
266,Willinklaan 7,28772,52.370734442691,4.8033852107845,Amsterdam,AAC,Track Stadium,http://tour-pedia.org/api/getPlaceDetails?id=28772
267,Willinklaan,28774,52.37152,4.803088,Amsterdam,Bounz,Arts & Entertainment,http://tour-pedia.org/api/getPlaceDetails?id=28774
268,Willinklaan 9,28775,52.371591,4.802918,Amsterdam,ISH Gebouw,General Entertainment,http://tour-pedia.org/api/getPlaceDetails?id=28775
269,Willinklaan 4,28776,52.370138103252,4.8025856805832,Amsterdam,ROHDA Amsterdam,Athletics & Sports,http://tour-pedia.org/api/getPlaceDetails?id=28776
270,Confuciusplein,28777,52.374595139048,4.8125387558204,Amsterdam,Confuciusplein,Plaza,http://tour-pedia.org/api/getPlaceDetails?id=28777
271,Ookmeerweg,28778,52.371835,4.804195,Amsterdam,Griffioen outdoor,Other Great Outdoors,http://tour-pedia.org/api/getPlaceDetails?id=28778
281,Osdorpplein,28789,52.35924492686,4.8049429925151,Amsterdam,Winkelcentrum Osdorpplein,Plaza,http://tour-pedia.org/api/getPlaceDetails?id=28789
283,President Allendelaan,28792,52.362140634702,4.8095479873642,Amsterdam,Sloterpark,Park,http://tour-pedia.org/api/getPlaceDetails?id=28792
285,Osdorpplein 801,28794,52.358039032667,4.8051258066514,Amsterdam,Café Fly-Inn,Bar,http://tour-pedia.org/api/getPlaceDetails?id=28794
288,Sloterplas,28797,52.35931,4.808311,Amsterdam,Food Night,General Entertainment,http://tour-pedia.org/api/getPlaceDetails?id=28797
289,Osdorpplein,28798,52.358949,4.807053,Amsterdam,MSA West,Music Venue,http://tour-pedia.org/api/getPlaceDetails?id=28798
291,Sloterweg 1209,28800,52.341491491724,4.7996416169716,Amsterdam,Café Restaurant Kerkzicht,Pub,http://tour-pedia.org/api/getPlaceDetails?id=28800
293,Vrije Geer 2,28803,52.34217785243,4.8022432710033,Amsterdam,Natuurpark de Vrije Geer,Other Great Outdoors,http://tour-pedia.org/api/getPlaceDetails?id=28803
295,Sloterweg 1045,28806,52.340216270747,4.8072052001953,Amsterdam,Velodrome Sloten,Racetrack,http://tour-pedia.org/api/getPlaceDetails?id=28806
297,Sloterweg 1045,28812,52.340028117179,4.8074123009303,Amsterdam,Sportpark Sloten,Soccer Field,http://tour-pedia.org/api/getPlaceDetails?id=28812
298,Sloterweg 1045,28813,52.336761088143,4.8050258504003,Amsterdam,Quick 1913,Baseball Field,http://tour-pedia.org/api/getPlaceDetails?id=28813
299,Maarkedalpad,28814,52.343632489675,4.80548341072,Amsterdam,Maarkedalpad,Field,http://tour-pedia.org/api/getPlaceDetails?id=28814
301,Sloterweg 1045,28819,52.339718086928,4.8022699356079,Amsterdam,Amsterdam Crusaders,College Football Field,http://tour-pedia.org/api/getPlaceDetails?id=28819
302,Peilscheidingskade,28822,52.343403891756,4.8054018463122,Amsterdam,Peilscheidingskade,Dog Run,http://tour-pedia.org/api/getPlaceDetails?id=28822
303,Sloterweg 1045,28823,52.337541744432,4.8036003112793,Amsterdam,DSG - Handbalvereniging - Sportpark Sloten,Park,http://tour-pedia.org/api/getPlaceDetails?id=28823
304,Sloterweg,28824,52.339328527451,4.8065507411957,Amsterdam,Golfbaan Sloten,Golf Course,http://tour-pedia.org/api/getPlaceDetails?id=28824
305,Sloterweg 1043T,28826,52.3400549,4.8090918,Amsterdam,Turnace Hall of Gymnastics,Other Great Outdoors,http://tour-pedia.org/api/getPlaceDetails?id=28826
306,Wielercircuit,28827,52.337461091549,4.8044091600281,Amsterdam,WVA amsterdam,Racetrack,http://tour-pedia.org/api/getPlaceDetails?id=28827
309,Seineweg 16,28835,52.386369886776,4.816201878176,Amsterdam,De Bretten,Garden,http://tour-pedia.org/api/getPlaceDetails?id=28835
313,Dr. A. Collijnstraat 562,28839,52.38165953,4.80635,Amsterdam,Gentlemens Club de Natte Kikker,Strip Club,http://tour-pedia.org/api/getPlaceDetails?id=28839
314,Haarlemmerweg 701,28840,52.38424402274,4.8151123523712,Amsterdam,Molen De 1200 Roe,Monument / Landmark,http://tour-pedia.org/api/getPlaceDetails?id=28840
317,Ellert Vlieropstraat 34,28843,52.375682,4.804273,Amsterdam,Donovan 20th B-Day Bash,Other Nightlife,http://tour-pedia.org/api/getPlaceDetails?id=28843
318,President Allendelaan 2,28844,52.370465430852,4.8173945607156,Amsterdam,Sloterparkbad,Pool,http://tour-pedia.org/api/getPlaceDetails?id=28844
321,President Allendelaan 2,28847,52.37052909885,4.8171702277338,Amsterdam,Zwemschool De Natte Kikker,Pool,http://tour-pedia.org/api/getPlaceDetails?id=28847
325,President Allendelaan 4,28851,52.370926371,4.8128730095018,Amsterdam,Heemtuin Sloterpark,Other Great Outdoors,http://tour-pedia.org/api/getPlaceDetails?id=28851
326,President Allendelaan 2,28852,52.371707530559,4.8151019558699,Amsterdam,Kinderboerderij,Playground,http://tour-pedia.org/api/getPlaceDetails?id=28852
328,Sloterparkbad,28854,52.366087995112,4.8115834415531,Amsterdam,Mystic Garden,Nightclub,http://tour-pedia.org/api/getPlaceDetails?id=28854
329,Sloterparkbad,28855,52.368989967341,4.8179018497467,Amsterdam,Strand Sloterplas,Beach,http://tour-pedia.org/api/getPlaceDetails?id=28855
331,Sloterpark,28857,52.360123135031,4.8193145353394,Amsterdam,Sloterpark,Park,http://tour-pedia.org/api/getPlaceDetails?id=28857
332,Chr. Plantijngracht 4,28858,52.360007980053,4.8157024383545,Amsterdam,Watersportcentrum Sloterplas,Harbor / Marina,http://tour-pedia.org/api/getPlaceDetails?id=28858
333,Christoffel Plantijngracht,28859,52.358808933325,4.8143935203552,Amsterdam,WV Sloterplas,Harbor / Marina,http://tour-pedia.org/api/getPlaceDetails?id=28859
334,Meer en Vaart 177 B,28860,52.353074248293,4.8133978309869,Amsterdam,Coffeeshop Sensemillia,Hookah Bar,http://tour-pedia.org/api/getPlaceDetails?id=28860
338,sloterpark,28864,52.364469080546,4.8124506313298,Amsterdam,dogsquare amsterdam sloterpark,Dog Run,http://tour-pedia.org/api/getPlaceDetails?id=28864
339,Pieter Calandlaan,28865,52.356646454494,4.8191557532097,Amsterdam,Christoffel Plantijnpad - Fietspad,Trail,http://tour-pedia.org/api/getPlaceDetails?id=28865
344,Kortenakenstraat 28,28870,52.343833,4.81612,Amsterdam,Gaming United Nederland,Office,http://tour-pedia.org/api/getPlaceDetails?id=28870
348,Ardennenlaan,28874,52.341579692499,4.8114967346191,Amsterdam,Vlindermolen,Sculpture Garden,http://tour-pedia.org/api/getPlaceDetails?id=28874
352,Lies Bakhuyzenlaan 17,28878,52.340323529052,4.7990479190025,Amsterdam,Tuinpark VAT Sloten,Other Great Outdoors,http://tour-pedia.org/api/getPlaceDetails?id=28878
358,Nieuwe meerpad,28886,52.337018288224,4.8181990491472,Amsterdam,De Oeverlanden,Other Great Outdoors,http://tour-pedia.org/api/getPlaceDetails?id=28886
360,Oude Haagseweg 47,28890,52.32917625044,4.8146724700928,Amsterdam,E.W. Driessen,Harbor / Marina,http://tour-pedia.org/api/getPlaceDetails?id=28890
363,Dukdalfweg 7,28903,52.416277404117,4.8246610164642,Amsterdam,Bier&cO,Coworking Space,http://tour-pedia.org/api/getPlaceDetails?id=28903
369,Rhoneweg 36,28909,52.39044,4.825087,Amsterdam,The Sand,Nightclub,http://tour-pedia.org/api/getPlaceDetails?id=28909
371,Haarlemerweg,28911,52.384625217166,4.8185884180254,Amsterdam,Aaf,Art Gallery,http://tour-pedia.org/api/getPlaceDetails?id=28911
373,Mekongweg 5,28913,52.390412,4.825063,Amsterdam,The Sand (Club) Indoor Beachsports & Events complex in Amsterdam,Nightclub,http://tour-pedia.org/api/getPlaceDetails?id=28913
375,Rhoneweg 54,28915,52.390335,4.82023,Amsterdam,XT3 techno radio,Music Venue,http://tour-pedia.org/api/getPlaceDetails?id=28915
376,basisweg,28916,52.391,4.8195,Amsterdam,cleansefortex,Zoo,http://tour-pedia.org/api/getPlaceDetails?id=28916
379,henriette bosmansstraat 77,28919,52.386290945798,4.8186025889346,Amsterdam,Roodbaards Verzamelhok,Beer Garden,http://tour-pedia.org/api/getPlaceDetails?id=28919
380,Burgemeester De Vlugtlaan 156,28920,52.380848932577,4.8208871509223,Amsterdam,Petit Café Zomerlust,Bar,http://tour-pedia.org/api/getPlaceDetails?id=28920
381,West!,28921,52.388574,4.8230555,Amsterdam,One-way Exit,Nightclub,http://tour-pedia.org/api/getPlaceDetails?id=28921
382,Mekongweg 5,28922,52.390678472573,4.8242424493241,Amsterdam,The Stand,Concert Hall,http://tour-pedia.org/api/getPlaceDetails?id=28922
383,Lou Jansen plein,28923,52.38416395,4.8201023,Amsterdam,BRAMSKI.COM,General Entertainment,http://tour-pedia.org/api/getPlaceDetails?id=28923
387,Bernhard Loderstraat 45,28927,52.3816824,4.8215988,Amsterdam,De Buurtslager,General Entertainment,http://tour-pedia.org/api/getPlaceDetails?id=28927
388,Moving,28928,52.380725126174,4.8220581039371,Amsterdam,Discotaxi,Music Venue,http://tour-pedia.org/api/getPlaceDetails?id=28928
390,Plein '40-'45,28930,52.380314739254,4.8223946189456,Amsterdam,Plein '40-'45,Mall,http://tour-pedia.org/api/getPlaceDetails?id=28930
391,Slotermeerlaan 75-77,28931,52.375366103943,4.8202258294336,Amsterdam,Bar Content,Bar,http://tour-pedia.org/api/getPlaceDetails?id=28931
394,Spaarnwouderdijk,28934,52.38529,4.82778,Amsterdam,Brettenpad,Trail,http://tour-pedia.org/api/getPlaceDetails?id=28934
398,"Slotermeerlaan, Amsterdam",28939,52.371354723742,4.8248863220215,Amsterdam,Sloterplas,Dog Run,http://tour-pedia.org/api/getPlaceDetails?id=28939
402,Noordzijde 36,28943,52.373660403094,4.8216676712036,Amsterdam,Voetbalveldje,Playground,http://tour-pedia.org/api/getPlaceDetails?id=28943
403,Hendrik Van Wijnstraat 10,28945,52.360478147696,4.8234551600023,Amsterdam,"Studio V14 (Yolanda, Emmelie, Simone, Yinske)",Performing Arts Venue,http://tour-pedia.org/api/getPlaceDetails?id=28945
405,Tretjakovlaan,28947,52.361914,4.819178,Amsterdam,"Bankje Aan De Sloterplas, Links Van Het Ooijevaarsnest",Other Great Outdoors,http://tour-pedia.org/api/getPlaceDetails?id=28947
411,Sloterweg 712,28953,52.342606,4.820354,Amsterdam,De Oase,Wine Bar,http://tour-pedia.org/api/getPlaceDetails?id=28953
414,Peilscheidingskade,28956,52.342379372236,4.8140716552734,Amsterdam,Dogrun nieuw-sloten,Dog Run,http://tour-pedia.org/api/getPlaceDetails?id=28956
418,Boy Edgarstraat,28960,52.343118,4.826422,Amsterdam,Boy Edgarstraat,Neighborhood,http://tour-pedia.org/api/getPlaceDetails?id=28960
419,Sloterweg,28961,52.342638573307,4.820287061267,Amsterdam,Siegerpark,Park,http://tour-pedia.org/api/getPlaceDetails?id=28961
421,Sloterweg 1043,28963,52.33898397327,4.8067814000385,Amsterdam,Voetbalvereniging Herenmarkt,Soccer Field,http://tour-pedia.org/api/getPlaceDetails?id=28963
426,Sint Gilleshof 5,28968,52.345283901563,4.8093810391685,Amsterdam,Eetcafé Match,Sports Bar,http://tour-pedia.org/api/getPlaceDetails?id=28968
427,Kajuitweg,28971,52.414589948928,4.8316308689216,Amsterdam,Karel Reiniershaven,Harbor / Marina,http://tour-pedia.org/api/getPlaceDetails?id=28971
429,Humberweg 7,28978,52.390674,4.830725,Amsterdam,H7,Concert Hall,http://tour-pedia.org/api/getPlaceDetails?id=28978
430,Petroliumhavenweg,28980,52.394666344735,4.8275852150975,Amsterdam,De Wolken Fabriek,Other Great Outdoors,http://tour-pedia.org/api/getPlaceDetails?id=28980
431,Humberweg 6,28981,52.390933,4.830323,Amsterdam,EventHands,General Entertainment,http://tour-pedia.org/api/getPlaceDetails?id=28981
434,Sportpark Spieringhorn 5,28984,52.386439590974,4.8278462269195,Amsterdam,AMHC Westerpark,Park,http://tour-pedia.org/api/getPlaceDetails?id=28984
435,Basisweg 30,28985,52.392459823193,4.8328491176787,Amsterdam,TMG Amsterdam,Office,http://tour-pedia.org/api/getPlaceDetails?id=28985
436,Rhoneweg 12,28986,52.390452050988,4.8311442934634,Amsterdam,Partycentrum Rhone,Nightlife Spot,http://tour-pedia.org/api/getPlaceDetails?id=28986
437,Naritaweg 237,28987,52.3878906,4.8306471,Amsterdam,Warner Bros,Movie Theater,http://tour-pedia.org/api/getPlaceDetails?id=28987
438,Naritaweg 237,28988,52.387747323064,4.8302614688873,Amsterdam,Warner Bros. screening room,Movie Theater,http://tour-pedia.org/api/getPlaceDetails?id=28988
448,"Rhoneweg 12, 1043 Amsterdam",28998,52.390239715576,4.8313717842102,Amsterdam,Thai Event,General Entertainment,http://tour-pedia.org/api/getPlaceDetails?id=28998
453,Burg de Vlugtlaan 125,29003,52.380197400695,4.8271612118754,Amsterdam,GOLEB,Art Gallery,http://tour-pedia.org/api/getPlaceDetails?id=29003
454,Burgemeester fockstraat,29004,52.3802,4.83203,Amsterdam,Shisha palace,Hookah Bar,http://tour-pedia.org/api/getPlaceDetails?id=29004
456,Burgemeester van Tienhovengracht,29006,52.377050632349,4.8341024232249,Amsterdam,Gerbrandypark,Park,http://tour-pedia.org/api/getPlaceDetails?id=29006
459,Marsmanstraat,29009,52.376822114104,4.8269108358299,Amsterdam,Marsmanstraat,Neighborhood,http://tour-pedia.org/api/getPlaceDetails?id=29009
461,Hermanus Coenradistraat,29011,52.378289538635,4.8346360942002,Amsterdam,Gebrandypark,General Entertainment,http://tour-pedia.org/api/getPlaceDetails?id=29011
464,Oostoever 1,29014,52.370111,4.830085,Amsterdam,Café Terras Oostoever,Dive Bar,http://tour-pedia.org/api/getPlaceDetails?id=29014
465,Burgemeester Rendorpstraat 3,29015,52.3734,4.82685,Amsterdam,Cafe Sloterplas,Pub,http://tour-pedia.org/api/getPlaceDetails?id=29015
468,Burg. Cramergracht 32,29018,52.372747781372,4.8320101876349,Amsterdam,-10,Historic Site,http://tour-pedia.org/api/getPlaceDetails?id=29018
469,Erasmusgracht,29019,52.373773,4.834165,Amsterdam,Cramersluis,Bridge,http://tour-pedia.org/api/getPlaceDetails?id=29019
470,Mezquitalaan 67,29020,52.368880966647,4.8314419835746,Amsterdam,Speeltuin mezquitalaan,Playground,http://tour-pedia.org/api/getPlaceDetails?id=29020
472,Sierplein,29023,52.356417294872,4.8273754119873,Amsterdam,Sierplein,Plaza,http://tour-pedia.org/api/getPlaceDetails?id=29023
474,Sierplein 2,29025,52.355795,4.8265814781189,Amsterdam,Het Siertje,Arcade,http://tour-pedia.org/api/getPlaceDetails?id=29025
477,Jacques Veltmanstraat,29028,52.354516996703,4.8326325416565,Amsterdam,Blauwe Speeltuintje,Playground,http://tour-pedia.org/api/getPlaceDetails?id=29028
480,Hechtelstraat,29031,52.348703073658,4.8201233396497,Amsterdam,Voetbalveldje,Soccer Field,http://tour-pedia.org/api/getPlaceDetails?id=29031
481,Jacques Veltmanstraat 56,29032,52.353482255921,4.8326354624111,Amsterdam,Cafe de Rooseboom,Pub,http://tour-pedia.org/api/getPlaceDetails?id=29032
482,Johan Huizingalaan 761,29033,52.342849,4.828754,Amsterdam,Stadswild HQ,Athletics & Sports,http://tour-pedia.org/api/getPlaceDetails?id=29033
483,Aletta Jacobslaan,29034,52.346234,4.83077702,Amsterdam,RTVNH,General Entertainment,http://tour-pedia.org/api/getPlaceDetails?id=29034
484,Maassluisstraat 18-96,29035,52.350626,4.835284,Amsterdam,Maassluisstraat 18-96,Neighborhood,http://tour-pedia.org/api/getPlaceDetails?id=29035
485,Ottho heldringstraat,29036,52.347003392102,4.8302902687439,Amsterdam,Staalmanpark,Park,http://tour-pedia.org/api/getPlaceDetails?id=29036
487,Christoffel Plantijnpad,29038,52.344967523017,4.8226767050235,Amsterdam,Fietspad Bij Slotervaart Zhs,Trail,http://tour-pedia.org/api/getPlaceDetails?id=29038
489,Oeverlanden,29040,52.331143201641,4.8296928405762,Amsterdam,Nieuwe Meer,Lake,http://tour-pedia.org/api/getPlaceDetails?id=29040
491,Riekerpark,29042,52.341372183712,4.8366673204124,Amsterdam,Buitenspelen,Playground,http://tour-pedia.org/api/getPlaceDetails?id=29042
496,basisweg 30,29048,52.39267265,4.8332943333333,Amsterdam,Werkwoonfietsen,Field,http://tour-pedia.org/api/getPlaceDetails?id=29048
497,Gyroscoopweg 6,29049,52.396974241363,4.8389212333965,Amsterdam,Wildkamperen,Nightclub,http://tour-pedia.org/api/getPlaceDetails?id=29049
498,Donauweg 10,29050,52.394494009783,4.8375550396496,Amsterdam,ArtFX Events,General Entertainment,http://tour-pedia.org/api/getPlaceDetails?id=29050
499,"Condensatorweg, 1014 Westpoort",29051,52.394056198643,4.8373726597012,Amsterdam,lazy sundays,Hookah Bar,http://tour-pedia.org/api/getPlaceDetails?id=29051
502,radarweg,29054,52.392950491472,4.8373371713363,Amsterdam,In De Zon. Buiten Elsevier.,Outdoors & Recreation,http://tour-pedia.org/api/getPlaceDetails?id=29054
503,Basisweg 30,29055,52.39205154633,4.8334729729068,Amsterdam,Krant Cafe TMG,Bar,http://tour-pedia.org/api/getPlaceDetails?id=29055
507,kingsfordweg,29059,52.390109333333,4.83035,Amsterdam,MTTM Bar,Bar,http://tour-pedia.org/api/getPlaceDetails?id=29059
511,moezelhavenweg 9,29063,52.39093662306,4.8376954897221,Amsterdam,Energetica,Arts & Entertainment,http://tour-pedia.org/api/getPlaceDetails?id=29063
513,la Guardiaweg 36,29065,52.390681437149,4.8391612710286,Amsterdam,Kantor,Event Space,http://tour-pedia.org/api/getPlaceDetails?id=29065
515,Changiweg 110,29067,52.388517681562,4.839747183485,Amsterdam,De Amsterdamsche Tram,Beer Garden,http://tour-pedia.org/api/getPlaceDetails?id=29067
520,Amsterdam Sloterdijk,29072,52.388297470655,4.8404573553015,Amsterdam,Voetbalveldje Sloterdijk,Athletics & Sports,http://tour-pedia.org/api/getPlaceDetails?id=29072
521,Erasmusgracht 297,29073,52.375127590923,4.8420524597168,Amsterdam,Mountain Network Amsterdam,Rock Climbing Spot,http://tour-pedia.org/api/getPlaceDetails?id=29073
524,Erasmusgracht,29076,52.375790916992,4.8383696774821,Amsterdam,Erasmusgracht,Dog Run,http://tour-pedia.org/api/getPlaceDetails?id=29076
525,Erasmusgracht,29077,52.376353800423,4.8384161114195,Amsterdam,Timo's Playground,Dog Run,http://tour-pedia.org/api/getPlaceDetails?id=29077
526,Leeuwendalersweg 726,29078,52.377399486636,4.8392453319668,Amsterdam,Scala,Arcade,http://tour-pedia.org/api/getPlaceDetails?id=29078
532,Jan Evertsenstraat 715,29084,52.36994,4.836519,Amsterdam,Wild FM,General Entertainment,http://tour-pedia.org/api/getPlaceDetails?id=29084
534,Jan Tooropstraat 41,29088,52.363383,4.836514,Amsterdam,Kleine Nachtwacht,Bar,http://tour-pedia.org/api/getPlaceDetails?id=29088
535,Henk Henrietstraat,29089,52.368161,4.843577,Amsterdam,Dihoo's Farm,Nightclub,http://tour-pedia.org/api/getPlaceDetails?id=29089
536,Rembrandtpark,29090,52.365919368669,4.8463470347419,Amsterdam,Edelwise Festival,General Entertainment,http://tour-pedia.org/api/getPlaceDetails?id=29090
537,Staalmeesterlaan 420,29091,52.367480993271,4.8450779914856,Amsterdam,kinderboerderij Uylenburg,Farm,http://tour-pedia.org/api/getPlaceDetails?id=29091
540,kon. wilhelminaplein 2-4,29094,52.355306613278,4.8397082090378,Amsterdam,Universal screeningroom,Movie Theater,http://tour-pedia.org/api/getPlaceDetails?id=29094
541,Koningin Wilhelminaplein 218,29095,52.353414725404,4.8398768054647,Amsterdam,Koningin Wilhelminaplein,Plaza,http://tour-pedia.org/api/getPlaceDetails?id=29095
542,Koningin Wilhelminapark,29096,52.353822384566,4.8380184173584,Amsterdam,Koningin Wilhelminapark,Park,http://tour-pedia.org/api/getPlaceDetails?id=29096
543,Koningin Wilhelminalaan 2-4,29097,52.355526135209,4.8387113788164,Amsterdam,Sport 1,Athletics & Sports,http://tour-pedia.org/api/getPlaceDetails?id=29097
544,"Bloemstraat, 64",29098,52.353455,4.840656,Amsterdam,Schilderatelier Hans Verwoerd,Art Gallery,http://tour-pedia.org/api/getPlaceDetails?id=29098
545,Koningin wilhelminaplein,29099,52.353578481898,4.8396279414365,Amsterdam,Parkeerdek gebouw Prinsenhof,Event Space,http://tour-pedia.org/api/getPlaceDetails?id=29099
546,Jan Trooropstraat 15b,29100,52.36184825,4.8363875375,Amsterdam,Jan Tooropstraat,Nightclub,http://tour-pedia.org/api/getPlaceDetails?id=29100
549,Willem Roelofsstraat,29103,52.363560797745,4.8350955334943,Amsterdam,Zondagmiddag bij Vlla,General Entertainment,http://tour-pedia.org/api/getPlaceDetails?id=29103
550,1058 EG Amsterdam,29104,52.3613199625,4.8432058875,Amsterdam,Cinema di Noche Woche,Movie Theater,http://tour-pedia.org/api/getPlaceDetails?id=29104
554,Delflandplein,29108,52.349369741937,4.8402534418271,Amsterdam,Delflandplein,Plaza,http://tour-pedia.org/api/getPlaceDetails?id=29108
559,Pilotenstraat 6,29113,52.34219,4.843164,Amsterdam,Alda Events,General Entertainment,http://tour-pedia.org/api/getPlaceDetails?id=29113
560,Raamplein 1,29114,52.340708,4.842949,Amsterdam,Eyeworks,Performing Arts Venue,http://tour-pedia.org/api/getPlaceDetails?id=29114
562,Pilotenstraat 6,29116,52.342778102212,4.8419620475982,Amsterdam,Fjuze,General Entertainment,http://tour-pedia.org/api/getPlaceDetails?id=29116
563,Vlaardingenlaan,29117,52.347386423507,4.841448660582,Amsterdam,basketballen tijdens nachtdienst,Basketball Court,http://tour-pedia.org/api/getPlaceDetails?id=29117
565,Overschiestraat 194,29120,52.343409434492,4.8382885802734,Amsterdam,KNVB West I,Athletics & Sports,http://tour-pedia.org/api/getPlaceDetails?id=29120
566,Staalmanpark,29121,52.348897315178,4.8329222202301,Amsterdam,De Staalman (kunstwerk beer),Sculpture Garden,http://tour-pedia.org/api/getPlaceDetails?id=29121
567,Pilotenstraat 6 1,29122,52.34211920974,4.8435174822221,Amsterdam,David Lewis Productions,Music Venue,http://tour-pedia.org/api/getPlaceDetails?id=29122
568,Overschiestraat 200,29123,52.344194054604,4.8389732837677,Amsterdam,Westsite Amsterdam,Other Great Outdoors,http://tour-pedia.org/api/getPlaceDetails?id=29123
569,Overschiestraat 172,29124,52.345920103827,4.8387829037234,Amsterdam,Nargilehut,Hookah Bar,http://tour-pedia.org/api/getPlaceDetails?id=29124
571,Overschiestraat,29126,52.348011411642,4.8397967871591,Amsterdam,Moestuintje,Garden,http://tour-pedia.org/api/getPlaceDetails?id=29126
572,Anthony Fokkerweg 61,29127,52.340435469402,4.8428647259461,Amsterdam,KX Radio,Rock Club,http://tour-pedia.org/api/getPlaceDetails?id=29127
574,Oude Haagseweg,29129,52.332565905148,4.8320677282539,Amsterdam,Allure @ Riekerplas,Lake,http://tour-pedia.org/api/getPlaceDetails?id=29129
579,Sloterweg 712,29135,52.342652,4.820393,Amsterdam,atelier pipa,Art Gallery,http://tour-pedia.org/api/getPlaceDetails?id=29135
583,Oude Haagseweg 45,29140,52.328168,4.81653,Amsterdam,Jachthaven Driessen,Harbor / Marina,http://tour-pedia.org/api/getPlaceDetails?id=29140
586,3FM,29143,52.342343747901,4.8117900241659,Amsterdam,EffeEkdom,General Entertainment,http://tour-pedia.org/api/getPlaceDetails?id=29143
602,Bos en Lommerplein,29187,52.378111486726,4.8461211545448,Amsterdam,Bos en Lommerplein,Plaza,http://tour-pedia.org/api/getPlaceDetails?id=29187
605,Willem Leevendstraat 30,29190,52.383802732053,4.8462006816944,Amsterdam,Biljartcentrum Sloterdijk,Pool Hall,http://tour-pedia.org/api/getPlaceDetails?id=29190
608,Bos en Lommerplantsoen,29193,52.376613118517,4.845885458291,Amsterdam,Bos en Lommerplantsoen,Field,http://tour-pedia.org/api/getPlaceDetails?id=29193
610,Bos en lommerplantsoen,29195,52.375851,4.847636,Amsterdam,Parkeerplaats Bos En Lommerplantsoen,Other Great Outdoors,http://tour-pedia.org/api/getPlaceDetails?id=29195
611,Amsterdam West,29197,52.372458296972,4.8489287930041,Amsterdam,Amsterdam West,Other Great Outdoors,http://tour-pedia.org/api/getPlaceDetails?id=29197
612,Jan van Gaalenstraat,29198,52.371624720952,4.8462925165344,Amsterdam,Mercatorbad,Pool,http://tour-pedia.org/api/getPlaceDetails?id=29198
613,Orteliuspad 1,29199,52.370627,4.847445,Amsterdam,Speeltuin Mercator,Playground,http://tour-pedia.org/api/getPlaceDetails?id=29199
615,Mercatorplein,29201,52.370149745866,4.8508381291614,Amsterdam,Mercatorplein,Plaza,http://tour-pedia.org/api/getPlaceDetails?id=29201
618,Postjesweg 106-1,29204,52.364292831963,4.8530387878418,Amsterdam,YagoY,Athletics & Sports,http://tour-pedia.org/api/getPlaceDetails?id=29204
621,Orteliusstraat 193,29207,52.369812460696,4.8493731620521,Amsterdam,Coffeeshop Happiness,Smoke Shop,http://tour-pedia.org/api/getPlaceDetails?id=29207
622,Orteliuskade,29208,52.367968033627,4.8492008762549,Amsterdam,Orteliuskade,Other Great Outdoors,http://tour-pedia.org/api/getPlaceDetails?id=29208
623,Jan Evertsenstraat 143,29209,52.370097029727,4.8494338989258,Amsterdam,"Café Knibbel, Knabbel, Knuisje",Bar,http://tour-pedia.org/api/getPlaceDetails?id=29209
624,Westcord Fashion Hotel,29210,52.357637382261,4.8443862571419,Amsterdam,Skyy Bar,Lounge,http://tour-pedia.org/api/getPlaceDetails?id=29210
627,Westlandgracht,29213,52.354857745835,4.8447668552399,Amsterdam,Westlandgracht,Lake,http://tour-pedia.org/api/getPlaceDetails?id=29213
630,Postjesweg,29216,52.364794484351,4.846281043576,Amsterdam,'t Landje,Playground,http://tour-pedia.org/api/getPlaceDetails?id=29216
632,Vogelenzangstraat,29218,52.354333276481,4.8479869602652,Amsterdam,Vogelenzangstraat,Neighborhood,http://tour-pedia.org/api/getPlaceDetails?id=29218
635,Hoofddorpplein,29221,52.351497265342,4.8498110835905,Amsterdam,Hoofddorpplein,Plaza,http://tour-pedia.org/api/getPlaceDetails?id=29221
636,Generaal Vetterstraat 82,29222,52.342785761313,4.8465156555176,Amsterdam,TBWA\,Office,http://tour-pedia.org/api/getPlaceDetails?id=29222
637,Westlandgracht,29224,52.351149641617,4.845749912459,Amsterdam,Westlandgracht Beach,Other Great Outdoors,http://tour-pedia.org/api/getPlaceDetails?id=29224
640,Abbenesstraat,29227,52.348268,4.84655,Amsterdam,Buurtmoestuin,Garden,http://tour-pedia.org/api/getPlaceDetails?id=29227
641,Generaal Vetterstraat,29228,52.34275843974,4.846219415698,Amsterdam,TBWA\ Bar,Bar,http://tour-pedia.org/api/getPlaceDetails?id=29228
642,Rietwijkerstraat 34,29229,52.349481,4.848898,Amsterdam,The Magpie,Bar,http://tour-pedia.org/api/getPlaceDetails?id=29229
646,Rietwijkerstraat 10-3,29233,52.349251,4.850586,Amsterdam,Rietwijker crib,Lounge,http://tour-pedia.org/api/getPlaceDetails?id=29233
647,Jaagpad,29235,52.339484626868,4.8468785395144,Amsterdam,Sluisje bij Jagerpad,Other Great Outdoors,http://tour-pedia.org/api/getPlaceDetails?id=29235
649,Jaagpad 48,29238,52.338518500328,4.8452714,Amsterdam,ALTC Joy Jaagpad,Other Great Outdoors,http://tour-pedia.org/api/getPlaceDetails?id=29238
650,Burgemeester Cramergracht 181,29239,52.337263636553,4.847160198523,Amsterdam,Nieuwe meer Sluis,Bridge,http://tour-pedia.org/api/getPlaceDetails?id=29239
651,IJsbaanpad 98,29240,52.340894937515,4.8496913909912,Amsterdam,Speeltuin IJsbaanpad,Playground,http://tour-pedia.org/api/getPlaceDetails?id=29240
653,Generaal Vetterstraat 75,29242,52.343592,4.846923,Amsterdam,Atelier De Generaal,Art Gallery,http://tour-pedia.org/api/getPlaceDetails?id=29242
660,Jollenpad 10,29249,52.33556520248,4.8483603683583,Amsterdam,Het Bosch,Harbor / Marina,http://tour-pedia.org/api/getPlaceDetails?id=29249
661,Koenenkade 24,29250,52.330726,4.844074845314,Amsterdam,Jachthaven (marina) De Koenen,Harbor / Marina,http://tour-pedia.org/api/getPlaceDetails?id=29250
662,Jollenpad 13,29251,52.334715127945,4.8495948314667,Amsterdam,WV De Koenen,Harbor / Marina,http://tour-pedia.org/api/getPlaceDetails?id=29251
665,Niuewe Meer,29254,52.332797571497,4.8459716820613,Amsterdam,Cruise&Dance,Music Venue,http://tour-pedia.org/api/getPlaceDetails?id=29254
671,Punterspad 15,29273,52.33622,4.84897,Amsterdam,Watersportvereniging amsterdam,Harbor / Marina,http://tour-pedia.org/api/getPlaceDetails?id=29273
672,Petroleumweg 3,29281,52.408571234258,4.8586585143828,Amsterdam,Haven Amsterdam,Harbor / Marina,http://tour-pedia.org/api/getPlaceDetails?id=29281
673,Isolatorweg 36,29282,52.393954,4.850965,Amsterdam,Moves! Dance Warehouse,Dance Studio,http://tour-pedia.org/api/getPlaceDetails?id=29282
676,Contactweg 48,29285,52.39512784,4.85525781,Amsterdam,29e Shortrally Amsterdam,Racetrack,http://tour-pedia.org/api/getPlaceDetails?id=29285
684,Sloterdijkerweg 22,29293,52.388644385165,4.8555278778076,Amsterdam,Tuinpark Nut & Genoegen,Park,http://tour-pedia.org/api/getPlaceDetails?id=29293
688,Westerpark,29297,52.385737052012,4.8554849624634,Amsterdam,Running route Westerpark,Trail,http://tour-pedia.org/api/getPlaceDetails?id=29297
690,Bos en Lommerweg 259HS,29299,52.378605,4.850439,Amsterdam,Café 't Lommertje,Bar,http://tour-pedia.org/api/getPlaceDetails?id=29299
691,Admiraal de Ruijterweg,29300,52.382263,4.852583,Amsterdam,De Kuil,Sculpture Garden,http://tour-pedia.org/api/getPlaceDetails?id=29300
693,Lorreinenstraat,29302,52.379533,4.853758,Amsterdam,The Mansion,Cocktail Bar,http://tour-pedia.org/api/getPlaceDetails?id=29302
694,Den Brielstraat 14,29303,52.383101,4.858596,Amsterdam,Another Something & Co.,Planetarium,http://tour-pedia.org/api/getPlaceDetails?id=29303
695,Admiraal de Ruijterweg 270,29304,52.379269450828,4.8567649819077,Amsterdam,De Fluiter,Bar,http://tour-pedia.org/api/getPlaceDetails?id=29304
696,Jan van Galenstraat,29306,52.37397954402,4.854453970851,Amsterdam,Vierwindstrekenbrug,Bridge,http://tour-pedia.org/api/getPlaceDetails?id=29306
697,Bos en Lommerweg 133,29307,52.381572160124,4.8563861846924,Amsterdam,'t Binnepretje,Bar,http://tour-pedia.org/api/getPlaceDetails?id=29307
698,J. van Stolbergstraat,29308,52.381650746627,4.8572015762329,Amsterdam,Chicarica Producties,General Entertainment,http://tour-pedia.org/api/getPlaceDetails?id=29308
703,Jan van Galenstraat,29313,52.374637301883,4.8577385481738,Amsterdam,Cafe Sportpark,Bar,http://tour-pedia.org/api/getPlaceDetails?id=29313
705,Joos Banckersweg 18a,29315,52.375815318439,4.856504201889,Amsterdam,Blauwwithal,Stadium,http://tour-pedia.org/api/getPlaceDetails?id=29315
708,Columbusplein,29318,52.365707921127,4.8552703857422,Amsterdam,Columbusplein,Plaza,http://tour-pedia.org/api/getPlaceDetails?id=29318
711,Balbaoplein,29322,52.368787,4.855637,Amsterdam,Inside Out Project,Art Gallery,http://tour-pedia.org/api/getPlaceDetails?id=29322
713,Sloterkade 1/A,29324,52.357790998787,4.8542944797031,Amsterdam,Caffe Oslo,Bar,http://tour-pedia.org/api/getPlaceDetails?id=29324
714,Paramariboplain,29325,52.360066775161,4.8546348933661,Amsterdam,Paramariboplein,Plaza,http://tour-pedia.org/api/getPlaceDetails?id=29325
716,Overtoom 557,29327,52.357641239809,4.8559573198517,Amsterdam,David Lloyd Swimming Pool Area,Pool,http://tour-pedia.org/api/getPlaceDetails?id=29327
717,Overtoom,29328,52.358116502373,4.8552097145187,Amsterdam,Overtoomsesluis,Bridge,http://tour-pedia.org/api/getPlaceDetails?id=29328
718,Amstelveenseweg 53,29329,52.354068883333,4.8557170333333,Amsterdam,De Doofpot,Bar,http://tour-pedia.org/api/getPlaceDetails?id=29329
719,Amstelveenseweg 134,29330,52.354472,4.85558,Amsterdam,OCCII,Music Venue,http://tour-pedia.org/api/getPlaceDetails?id=29330
720,Sophialaan 36,29331,52.352335,4.856572,Amsterdam,Café Bedier,Bar,http://tour-pedia.org/api/getPlaceDetails?id=29331
721,Rhijnvis Feithstraat 9,29332,52.360592,4.8593609777778,Amsterdam,Figuranten Bar,Bar,http://tour-pedia.org/api/getPlaceDetails?id=29332
722,Amstelveensewg Entrance,29333,52.3557721383,4.856450511289,Amsterdam,Vondelpark BBQ Zone,Park,http://tour-pedia.org/api/getPlaceDetails?id=29333
724,Amstelveenseweg 23,29335,52.357420567548,4.8546767215796,Amsterdam,Cafe Sao Paulo,Bar,http://tour-pedia.org/api/getPlaceDetails?id=29335
725,Sloterkade,29336,52.354779111653,4.8535323143005,Amsterdam,Theophile de Bockbrug (Brug 360),Bridge,http://tour-pedia.org/api/getPlaceDetails?id=29336
726,Bonaireplein,29337,52.361134923273,4.8553991317749,Amsterdam,De wip-kip,Playground,http://tour-pedia.org/api/getPlaceDetails?id=29337
727,Baarsjesweg,29338,52.360137292281,4.8566080869321,Amsterdam,NJMT,Dance Studio,http://tour-pedia.org/api/getPlaceDetails?id=29338
728,Amstelveenseweg 69,29339,52.35359658,4.855793,Amsterdam,Café Hans,Bar,http://tour-pedia.org/api/getPlaceDetails?id=29339
730,Olympisch Stadion 21,29341,52.343388783384,4.8540902137756,Amsterdam,Olympisch Stadion,Stadium,http://tour-pedia.org/api/getPlaceDetails?id=29341
731,Zeilstraat,29342,52.350940118348,4.8523520855064,Amsterdam,Zeilbrug,Bridge,http://tour-pedia.org/api/getPlaceDetails?id=29342
732,Olympisch Stadion 1,29343,52.343388783384,4.8553991317749,Amsterdam,Phanos Atletiek,Track Stadium,http://tour-pedia.org/api/getPlaceDetails?id=29343
733,Eosstraat 69,29344,52.34583,4.855129,Amsterdam,Olympisch Kwartier,Other Great Outdoors,http://tour-pedia.org/api/getPlaceDetails?id=29344
735,IJsbaanpad 50,29346,52.341972979423,4.851279258728,Amsterdam,ASV Arsenal,College Track,http://tour-pedia.org/api/getPlaceDetails?id=29346
743,Amstelveenseweg 266,29355,52.349352,4.857069,Amsterdam,Macy's Haarlemmermeerstation,Event Space,http://tour-pedia.org/api/getPlaceDetails?id=29355
745,Burgerweeshuispad 54,29357,52.339973734589,4.8541331291199,Amsterdam,Sporthallen Zuid,Stadium,http://tour-pedia.org/api/getPlaceDetails?id=29357
746,IJsbaanpad 43,29358,52.339193676845,4.8514294624329,Amsterdam,Frans Otten Stadion,Tennis,http://tour-pedia.org/api/getPlaceDetails?id=29358
748,IJsbaanpad 45,29360,52.34065695,4.8510054,Amsterdam,The White House,General Entertainment,http://tour-pedia.org/api/getPlaceDetails?id=29360
753,Stadionplein,29365,52.342975,4.857894,Amsterdam,Casa Di Koalino Piccolo,Garden,http://tour-pedia.org/api/getPlaceDetails?id=29365
754,Stadionplein 5,29366,52.344735134606,4.8576221516062,Amsterdam,Borrelbar,Bar,http://tour-pedia.org/api/getPlaceDetails?id=29366
757,Koenenkade,29372,52.33094352914,4.8518027515976,Amsterdam,Smashing Pink,Tennis,http://tour-pedia.org/api/getPlaceDetails?id=29372
758,IJsbaanpad 43,29373,52.339425,4.851611,Amsterdam,Squashclub ASRC,Other Great Outdoors,http://tour-pedia.org/api/getPlaceDetails?id=29373
759,Ijsbaanpad 43,29374,52.3397703,4.8514938354492,Amsterdam,ALTC DDV,Tennis Court,http://tour-pedia.org/api/getPlaceDetails?id=29374
761,Amstelveenseweg 627,29376,52.332622995389,4.8592365704416,Amsterdam,Ronald McDonald VU Kinderstad,Playground,http://tour-pedia.org/api/getPlaceDetails?id=29376
763,De Boelelaan 1117,29380,52.334172135434,4.8610854148865,Amsterdam,VUmc Kinderstad,Playground,http://tour-pedia.org/api/getPlaceDetails?id=29380
765,Coentunnelweg,29384,52.424289476318,4.8640894889832,Amsterdam,Noorder-IJplas,Lake,http://tour-pedia.org/api/getPlaceDetails?id=29384
767,Transformatorweg 10,29386,52.393455,4.860205,Amsterdam,avv-sdz,Soccer Field,http://tour-pedia.org/api/getPlaceDetails?id=29386
768,Spaarndammerdijk 319,29387,52.390805214399,4.8605773261086,Amsterdam,Ons Genoegen,Farm,http://tour-pedia.org/api/getPlaceDetails?id=29387
769,Transformatorweg,29388,52.393542,4.859927,Amsterdam,Sdz,Soccer Field,http://tour-pedia.org/api/getPlaceDetails?id=29388
771,Contactweg 42h,29390,52.394046,4.856448,Amsterdam,Danstheater AYA,Dance Studio,http://tour-pedia.org/api/getPlaceDetails?id=29390
774,Nieuwe Hemweg 42,29394,52.394946309166,4.8649958779277,Amsterdam,ART4U kunstuitleen,Arts & Crafts Store,http://tour-pedia.org/api/getPlaceDetails?id=29394
775,Nieuwe Hemweg 4c,29395,52.394599914551,4.8660655021667,Amsterdam,Globe Centers,Art Gallery,http://tour-pedia.org/api/getPlaceDetails?id=29395
777,Overbrakerpad 3,29397,52.390251113437,4.8659375761928,Amsterdam,Het Woeste Westen,Playground,http://tour-pedia.org/api/getPlaceDetails?id=29397
778,Haarlemmerweg 465,29398,52.384754801594,4.8602056503296,Amsterdam,Molen De Bloem,Monument / Landmark,http://tour-pedia.org/api/getPlaceDetails?id=29398
779,Gibraltarstraat,29399,52.383369001455,4.8544700299336,Amsterdam,Gibraltarbadje,Pool,http://tour-pedia.org/api/getPlaceDetails?id=29399
780,spaarndammerdijk 312,29400,52.391429,4.863128,Amsterdam,Sint Barbara,Cemetery,http://tour-pedia.org/api/getPlaceDetails?id=29400
781,Bos en Lommer,29401,52.380843789481,4.8540490959263,Amsterdam,'t Sterntje,Bar,http://tour-pedia.org/api/getPlaceDetails?id=29401
782,"Admiraal de Ruijterweg 346, 1055 Bos en Lommer",29402,52.381007465859,4.8538703520599,Amsterdam,Kids Pitstop,Arcade,http://tour-pedia.org/api/getPlaceDetails?id=29402
783,Admiraal De Ruijterweg,29403,52.380881,4.85409,Amsterdam,Studio K Amsterdam,General Entertainment,http://tour-pedia.org/api/getPlaceDetails?id=29403
784,Admiraal de Ruijterweg 331,29404,52.380864875308,4.8537468910217,Amsterdam,331 west,Design Studio,http://tour-pedia.org/api/getPlaceDetails?id=29404
785,Den Brielstraat 24,29405,52.382366603134,4.8601878053344,Amsterdam,Staverno Jachtwerf,Harbor / Marina,http://tour-pedia.org/api/getPlaceDetails?id=29405
786,Bos en Lommerweg 218,29406,52.379630184154,4.8524765138244,Amsterdam,Café Kooper,Pub,http://tour-pedia.org/api/getPlaceDetails?id=29406
788,Haarlemmerstraat 315,29408,52.38484327386,4.8669924854107,Amsterdam,Jam studios Amsterdam,Rock Club,http://tour-pedia.org/api/getPlaceDetails?id=29408
789,Vredenhofweg,29409,52.383502,4.86374,Amsterdam,Schietsportvereniging,General Entertainment,http://tour-pedia.org/api/getPlaceDetails?id=29409
792,De Clercqstraat,29412,52.370142883784,4.8650872707367,Amsterdam,Wiegbrug (Brug 173),Bridge,http://tour-pedia.org/api/getPlaceDetails?id=29412
795,Admiraal de Ruijterweg 38-40,29415,52.371026,4.863404,Amsterdam,Café Treffers,Pub,http://tour-pedia.org/api/getPlaceDetails?id=29415
797,Postjesweg 1,29417,52.36438178,4.859429,Amsterdam,Edelwise,Beer Garden,http://tour-pedia.org/api/getPlaceDetails?id=29417
799,Bellamystraat 47-49,29419,52.366586187792,4.8651080453809,Amsterdam,HJS Henny Jurriens Stichting,Dance Studio,http://tour-pedia.org/api/getPlaceDetails?id=29419
800,Borgerstraat 112,29420,52.364757968522,4.8645170303424,Amsterdam,Global Dance  Lab,Dance Studio,http://tour-pedia.org/api/getPlaceDetails?id=29420
801,Staringplein,29421,52.360594461609,4.8632107774897,Amsterdam,Staringplein,Plaza,http://tour-pedia.org/api/getPlaceDetails?id=29421
803,De Clercqstraat 136,29423,52.370050149,4.865473086618,Amsterdam,2 Klaveren,Pub,http://tour-pedia.org/api/getPlaceDetails?id=29423
806,Valeriusplein,29426,52.352407956305,4.8639671785229,Amsterdam,Valeriusplein,Field,http://tour-pedia.org/api/getPlaceDetails?id=29426
808,Marathonweg 1-3-5,29428,52.348562,4.860709,Amsterdam,Marathonweg - coffee - grill - bar,Bar,http://tour-pedia.org/api/getPlaceDetails?id=29428
810,Hygiëaplein 7,29430,52.347849659978,4.8639034027221,Amsterdam,Nieuw Amsterdams Kinderkoor,Performing Arts Venue,http://tour-pedia.org/api/getPlaceDetails?id=29430
812,Olympiaplein,29432,52.346440342363,4.8667848565184,Amsterdam,Olympiaplein,Plaza,http://tour-pedia.org/api/getPlaceDetails?id=29432
813,Olympiaplein 132,29433,52.346410162849,4.86571777582,Amsterdam,De Hut,Bar,http://tour-pedia.org/api/getPlaceDetails?id=29433
814,Gustav Mahlerlaan 2009,29434,52.335974966791,4.8642254694249,Amsterdam,SC Buitenveldert,Soccer Field,http://tour-pedia.org/api/getPlaceDetails?id=29434
817,Home,29437,52.350254,4.860231,Amsterdam,Home Sweet Home,Zoo,http://tour-pedia.org/api/getPlaceDetails?id=29437
818,Okeghemstraat 24-3,29438,52.3513786,4.862961375,Amsterdam,Droom,Other Nightlife,http://tour-pedia.org/api/getPlaceDetails?id=29438
819,Okeghemstraat 24-3,29439,52.3513824,4.862982,Amsterdam,van der Cammen Residence de super-ultraluxe,Soccer Stadium,http://tour-pedia.org/api/getPlaceDetails?id=29439
820,Van der Boechorststraat,29440,52.329134721293,4.8598170208714,Amsterdam,Tennispark Buitenveldert,Tennis Court,http://tour-pedia.org/api/getPlaceDetails?id=29440
821,Gustav Mahlerlaan 3004,29443,52.336101,4.861546,Amsterdam,ActaBar,Bar,http://tour-pedia.org/api/getPlaceDetails?id=29443
825,Back-Upstraat,29447,52.413584576072,4.8720717430115,Amsterdam,Collectiecentrum,History Museum,http://tour-pedia.org/api/getPlaceDetails?id=29447
826,Meteorenweg,29449,52.419264516722,4.8725169897079,Amsterdam,S.V. Vriendschap,Gym / Fitness Center,http://tour-pedia.org/api/getPlaceDetails?id=29449
830,Keerkringpark,29453,52.409828084414,4.8744964599609,Amsterdam,De Pier,Scenic Lookout,http://tour-pedia.org/api/getPlaceDetails?id=29453
832,Koivistokade,29455,52.397517,4.872342,Amsterdam,Etnies OTF,Skate Park,http://tour-pedia.org/api/getPlaceDetails?id=29455
835,Archangelkade t.o.15,29458,52.396902,4.869967,Amsterdam,'t Landje,Field,http://tour-pedia.org/api/getPlaceDetails?id=29458
836,Transformatorweg,29459,52.392595824912,4.8628275096416,Amsterdam,Kijkende Figuur,Sculpture Garden,http://tour-pedia.org/api/getPlaceDetails?id=29459
840,Moermanskade 107,29464,52.3990699572,4.8716032538881,Amsterdam,take me out,Performing Arts Venue,http://tour-pedia.org/api/getPlaceDetails?id=29464
841,Spaarndammerdijk,29465,52.392815157103,4.866758286953,Amsterdam,Gebroken Cirkel,Sculpture Garden,http://tour-pedia.org/api/getPlaceDetails?id=29465
846,Spaarndammerdijk 300-302,29470,52.393129422224,4.8699823021889,Amsterdam,"3 sculpturen ""Bredius Sportcentrum""",Sculpture Garden,http://tour-pedia.org/api/getPlaceDetails?id=29470
851,Oostzaanstraat,29475,52.392654418945,4.8725190162659,Amsterdam,De Beverburcht,Lake,http://tour-pedia.org/api/getPlaceDetails?id=29475
854,Klönneplein 1,29478,52.386850242732,4.86891746521,Amsterdam,Gashouder,Event Space,http://tour-pedia.org/api/getPlaceDetails?id=29478
855,Pazzanistraat 4,29481,52.38628871347,4.8735055596738,Amsterdam,Het Ketelhuis,Indie Movie Theater,http://tour-pedia.org/api/getPlaceDetails?id=29481
857,Pazzanistraat 19,29484,52.386012078212,4.8731768131256,Amsterdam,DutchView Studio,General Entertainment,http://tour-pedia.org/api/getPlaceDetails?id=29484
858,Polonceaukade 5,29485,52.38588766181,4.8738849163055,Amsterdam,MC Theater,Music Venue,http://tour-pedia.org/api/getPlaceDetails?id=29485
859,Overbrakerpad 10,29486,52.387350797653,4.865414,Amsterdam,Kinderboerderij Westerpark,Farm,http://tour-pedia.org/api/getPlaceDetails?id=29486
861,Pazzanistraat 19,29488,52.38619043758,4.8730771427677,Amsterdam,De Wereld Draait Door,General Entertainment,http://tour-pedia.org/api/getPlaceDetails?id=29488
863,Klönneplein 2,29490,52.386824050332,4.8701298236847,Amsterdam,Transformatorhuis,Event Space,http://tour-pedia.org/api/getPlaceDetails?id=29490
865,Pazzanistraat 33,29493,52.386122,4.872363,Amsterdam,Pizza Royale,Speakeasy,http://tour-pedia.org/api/getPlaceDetails?id=29493
868,Pazzanistraat 19-23 (Dutchview Studio 1),29496,52.385909151031,4.8733083627605,Amsterdam,Pauw en Witteman,General Entertainment,http://tour-pedia.org/api/getPlaceDetails?id=29496
869,Haarlemmerstraat,29497,52.385619183116,4.8748826980591,Amsterdam,Westergasbrug (Brug 193),Bridge,http://tour-pedia.org/api/getPlaceDetails?id=29497
871,Waterspiegelplein 10D,29499,52.384449,4.869142,Amsterdam,Acteer Academie Amsterdam,Dance Studio,http://tour-pedia.org/api/getPlaceDetails?id=29499
874,Polonceaukade 12,29502,52.385765848955,4.8729453265666,Amsterdam,Tony's Chocolonely,Playground,http://tour-pedia.org/api/getPlaceDetails?id=29502
875,Van Hogendorpstraat 1,29503,52.381354059954,4.8677102804328,Amsterdam,Van Hogendorphal,College Basketball Court,http://tour-pedia.org/api/getPlaceDetails?id=29503
876,Frederik Hendrikplantsoen,29504,52.378221875054,4.8748943895433,Amsterdam,Frederik Hendrikplantsoen,Park,http://tour-pedia.org/api/getPlaceDetails?id=29504
879,Van Boetzelaerstraat,29507,52.382435555136,4.8725594703176,Amsterdam,Van Boetzelaerstraat,Performing Arts Venue,http://tour-pedia.org/api/getPlaceDetails?id=29507
881,Hugo de Grootplein,29509,52.374621587561,4.8730438460967,Amsterdam,Hugo de Grootplein,Plaza,http://tour-pedia.org/api/getPlaceDetails?id=29509
882,Tweede Hugo de Grootstraat,29510,52.375428882391,4.869832098484,Amsterdam,Beltbrug (Brug 324),Bridge,http://tour-pedia.org/api/getPlaceDetails?id=29510
883,Frederik Hendrikstraat 111-115,29511,52.374247,4.872483,Amsterdam,De Nieuwe Anita,Speakeasy,http://tour-pedia.org/api/getPlaceDetails?id=29511
884,"Bilderdijkpark 1a, 1052 Amsterdam",29512,52.372284870238,4.8706018924713,Amsterdam,De Liefde,Restaurant,http://tour-pedia.org/api/getPlaceDetails?id=29512
885,Bilderdijkstraat 15HS,29513,52.372091521336,4.8710129643358,Amsterdam,Mono,Dive Bar,http://tour-pedia.org/api/getPlaceDetails?id=29513
887,Tweede Marnixplantsoen,29515,52.374434546805,4.87597074207,Amsterdam,Tweede Marnixplantsoen,Park,http://tour-pedia.org/api/getPlaceDetails?id=29515
888,Wg-Plein 281,29516,52.364515580485,4.8705911636353,Amsterdam,Ski inn,Ski Lodge,http://tour-pedia.org/api/getPlaceDetails?id=29516
889,Nicolaas Beetsstraat 142,29517,52.362058,4.867719,Amsterdam,Cafe De Toog,Bar,http://tour-pedia.org/api/getPlaceDetails?id=29517
891,Overtoom 209,29519,52.36087284602,4.8702102899551,Amsterdam,Plan B,Pool Hall,http://tour-pedia.org/api/getPlaceDetails?id=29519
892,Bilderdijkstraat 165/E,29520,52.367652,4.871866,Amsterdam,Vereniging De Trut,Gay Bar,http://tour-pedia.org/api/getPlaceDetails?id=29520
893,Potgieterstraat 35HS,29521,52.369553941091,4.8736795872886,Amsterdam,Bar Berlijn,Bar,http://tour-pedia.org/api/getPlaceDetails?id=29521
895,Willemsparkweg 73HS,29523,52.357012,4.874725,Amsterdam,Café Gruter,Pub,http://tour-pedia.org/api/getPlaceDetails?id=29523
896,Vondelpark 5,29524,52.358435453109,4.8708271980286,Amsterdam,Vondelpark Openluchttheater,General Entertainment,http://tour-pedia.org/api/getPlaceDetails?id=29524
898,Breitnerstraat 2,29526,52.351568096395,4.8731553554535,Amsterdam,Toomler | Comedytrain,Comedy Club,http://tour-pedia.org/api/getPlaceDetails?id=29526
899,Minervaplein,29527,52.346751136098,4.8725545406342,Amsterdam,Minervaplein,Other Great Outdoors,http://tour-pedia.org/api/getPlaceDetails?id=29527
900,Stadionkade 73A,29528,52.344172797463,4.8678950537154,Amsterdam,Brug Stadionkade,Bridge,http://tour-pedia.org/api/getPlaceDetails?id=29528
901,Apollolaan 138,29529,52.351593559568,4.8719765135255,Amsterdam,Half Moon Lounge,Lounge,http://tour-pedia.org/api/getPlaceDetails?id=29529
903,Kattenlaan 1-15,29531,52.359427,4.86538555,Amsterdam,Tennisclub Kattenlaan,Tennis Court,http://tour-pedia.org/api/getPlaceDetails?id=29531
904,Claude Debussylaan 78,29533,52.337434304281,4.8710056578753,Amsterdam,Oliver's,Cocktail Bar,http://tour-pedia.org/api/getPlaceDetails?id=29533
905,De boelelaan,29534,52.334314026808,4.8706942708017,Amsterdam,Boelelaan,Other Nightlife,http://tour-pedia.org/api/getPlaceDetails?id=29534
908,George Gershwinplein,29537,52.335989506072,4.8734078088677,Amsterdam,Lex Van Deldenbrug,Bridge,http://tour-pedia.org/api/getPlaceDetails?id=29537
916,Oostzanerdijk,29547,52.421345,4.877169,Amsterdam,Lounge Club Oostzanerdijk,Lounge,http://tour-pedia.org/api/getPlaceDetails?id=29547
917,Meerkoet 5,29548,52.426546556262,4.8740075944593,Amsterdam,Davey's SM kelder,Hookah Bar,http://tour-pedia.org/api/getPlaceDetails?id=29548
919,Meteorenweg 280,29550,52.419332930628,4.8743275936822,Amsterdam,Tob,Soccer Field,http://tour-pedia.org/api/getPlaceDetails?id=29550
922,Noordeinde 81,29554,52.4293472,4.874466,Amsterdam,Camping het Rietveen,Campground,http://tour-pedia.org/api/getPlaceDetails?id=29554
927,Melkweg,29563,52.41760617693,4.8812948528721,Amsterdam,Melkweg,Dog Run,http://tour-pedia.org/api/getPlaceDetails?id=29563
929,Tt. Vasumweg 156,29567,52.410089871207,4.8809337615967,Amsterdam,UDC,General Entertainment,http://tour-pedia.org/api/getPlaceDetails?id=29567
930,Minervahavenweg 25,29569,52.402177,4.875249,Amsterdam,Next Monday's Hangover Festival,Performing Arts Venue,http://tour-pedia.org/api/getPlaceDetails?id=29569
936,Stavangerweg 900,29575,52.394038,4.879491,Amsterdam,Strand West,Beach,http://tour-pedia.org/api/getPlaceDetails?id=29575
937,Polanenstraat 174,29576,52.39086,4.876635,Amsterdam,Polanentheater,Theater,http://tour-pedia.org/api/getPlaceDetails?id=29576
938,Danzigerkade 13,29577,52.39744,4.8776,Amsterdam,Dok 13,Bar,http://tour-pedia.org/api/getPlaceDetails?id=29577
940,Zaanstraat 186,29579,52.38890453417,4.8755185424905,Amsterdam,The Black Box,Lounge,http://tour-pedia.org/api/getPlaceDetails?id=29579
942,Wormerveerstraat 15,29581,52.389507636574,4.8765077758659,Amsterdam,WV 15,Art Gallery,http://tour-pedia.org/api/getPlaceDetails?id=29581
945,Spaarndammerstraat 792,29584,52.390927194818,4.8782619458733,Amsterdam,Cafe 't Hoekje,Bar,http://tour-pedia.org/api/getPlaceDetails?id=29584
946,Oostzaan,29585,52.392862161861,4.8743140943735,Amsterdam,Meiden Van Holland,Strip Club,http://tour-pedia.org/api/getPlaceDetails?id=29585
948,Wiborgeiland,29587,52.393965766667,4.8806537,Amsterdam,sisasteiger,Harbor / Marina,http://tour-pedia.org/api/getPlaceDetails?id=29587
949,Spaarndammerstraat 872,29588,52.391562606266,4.8783734410111,Amsterdam,Volkskoffiehuis,Lighthouse,http://tour-pedia.org/api/getPlaceDetails?id=29588
951,Spaarndammerplantsoen,29590,52.389843811472,4.8755819468509,Amsterdam,Spaarndammerplantsoen,Field,http://tour-pedia.org/api/getPlaceDetails?id=29590
952,Tasmanstraat,29591,52.391433,4.878554,Amsterdam,Chatêau Du PocketRat,Dog Run,http://tour-pedia.org/api/getPlaceDetails?id=29591
957,Prinsengracht,29597,52.378690558443,4.8826503753662,Amsterdam,De Jordaan,Neighborhood,http://tour-pedia.org/api/getPlaceDetails?id=29597
958,Marnixplein 1,29598,52.378001963056,4.8786512109247,Amsterdam,Het Marnix,Gym Pool,http://tour-pedia.org/api/getPlaceDetails?id=29598
959,De Wittenstraat 100,29599,52.383019833326,4.8782024772794,Amsterdam,Zaal 100,Dive Bar,http://tour-pedia.org/api/getPlaceDetails?id=29599
960,Nassauplein,29600,52.385132945549,4.8813092487582,Amsterdam,Nassauplein,Other Great Outdoors,http://tour-pedia.org/api/getPlaceDetails?id=29600
961,Westerstraat 120,29601,52.378396,4.883222,Amsterdam,'t Monumentje,Bar,http://tour-pedia.org/api/getPlaceDetails?id=29601
962,Wittenstraat,29602,52.383624444873,4.8792954905974,Amsterdam,Witteneiland,Plaza,http://tour-pedia.org/api/getPlaceDetails?id=29602
963,Nassaukade,29603,52.38178827267,4.8791420459747,Amsterdam,Kattenslootbrug (Brug 155),Bridge,http://tour-pedia.org/api/getPlaceDetails?id=29603
964,Marnixstraat 164-166,29604,52.372891137547,4.8758102977549,Amsterdam,Sound Garden,Dive Bar,http://tour-pedia.org/api/getPlaceDetails?id=29604
965,Tweede Tuindwarsstraat 13,29606,52.377145,4.88195064,Amsterdam,Café De Tuin,Bar,http://tour-pedia.org/api/getPlaceDetails?id=29606
966,Rozengracht 28,29607,52.373789,4.881809,Amsterdam,De Gouden Florijn,Bar,http://tour-pedia.org/api/getPlaceDetails?id=29607
967,Nieuwe Leliestraat 83,29608,52.375287736713,4.8809294587653,Amsterdam,De Nieuwe Lelie,Bar,http://tour-pedia.org/api/getPlaceDetails?id=29608
969,Elandsstraat 119-HS,29610,52.37029772167,4.8801768130028,Amsterdam,Saarein,Gay Bar,http://tour-pedia.org/api/getPlaceDetails?id=29610
970,Elandsgracht 84,29611,52.36959,4.88057,Amsterdam,Bar Oldenhof,Cocktail Bar,http://tour-pedia.org/api/getPlaceDetails?id=29611
971,Lijnbaansgracht 234A,29613,52.364822456671,4.8814933350472,Amsterdam,Melkweg,Concert Hall,http://tour-pedia.org/api/getPlaceDetails?id=29613
972,Leidsegracht 108,29615,52.3655922,4.880657,Amsterdam,Studenten Sociëteit Pylades,Fraternity House,http://tour-pedia.org/api/getPlaceDetails?id=29615
973,Korte Leidsedwarsstraat 49B,29617,52.36477924005,4.882522557135,Amsterdam,The Waterhole,Rock Club,http://tour-pedia.org/api/getPlaceDetails?id=29617
974,Alberdingk Thijmstraat 19,29618,52.364104341608,4.8763237963954,Amsterdam,Muziekpakhuis Amsterdam,Music Venue,http://tour-pedia.org/api/getPlaceDetails?id=29618
975,Marnixstraat 403,29620,52.364831,4.880536,Amsterdam,Lux,Bar,http://tour-pedia.org/api/getPlaceDetails?id=29620
976,Marnixstraat 397,29623,52.364933,4.880492,Amsterdam,Weber,Bar,http://tour-pedia.org/api/getPlaceDetails?id=29623
978,Korte Leidsedwarsstraat 45,29625,52.364896,4.882339,Amsterdam,Suzy Wong,Cocktail Bar,http://tour-pedia.org/api/getPlaceDetails?id=29625
979,Marnixstraat 429,29626,52.363923,4.881731,Amsterdam,Cox,Bar,http://tour-pedia.org/api/getPlaceDetails?id=29626
981,Concertgebouwplein 2-6,29630,52.356364873949,4.8793137073517,Amsterdam,Het Concertgebouw,Concert Hall,http://tour-pedia.org/api/getPlaceDetails?id=29630
982,Paulus Potterstraat 14,29633,52.359011162192,4.881332165899,Amsterdam,House of Bols Cocktail & Genever Experience,Museum,http://tour-pedia.org/api/getPlaceDetails?id=29633
983,Museumstraat,29634,52.359529675696,4.8851501941681,Amsterdam,Rijksmuseum Garden,Garden,http://tour-pedia.org/api/getPlaceDetails?id=29634
984,Hobbemastraat 26,29636,52.358566499158,4.8860192298889,Amsterdam,Zuiderbad,Gym Pool,http://tour-pedia.org/api/getPlaceDetails?id=29636
985,Paulus Potterstraat 3,29637,52.359175858183,4.8837876319885,Amsterdam,Van Gogh Mile Start Museum Square,Art Museum,http://tour-pedia.org/api/getPlaceDetails?id=29637
986,Van Baerlestraat 128HS,29638,52.355046312496,4.880825522961,Amsterdam,Café Lusthof,Bar,http://tour-pedia.org/api/getPlaceDetails?id=29638
988,zieseniskade 25,29642,52.361662960138,4.8866985672001,Amsterdam,Chupitos,Cocktail Bar,http://tour-pedia.org/api/getPlaceDetails?id=29642
989,Weteringschans,29643,52.360777842631,4.8862820863724,Amsterdam,Museumbrug (Brug 82),Bridge,http://tour-pedia.org/api/getPlaceDetails?id=29643
991,Jan Willem Brouwersstraat 32,29645,52.355947760688,4.8775796445148,Amsterdam,Cafe Welling,Lounge,http://tour-pedia.org/api/getPlaceDetails?id=29645
992,Concertgebouwplein 3,29646,52.355840206146,4.879793,Amsterdam,Concertgebouwplein,Other Great Outdoors,http://tour-pedia.org/api/getPlaceDetails?id=29646
993,Jacob Obrechtstraat,29647,52.354813714781,4.8762785980148,Amsterdam,Koninklijk Concertgebouw Orkest,Arts & Entertainment,http://tour-pedia.org/api/getPlaceDetails?id=29647
994,Apollolaan 4,29648,52.348628991548,4.8843204729177,Amsterdam,Apollohal,Basketball Court,http://tour-pedia.org/api/getPlaceDetails?id=29648
995,Van Baerlestraat 27,29649,52.358547979735,4.8791264738775,Amsterdam,Tunes Bar,Hotel Bar,http://tour-pedia.org/api/getPlaceDetails?id=29649
997,De Boelelaan 50,29651,52.336191309397,4.8799896240234,Amsterdam,Amsterdamsche Football Club,Soccer Field,http://tour-pedia.org/api/getPlaceDetails?id=29651
999,apollolaan,29653,52.350571978949,4.8753976821899,Amsterdam,Apollolaan,Other Great Outdoors,http://tour-pedia.org/api/getPlaceDetails?id=29653
1001,Gustav Mahlerlaan,29655,52.337635820858,4.876090291443,Amsterdam,Herman Renz Circus,General Entertainment,http://tour-pedia.org/api/getPlaceDetails?id=29655
1002,"George Gershwinlaan 101, 1082 Amsterdam",29656,52.335843738906,4.8748644477195,Amsterdam,Manhattan Bar Lounge,Hotel Bar,http://tour-pedia.org/api/getPlaceDetails?id=29656
1005,Gelderlandplein 7-62,29660,52.331129,4.877279,Amsterdam,Kiddieland,Playground,http://tour-pedia.org/api/getPlaceDetails?id=29660
1006,De Boelelaan 46,29661,52.335218629194,4.8806981795307,Amsterdam,BL46,Other Nightlife,http://tour-pedia.org/api/getPlaceDetails?id=29661
1007,Beethovenstraat,29662,52.337371303449,4.8770070075989,Amsterdam,P15 Parking Amsterdam RAI,Parking,http://tour-pedia.org/api/getPlaceDetails?id=29662
1014,van boshuizenlaan,29669,52.325037249757,4.8687360768654,Amsterdam,Buitenveldert,Neighborhood,http://tour-pedia.org/api/getPlaceDetails?id=29669
1015,Ter Kleef 1,29670,52.324723,4.867611,Amsterdam,"Bar-Restaurant ""La Brochette""",Arcade,http://tour-pedia.org/api/getPlaceDetails?id=29670
1016,Bos en Vaartlaan 42,29671,52.321978925748,4.8689673865834,Amsterdam,Bruggetje Kalfjeslaan (west),Bridge,http://tour-pedia.org/api/getPlaceDetails?id=29671
1017,Uilenstede,29672,52.322055155697,4.8732304573059,Amsterdam,'t Kleine Loopveld,Athletics & Sports,http://tour-pedia.org/api/getPlaceDetails?id=29672
1020,kalfjeslaan,29680,52.322068271106,4.8822641372681,Amsterdam,Kalfjeslaan,Trail,http://tour-pedia.org/api/getPlaceDetails?id=29680
1022,Olympisch Stadion,29688,52.338253058547,4.8654944331477,Amsterdam,Free Friday Night Run,Track Stadium,http://tour-pedia.org/api/getPlaceDetails?id=29688
1023,Gustav Mahlerlaan 24,29689,52.336859976559,4.8721361160278,Amsterdam,Toetanchamon (EXPO),Science Museum,http://tour-pedia.org/api/getPlaceDetails?id=29689
1028,Molenwijk,29695,52.422778806787,4.8851234586303,Amsterdam,Honden uitlaatplaats,Dog Run,http://tour-pedia.org/api/getPlaceDetails?id=29695
1029,Molenwijk,29696,52.422719768561,4.8850212621892,Amsterdam,Kinderboerderij Molenwijk,Stables,http://tour-pedia.org/api/getPlaceDetails?id=29696
1030,Oostzanerdijk,29697,52.422800579305,4.8851013215948,Amsterdam,Hondenuitlaatstrook,Dog Run,http://tour-pedia.org/api/getPlaceDetails?id=29697
1031,Stellingweg,29698,52.416679841815,4.887832403183,Amsterdam,Fontein bij Diereneiland,Lake,http://tour-pedia.org/api/getPlaceDetails?id=29698
1032,Oostzanerdijk,29700,52.422832438824,4.8850875067347,Amsterdam,Uitlaatstrook,Dog Run,http://tour-pedia.org/api/getPlaceDetails?id=29700
1033,Molenaarsweg,29701,52.421634793282,4.8866844177246,Amsterdam,Planking Tree,Hot Spring,http://tour-pedia.org/api/getPlaceDetails?id=29701
1036,Molenwijk 11,29704,52.416808570474,4.8875485192505,Amsterdam,Natuurspeeltuin het Diereneiland,Farm,http://tour-pedia.org/api/getPlaceDetails?id=29704
1037,Meteorenweg 174,29705,52.413702370289,4.8841524124146,Amsterdam,Museumwoning Tuindorp Oostzaan,History Museum,http://tour-pedia.org/api/getPlaceDetails?id=29705
1038,Plejadenplein 32a,29706,52.413798609022,4.8858831934005,Amsterdam,Speeltuin Tuindorp Oostzaan,Playground,http://tour-pedia.org/api/getPlaceDetails?id=29706
1040,Meteorenweg 158,29708,52.412345,4.886869,Amsterdam,Badhuis- Bob Ross,Arts & Entertainment,http://tour-pedia.org/api/getPlaceDetails?id=29708
1041,Polluxstraat 9,29709,52.413228750229,4.8893666267395,Amsterdam,Bij Anita En Peter In Villa Kakelbond,Strip Club,http://tour-pedia.org/api/getPlaceDetails?id=29709
1042,Werfstraat,29710,52.403479278978,4.886577129364,Amsterdam,HISWA te water,Harbor / Marina,http://tour-pedia.org/api/getPlaceDetails?id=29710
1043,Kraanspoor,29711,52.4050109301,4.88694190979,Amsterdam,Amsterdam Marina,Harbor / Marina,http://tour-pedia.org/api/getPlaceDetails?id=29711
1046,Klinkerweg 79,29714,52.40686745112,4.8940811630651,Amsterdam,De Werf,Pool,http://tour-pedia.org/api/getPlaceDetails?id=29714
1052,TT Vasumweg 93,29720,52.406830514884,4.8875856399536,Amsterdam,Sundercurrent (#sundaysatundercurrent),Music Venue,http://tour-pedia.org/api/getPlaceDetails?id=29720
1054,TT. Vasumweg 95,29722,52.407000688041,4.8871564865112,Amsterdam,Social Hangout,Lounge,http://tour-pedia.org/api/getPlaceDetails?id=29722
1057,Klaprozenweg,29725,52.406404809526,4.8938785533233,Amsterdam,Een Gezellig Tuin,Park,http://tour-pedia.org/api/getPlaceDetails?id=29725
1058,Tt. Neveritaweg,29726,52.400193249727,4.8932933807373,Amsterdam,NDSM-Werf,Harbor / Marina,http://tour-pedia.org/api/getPlaceDetails?id=29726
1060,Tt Neveritaweg 6,29729,52.401307,4.893243,Amsterdam,Mtv Studios,General Entertainment,http://tour-pedia.org/api/getPlaceDetails?id=29729
1061,Het IJ,29730,52.400049234879,4.8906326293945,Amsterdam,Submarine 4711,Historic Site,http://tour-pedia.org/api/getPlaceDetails?id=29730
1064,Ms Oslofjordweg 89,29733,52.403207,4.892476,Amsterdam,Casa Reinders,Strip Club,http://tour-pedia.org/api/getPlaceDetails?id=29733
1066,Van Diemenkade 3,29735,52.390535374665,4.8850075107955,Amsterdam,Oude Houthaven,Harbor / Marina,http://tour-pedia.org/api/getPlaceDetails?id=29735
1067,Neveritaweg,29736,52.4021,4.893095,Amsterdam,Kermis,Theme Park,http://tour-pedia.org/api/getPlaceDetails?id=29736
1071,"Noord 1, Tt. Neveritaweg 61, 1033 Stadsdeel Noord",29741,52.399037761069,4.8927739137049,Amsterdam,Stichting IJ Producties,General Entertainment,http://tour-pedia.org/api/getPlaceDetails?id=29741
1072,Haarlemmerplein,29742,52.384723663799,4.8836446981452,Amsterdam,Haarlemmerplein,Plaza,http://tour-pedia.org/api/getPlaceDetails?id=29742
1073,Prinseneiland,29743,52.385680680947,4.8873244745673,Amsterdam,Prinseneiland,Building,http://tour-pedia.org/api/getPlaceDetails?id=29743
1074,Zoutkeetsgracht,29744,52.387701487284,4.8846459388733,Amsterdam,Lighthouse,Lighthouse,http://tour-pedia.org/api/getPlaceDetails?id=29744
1075,Houtmanstraat,29745,52.386496644016,4.8842811584473,Amsterdam,Tuintjes Houtmanstraat,Garden,http://tour-pedia.org/api/getPlaceDetails?id=29745
1078,Vierwindendwarsstraat,29748,52.387072877508,4.8873925209045,Amsterdam,Realeneiland,Historic Site,http://tour-pedia.org/api/getPlaceDetails?id=29748
1079,Houtmanstraat,29749,52.387347895386,4.8845171928406,Amsterdam,Hondenuitlaat Houtmanstraat,Dog Run,http://tour-pedia.org/api/getPlaceDetails?id=29749
1081,Nieuwe Teertuinen,29751,52.385265574539,4.8854398727417,Amsterdam,Nieuwe Teertuinen,Historic Site,http://tour-pedia.org/api/getPlaceDetails?id=29751
1082,Westerdoksdijk 715 A,29752,52.389455,4.89103,Amsterdam,Café Westerdok,Bar,http://tour-pedia.org/api/getPlaceDetails?id=29752
1083,Hendrik Jonkerplein 1,29753,52.383677,4.88883,Amsterdam,'t Blaauwhooft,Bar,http://tour-pedia.org/api/getPlaceDetails?id=29753
1084,Silodam,29754,52.390975351814,4.8910403251648,Amsterdam,Silos on the Water,Residential Building (Apartment / Condo),http://tour-pedia.org/api/getPlaceDetails?id=29754
1086,Nieuwe Houttuinen,29756,52.384650026926,4.8846673965454,Amsterdam,Nieuwe Houttuinen,Neighborhood,http://tour-pedia.org/api/getPlaceDetails?id=29756
1087,Brouwersgracht 107-109,29757,52.38069433821,4.887566606997,Amsterdam,Café Thijssen,Bar,http://tour-pedia.org/api/getPlaceDetails?id=29757
1088,Lindengracht 160,29758,52.380191,4.884229,Amsterdam,De Kat in de Wijngaert,Bar,http://tour-pedia.org/api/getPlaceDetails?id=29758
1089,Noordermarkt,29759,52.37947646846,4.8867702484131,Amsterdam,Noordermarkt,Plaza,http://tour-pedia.org/api/getPlaceDetails?id=29759
1090,Brouwersgracht 101,29761,52.380302928185,4.8885257497632,Amsterdam,Café Tabac,Bar,http://tour-pedia.org/api/getPlaceDetails?id=29761
1091,Noordermarkt 4,29762,52.380137931885,4.8875588178635,Amsterdam,Proust,Bar,http://tour-pedia.org/api/getPlaceDetails?id=29762
1092,Prinsengracht 124,29763,52.376059,4.884327,Amsterdam,Café De Prins,Bar,http://tour-pedia.org/api/getPlaceDetails?id=29763
1093,Nieuwe Leliestraat 2,29764,52.375894523359,4.8840353403774,Amsterdam,Café Wester,Bar,http://tour-pedia.org/api/getPlaceDetails?id=29764
1094,Westermarkt,29766,52.374185981993,4.8842010545047,Amsterdam,Westermarkt,Plaza,http://tour-pedia.org/api/getPlaceDetails?id=29766
1095,Elandsgracht,29767,52.370018422662,4.8821139335632,Amsterdam,Johnny Jordaanplein,Plaza,http://tour-pedia.org/api/getPlaceDetails?id=29767
1096,Keizersgracht 384,29768,52.369225793607,4.8840987682343,Amsterdam,The Dylan,Hotel,http://tour-pedia.org/api/getPlaceDetails?id=29768
1097,Nieuwezijds Voorburgwal 147,29769,52.373136395629,4.8913621902466,Amsterdam,Koninklijk Paleis Amsterdam,Monument / Landmark,http://tour-pedia.org/api/getPlaceDetails?id=29769
1098,Keizersgracht 157HS,29770,52.375347614504,4.8861983703476,Amsterdam,Café Brandon,Bar,http://tour-pedia.org/api/getPlaceDetails?id=29770
1099,Herengracht 90A,29771,52.376640031233,4.8895825698546,Amsterdam,Proeflokaal Arendsnest,Bar,http://tour-pedia.org/api/getPlaceDetails?id=29771
1100,Runstraat 12-14,29773,52.368950662841,4.8837661743164,Amsterdam,De Doffer,Bar,http://tour-pedia.org/api/getPlaceDetails?id=29773
1101,Spuistraat 109,29774,52.374705124424,4.8908632993698,Amsterdam,Prik,Gay Bar,http://tour-pedia.org/api/getPlaceDetails?id=29774
1102,Paleisstraat 103,29775,52.3725,4.89032,Amsterdam,O'Reilly's,Pub,http://tour-pedia.org/api/getPlaceDetails?id=29775
1103,Huidenstraat 25,29776,52.368867089382,4.8852253618071,Amsterdam,De Pels,Bar,http://tour-pedia.org/api/getPlaceDetails?id=29776
1104,Nieuwezijds Voorburgwal 121,29777,52.374223,4.891303,Amsterdam,Corner-House,Bar,http://tour-pedia.org/api/getPlaceDetails?id=29777
1105,Leidseplein,29780,52.364220766024,4.8828971385956,Amsterdam,Leidseplein,Plaza,http://tour-pedia.org/api/getPlaceDetails?id=29780
1106,Max Euweplein 73,29783,52.362104,4.8824846675812,Amsterdam,Aran Irish Pub,Pub,http://tour-pedia.org/api/getPlaceDetails?id=29783
1107,Leidsekruisstraat 6-8,29784,52.363868170337,4.8853291643249,Amsterdam,Bourbon Street,Jazz Club,http://tour-pedia.org/api/getPlaceDetails?id=29784
1108,Spui,29785,52.368793444491,4.8895382881165,Amsterdam,Spui,Plaza,http://tour-pedia.org/api/getPlaceDetails?id=29785
1109,Herengracht 477,29786,52.366050931973,4.8900143228155,Amsterdam,AKQA Amsterdam,Office,http://tour-pedia.org/api/getPlaceDetails?id=29786
1111,Reguliersdwarsstraat 36,29788,52.366349937375,4.8910403251648,Amsterdam,SoHo,Gay Bar,http://tour-pedia.org/api/getPlaceDetails?id=29788
1112,Leidseplein 8,29789,52.364456,4.8826473666667,Amsterdam,Hole in the Wall,Pub,http://tour-pedia.org/api/getPlaceDetails?id=29789
1113,Roelof Hartplein 1-3,29790,52.353255546762,4.8822426795959,Amsterdam,Café Wildschut,Bar,http://tour-pedia.org/api/getPlaceDetails?id=29790
1114,Leidseplein 14,29791,52.364387,4.882767,Amsterdam,Café De Waard,Pub,http://tour-pedia.org/api/getPlaceDetails?id=29791
1115,Weteringstraat 60,29792,52.360857104215,4.8884024141271,Amsterdam,Mankind,Bar,http://tour-pedia.org/api/getPlaceDetails?id=29792
1116,Korte Leidsedwarsstraat 82-84,29793,52.362817010862,4.8850975732641,Amsterdam,Whisky Café L&B,Whisky Bar,http://tour-pedia.org/api/getPlaceDetails?id=29793
1117,Roelofhartplein,29795,52.352867469179,4.8823961197323,Amsterdam,Roelofhartplein,Field,http://tour-pedia.org/api/getPlaceDetails?id=29795
1119,Vondelpark,29797,52.360492831241,4.8769104480743,Amsterdam,Vondelbrug (Brug 200),Bridge,http://tour-pedia.org/api/getPlaceDetails?id=29797
1121,Van Baerlestraat 33A,29799,52.356917559687,4.8797693806807,Amsterdam,Museumpromenade,Outdoors & Recreation,http://tour-pedia.org/api/getPlaceDetails?id=29799
1122,Dusartstraat 51,29801,52.3512273219,4.8893880844116,Amsterdam,Cafe Fonk,Bar,http://tour-pedia.org/api/getPlaceDetails?id=29801
1123,Museumplein,29802,52.358749962974,4.8835730552673,Amsterdam,Museumplein vijver,Lake,http://tour-pedia.org/api/getPlaceDetails?id=29802
1124,Albert Cuypstraat 92HS,29803,52.355109868796,4.890805321056,Amsterdam,De Cuyp,Plaza,http://tour-pedia.org/api/getPlaceDetails?id=29803
1125,Gerard Doustraat 58HS,29804,52.355497519905,4.8907506924431,Amsterdam,Eddy Bar,Bar,http://tour-pedia.org/api/getPlaceDetails?id=29804
1126,Rustenburgerstraat 384,29805,52.351489819585,4.8918250410449,Amsterdam,C.C. Muziekcafé,Piano Bar,http://tour-pedia.org/api/getPlaceDetails?id=29805
1127,Ferdinand Bolstraat 72HS,29806,52.355228945507,4.8902177403545,Amsterdam,Café Pico,Bar,http://tour-pedia.org/api/getPlaceDetails?id=29806
1128,Museumplein,29807,52.359025157271,4.8832726478577,Amsterdam,Museumplein fontein,Sculpture Garden,http://tour-pedia.org/api/getPlaceDetails?id=29807
1129,PC Hooftstraat,29808,52.359464154148,4.877758026123,Amsterdam,Fashion & Museum District Amsterdam,Neighborhood,http://tour-pedia.org/api/getPlaceDetails?id=29808
1130,Europaplein 22,29810,52.34142237675,4.8868131637573,Amsterdam,Strand Zuid,Beach,http://tour-pedia.org/api/getPlaceDetails?id=29810
1131,Europaplein 22,29812,52.341384,4.88657,Amsterdam,Zuidpool,Bar,http://tour-pedia.org/api/getPlaceDetails?id=29812
1134,Amsterdam RAI,29815,52.341399824906,4.8869285332601,Amsterdam,"Beach bar, IBC",Beer Garden,http://tour-pedia.org/api/getPlaceDetails?id=29815
1135,Churchillaan 221,29816,52.3471617,4.8869007166667,Amsterdam,Churchillaan,Other Great Outdoors,http://tour-pedia.org/api/getPlaceDetails?id=29816
1136,Apollolaan,29817,52.350555404378,4.8727170801557,Amsterdam,ArtZuid,Art Gallery,http://tour-pedia.org/api/getPlaceDetails?id=29817
1137,Cornelis Schuytstraat 57,29818,52.353809,4.872614,Amsterdam,Christie's,Art Gallery,http://tour-pedia.org/api/getPlaceDetails?id=29818
1138,Jan Willem Brouwersstraat 14,29819,52.356587,4.878283,Amsterdam,Hotel AnneMarie,Hostel,http://tour-pedia.org/api/getPlaceDetails?id=29819
1145,Beethovenstraat,29826,52.342758619049,4.8765327081338,Amsterdam,Café Luus,Bar,http://tour-pedia.org/api/getPlaceDetails?id=29826
1148,Amstelpark,29831,52.331983871129,4.8911660020099,Amsterdam,Rosarium Amsterdam,Convention Center,http://tour-pedia.org/api/getPlaceDetails?id=29831
1149,Amstelpark,29834,52.328782849704,4.8910510540009,Amsterdam,Rode Brug (Brug 836),Bridge,http://tour-pedia.org/api/getPlaceDetails?id=29834
1150,Kostverlorenkade,29835,52.322438071322,4.891745442922,Amsterdam,Kostverlorenkade,Scenic Lookout,http://tour-pedia.org/api/getPlaceDetails?id=29835
1153,Nesserland,29838,52.422249,4.892545,Amsterdam,Stokkenveldje & Horsies!,Dog Run,http://tour-pedia.org/api/getPlaceDetails?id=29838
1156,Oostzanerdijk 14,29842,52.41889389043,4.8945009962333,Amsterdam,Dyllie,Lounge,http://tour-pedia.org/api/getPlaceDetails?id=29842
1157,Couhornerhoek 24,29843,52.422693066853,4.8971772193909,Amsterdam,3 and a Crowd,Arts & Entertainment,http://tour-pedia.org/api/getPlaceDetails?id=29843
1158,Kometensingel 84HS,29844,52.415326866667,4.8922306666667,Amsterdam,Elwin Varkevisser Fotografie,Arts & Entertainment,http://tour-pedia.org/api/getPlaceDetails?id=29844
1160,Zonneplein (Tuindorp Oostzaan),29846,52.413119940263,4.8909223079681,Amsterdam,Zonneplein,Plaza,http://tour-pedia.org/api/getPlaceDetails?id=29846
1161,Perenpad,29847,52.413697116266,4.8956370688033,Amsterdam,sv De Meteoor,Soccer Field,http://tour-pedia.org/api/getPlaceDetails?id=29847
1162,Zonneplein 30,29848,52.413229262859,4.8910533285643,Amsterdam,Het Zonnehuis,Theater,http://tour-pedia.org/api/getPlaceDetails?id=29848
1163,Amandelstraat,29849,52.410082017626,4.8979550600052,Amsterdam,Speeltuin Amandelstraat,Playground,http://tour-pedia.org/api/getPlaceDetails?id=29849
1165,Perenpad,29851,52.412259660457,4.8948153268812,Amsterdam,Honkbalvereniging 'De Meteoor',Baseball Field,http://tour-pedia.org/api/getPlaceDetails?id=29851
1166,Tt. Neveritaweg 33,29852,52.399521845227,4.8966862038478,Amsterdam,Noorderlicht,Bar,http://tour-pedia.org/api/getPlaceDetails?id=29852
1167,TT. Neveritaweg 15A,29853,52.40143,4.895369,Amsterdam,Skatepark,Skate Park,http://tour-pedia.org/api/getPlaceDetails?id=29853
1168,NDSM-werf,29854,52.399950550391,4.8942243803182,Amsterdam,Voltt Loves Summer,Music Venue,http://tour-pedia.org/api/getPlaceDetails?id=29854
1169,Tt. Neveritaweg 15,29855,52.40062529145,4.8955893516541,Amsterdam,Bunker (Helling 3),Nightclub,http://tour-pedia.org/api/getPlaceDetails?id=29855
1170,T. T Vasumweg 20-22,29856,52.40293,4.896875,Amsterdam,Partycentrum Noord,Music Venue,http://tour-pedia.org/api/getPlaceDetails?id=29856
1171,TT Neveritaweg 15n,29857,52.401214432437,4.8962759971619,Amsterdam,PickUp Club,General Entertainment,http://tour-pedia.org/api/getPlaceDetails?id=29857
1173,Neveritaweg 15,29859,52.40118824856,4.8966836929321,Amsterdam,NDSM theater ITW,Indie Movie Theater,http://tour-pedia.org/api/getPlaceDetails?id=29859
1175,Tegenhouderstraat 92,29861,52.406294,4.896834,Amsterdam,'t Dierenhonk,Playground,http://tour-pedia.org/api/getPlaceDetails?id=29861
1177,TT Neveritaweg 15a 1033WB Amsterdam,29863,52.399758082375,4.8964227619901,Amsterdam,Amsterdam Skatepark,Skate Park,http://tour-pedia.org/api/getPlaceDetails?id=29863
1178,neveritaweg 15,29864,52.401128688627,4.8959545567622,Amsterdam,NDSM Art Warp,Art Gallery,http://tour-pedia.org/api/getPlaceDetails?id=29864
1179,TT Neveritaweg,29865,52.399879034907,4.8955035209656,Amsterdam,Over het IJ Festival,Performing Arts Venue,http://tour-pedia.org/api/getPlaceDetails?id=29865
1181,van Diemenstraat,29867,52.39073964168,4.8856329917908,Amsterdam,Houthavens,Well,http://tour-pedia.org/api/getPlaceDetails?id=29867
1182,Van Diemenstraat 410,29868,52.39038244523,4.8873425820352,Amsterdam,Werkgebouw Het Veem,General Entertainment,http://tour-pedia.org/api/getPlaceDetails?id=29868
1184,Houtmankade 7-9,29870,52.38996779,4.885654,Amsterdam,Café Noorderster,Lounge,http://tour-pedia.org/api/getPlaceDetails?id=29870
1187,Oude Houthaven,29873,52.390792021819,4.8906326293945,Amsterdam,"Silodam, steiger binnenhaven",Harbor / Marina,http://tour-pedia.org/api/getPlaceDetails?id=29873
1189,Westerdok,29876,52.385833439714,4.8921276308238,Amsterdam,Westerdok,Building,http://tour-pedia.org/api/getPlaceDetails?id=29876
1190,Vinkenstraat 57,29877,52.382122262704,4.8867702484131,Amsterdam,Vesper,Cocktail Bar,http://tour-pedia.org/api/getPlaceDetails?id=29877
1191,Westerdoksplein 2,29878,52.383497540985,4.8920713576649,Amsterdam,Westerdoksplein,Plaza,http://tour-pedia.org/api/getPlaceDetails?id=29878
1192,Binnen Oranjestraat 15,29879,52.382034037963,4.8868227787793,Amsterdam,De Oranjerie,Pub,http://tour-pedia.org/api/getPlaceDetails?id=29879
1194,Goudsbloemstraat 91,29881,52.380760091408,4.8844528198242,Amsterdam,G's,Bar,http://tour-pedia.org/api/getPlaceDetails?id=29881
1195,Dam,29883,52.373018493092,4.8926281929016,Amsterdam,Dam,Plaza,http://tour-pedia.org/api/getPlaceDetails?id=29883
1196,IJpromenade 1,29884,52.384361895308,4.9007821083069,Amsterdam,EYE - Film Instituut Nederland,Museum,http://tour-pedia.org/api/getPlaceDetails?id=29884
1197,Haarlemmerstraat 102 1013 EW,29885,52.380574222489,4.8908597822153,Amsterdam,Barney's Coffeeshop Amsterdam,Smoke Shop,http://tour-pedia.org/api/getPlaceDetails?id=29885
1198,Damrak 279,29886,52.375028379657,4.8959736527098,Amsterdam,Beurs van Berlage,Event Space,http://tour-pedia.org/api/getPlaceDetails?id=29886
1199,Nieuwezijds Voorburgwal 5,29887,52.377079399177,4.8952674865723,Amsterdam,Crowne Plaza,Hotel,http://tour-pedia.org/api/getPlaceDetails?id=29887
1200,Dam 9,29888,52.372625482364,4.8947525024414,Amsterdam,NH Grand Hotel Krasnapolsky,Hotel,http://tour-pedia.org/api/getPlaceDetails?id=29888
1201,Spuistraat 2,29889,52.377374127826,4.8941892385483,Amsterdam,Bitterzoet,Music Venue,http://tour-pedia.org/api/getPlaceDetails?id=29889
1202,Nieuwendijk 19HS,29890,52.3784192,4.895165,Amsterdam,Lost in Amsterdam,Bar,http://tour-pedia.org/api/getPlaceDetails?id=29890
1203,Dam 27,29891,52.372820350621,4.8936823010445,Amsterdam,Nationaal Monument op de Dam,Monument / Landmark,http://tour-pedia.org/api/getPlaceDetails?id=29891
1204,Nieuwezijds Kolk 15,29892,52.375990701781,4.8946071833084,Amsterdam,Basic Fit,Gym,http://tour-pedia.org/api/getPlaceDetails?id=29892
1205,Nieuwezijds Kolk 19,29893,52.376155903339,4.8945808410645,Amsterdam,Inntel Hotels Amsterdam Centre,Hotel,http://tour-pedia.org/api/getPlaceDetails?id=29893
1206,Nieuwezijds Voorburgwal 67,29894,52.375503146504,4.8930217332894,Amsterdam,The Convent Hotel,Hotel,http://tour-pedia.org/api/getPlaceDetails?id=29894
1207,Oudezijds Voorburgwal,29895,52.373660403094,4.8978638648987,Amsterdam,Red Light District / De Wallen,Neighborhood,http://tour-pedia.org/api/getPlaceDetails?id=29895
1208,Nieuwezijds Voorburgwal 250,29897,52.371924604553,4.8904609680176,Amsterdam,BeerTemple,Pub,http://tour-pedia.org/api/getPlaceDetails?id=29897
1209,Warmoesstraat 64,29898,52.375241287592,4.897730746627,Amsterdam,Baba Coffeeshop,Smoke Shop,http://tour-pedia.org/api/getPlaceDetails?id=29898
1210,Rokin 75,29899,52.370500230572,4.8930634412607,Amsterdam,Bierfabriek,Brewery,http://tour-pedia.org/api/getPlaceDetails?id=29899
1211,Oudebrugsteeg 16,29900,52.375589545862,4.8974305187728,Amsterdam,The Grasshopper,Smoke Shop,http://tour-pedia.org/api/getPlaceDetails?id=29900
1212,Nieuwmarkt,29901,52.372566530453,4.9003207683563,Amsterdam,Nieuwmarkt,Plaza,http://tour-pedia.org/api/getPlaceDetails?id=29901
1214,Nieuwe Doelenstraat 2-14,29903,52.367460273561,4.8944407663636,Amsterdam,Hotel de l'Europe,Hotel,http://tour-pedia.org/api/getPlaceDetails?id=29903
1216,Singel,29906,52.366775759331,4.8913407325745,Amsterdam,Bloemenmarkt,Flower Shop,http://tour-pedia.org/api/getPlaceDetails?id=29906
1217,Stadhouderskade 78,29907,52.357747454973,4.8915874958038,Amsterdam,Heineken Experience,Brewery,http://tour-pedia.org/api/getPlaceDetails?id=29907
1218,Reguliersbreestraat 26-34,29908,52.366333316476,4.8947102667014,Amsterdam,Pathé Tuschinski,Multiplex,http://tour-pedia.org/api/getPlaceDetails?id=29908
1219,Keizersgracht 609,29909,52.364019030188,4.8931494860057,Amsterdam,Foam Photography Museum,Art Museum,http://tour-pedia.org/api/getPlaceDetails?id=29909
1220,Thorbeckeplein 8-12,29910,52.365556970227,4.8957953356443,Amsterdam,Coco’s Outback,Sports Bar,http://tour-pedia.org/api/getPlaceDetails?id=29910
1221,Rembrandtplein 10,29911,52.366015828043,4.8955410718918,Amsterdam,St. James' Gate,Pub,http://tour-pedia.org/api/getPlaceDetails?id=29911
1222,Tweede Weteringplantsoen 21,29912,52.357975921915,4.8922244298435,Amsterdam,Heineken International B.V.,Office,http://tour-pedia.org/api/getPlaceDetails?id=29912
1223,Weteringschans 157,29913,52.359597391132,4.8902961753181,Amsterdam,Café Brecht,Speakeasy,http://tour-pedia.org/api/getPlaceDetails?id=29913
1224,Marie Heinekenplein,29914,52.356980815862,4.8912119865417,Amsterdam,Marie Heinekenplein,Plaza,http://tour-pedia.org/api/getPlaceDetails?id=29914
1225,Vijzelstraat 32,29916,52.364619055335,4.8923441959147,Amsterdam,Stadsarchief - De Bazel,Library,http://tour-pedia.org/api/getPlaceDetails?id=29916
1226,Rivierenbuurt,29917,52.34652448654,4.8918001372503,Amsterdam,Rivierenbuurt,Neighborhood,http://tour-pedia.org/api/getPlaceDetails?id=29917
1227,Ferdinand Bolstraat 333,29918,52.348560015387,4.8927837610245,Amsterdam,Hotel Okura,Hotel,http://tour-pedia.org/api/getPlaceDetails?id=29918
1229,Scheldeplein 3,29920,52.343729618307,4.891619682312,Amsterdam,Knijn Bowling,Bowling Alley,http://tour-pedia.org/api/getPlaceDetails?id=29920
1230,Ferdinand Bolstraat 24,29921,52.356816530228,4.890671,Amsterdam,Kingfisher Cafe,Pub,http://tour-pedia.org/api/getPlaceDetails?id=29921
1231,Gerard Douplein 14HS,29923,52.35587842617,4.8928798441906,Amsterdam,De Pilsvogel,Bar,http://tour-pedia.org/api/getPlaceDetails?id=29923
1232,Daniël Stalpertstraat 74,29924,52.356207,4.890877,Amsterdam,Café Gollem,Bar,http://tour-pedia.org/api/getPlaceDetails?id=29924
1233,Gerard Douplein 1,29925,52.356080534275,4.8926931389461,Amsterdam,Café Het Paardje,Bar,http://tour-pedia.org/api/getPlaceDetails?id=29925
1234,Albert Cuypstraat 130,29926,52.3555,4.89306,Amsterdam,De Groene Vlinder,Bar,http://tour-pedia.org/api/getPlaceDetails?id=29926
1235,Vijzelgracht 33HS,29927,52.361055764426,4.8915182079913,Amsterdam,Coffeeshop Mellow Yellow,Smoke Shop,http://tour-pedia.org/api/getPlaceDetails?id=29927
1236,Stadhouderskade 79,29929,52.357728881014,4.8925371046524,Amsterdam,Heineken A/Stad2,Office,http://tour-pedia.org/api/getPlaceDetails?id=29929
1237,Eerste van der Helststraat 51HS,29930,52.355009700002,4.8933310086029,Amsterdam,Flinck,Bar,http://tour-pedia.org/api/getPlaceDetails?id=29930
1238,Eerste van der Helststraat 37H,29931,52.355459,4.8931062729518,Amsterdam,Flamingo,Pub,http://tour-pedia.org/api/getPlaceDetails?id=29931
1239,Europaplein,29932,52.341632130958,4.8912119865417,Amsterdam,Europaplein - Amsterdam RAI,Plaza,http://tour-pedia.org/api/getPlaceDetails?id=29932
1240,Ferdinand Bolstraat 333,29933,52.348582953598,4.8927676677704,Amsterdam,Twenty Third Bar,Hotel Bar,http://tour-pedia.org/api/getPlaceDetails?id=29933
1241,Scheldestraat,29934,52.345970175063,4.8909874622895,Amsterdam,Scheldestraat,Other Great Outdoors,http://tour-pedia.org/api/getPlaceDetails?id=29934
1242,Europaplein 22,29936,52.342256572024,4.8896134924993,Amsterdam,Amsterdam Music Festival,Music Venue,http://tour-pedia.org/api/getPlaceDetails?id=29936
1243,Ferdinand Bolstraat 333,29937,52.34859635,4.893619,Amsterdam,Okura Lobby Bar,Bar,http://tour-pedia.org/api/getPlaceDetails?id=29937
1249,Zeeburgerkade,29944,52.339757190336,4.8926989844692,Amsterdam,Weekend,Cocktail Bar,http://tour-pedia.org/api/getPlaceDetails?id=29944
1250,Amstelpark 2b,29945,52.331976,4.89317,Amsterdam,Midgetgolf & Putting Greens Amstelpark,Golf Course,http://tour-pedia.org/api/getPlaceDetails?id=29945
1251,Zuidelijke Wandelweg,29946,52.33833355591,4.8973774020906,Amsterdam,Tempo Team,Athletics & Sports,http://tour-pedia.org/api/getPlaceDetails?id=29946
1253,Amstelpark 22,29948,52.328756622614,4.8929441348951,Amsterdam,Het Glazen Huis,Art Gallery,http://tour-pedia.org/api/getPlaceDetails?id=29948
1254,Jan Vroegop Singel-Ouderkerkerdijk,29949,52.332369223639,4.8985826969147,Amsterdam,Rozenoordbrug (Brug 1638),Bridge,http://tour-pedia.org/api/getPlaceDetails?id=29949
1255,Ouderkerkerdijk 215I,29950,52.323732076359,4.8945172270201,Amsterdam,Groengebied Amstelland,Field,http://tour-pedia.org/api/getPlaceDetails?id=29950
1256,Kalfjeslaan 49,29951,52.322307611324,4.8937282166408,Amsterdam,Manege Equito,Farm,http://tour-pedia.org/api/getPlaceDetails?id=29951
1259,De Borcht,29954,52.323857470656,4.894282104063,Amsterdam,Pishok A/D Amstel,Field,http://tour-pedia.org/api/getPlaceDetails?id=29954
1262,Cosmariumstraat 18,29962,52.420002348452,4.8999611713459,Amsterdam,Speeltuin Het Twiske,Playground,http://tour-pedia.org/api/getPlaceDetails?id=29962
1265,Stoombootweg,29966,52.416591455989,4.9009156234112,Amsterdam,Wilmkebreekpolder,Field,http://tour-pedia.org/api/getPlaceDetails?id=29966
1266,Moestuinlaan,29969,52.409915110901,4.9008907932624,Amsterdam,De Bongerd,Other Great Outdoors,http://tour-pedia.org/api/getPlaceDetails?id=29969
1267,Moestuinlaan,29970,52.410835955044,4.9028098583221,Amsterdam,Speelterrein In de Bongerd,Event Space,http://tour-pedia.org/api/getPlaceDetails?id=29970
1269,Nieuwmarkt,29972,52.40991415,4.900384625,Amsterdam,Circus Rigolo,General Entertainment,http://tour-pedia.org/api/getPlaceDetails?id=29972
1271,Verstuiverstraat,29974,52.410186,4.902252,Amsterdam,Verstuiverstraat,Dog Run,http://tour-pedia.org/api/getPlaceDetails?id=29974
1272,Strekkerweg 75,29975,52.404487,4.895064,Amsterdam,Svfn Head Office,General Entertainment,http://tour-pedia.org/api/getPlaceDetails?id=29975
1276,Kadoelenweg 360,29979,52.410796023086,4.9064927007114,Amsterdam,Villa Friekens,Music Venue,http://tour-pedia.org/api/getPlaceDetails?id=29979
1277,Werfstraat,29980,52.410231498861,4.9057412793842,Amsterdam,Kadoelen-Werf,Harbor / Marina,http://tour-pedia.org/api/getPlaceDetails?id=29980
1279,Buiksloterbreek,29982,52.403453096445,4.9067044258118,Amsterdam,Buiksloterbreek,Park,http://tour-pedia.org/api/getPlaceDetails?id=29982
1281,Westerdoksdijk,29984,52.389390831703,4.8927354812622,Amsterdam,Het Stenen Hoofd,Historic Site,http://tour-pedia.org/api/getPlaceDetails?id=29984
1284,Dovenetelstraat,29987,52.390176551265,4.9071335792542,Amsterdam,casa kommer en kwel,Beer Garden,http://tour-pedia.org/api/getPlaceDetails?id=29987
1285,Overhoeksplein 1,29988,52.38369885802,4.9022278189659,Amsterdam,Toren,Other Nightlife,http://tour-pedia.org/api/getPlaceDetails?id=29988
1286,Herenmarkt 6-1,29989,52.380131,4.891651,Amsterdam,Het beste hoekje van Damsko,Beer Garden,http://tour-pedia.org/api/getPlaceDetails?id=29989
1287,Haarlemmerstraat 91,29990,52.380541,4.890998,Amsterdam,Café 'De Blauwe Druif',Bar,http://tour-pedia.org/api/getPlaceDetails?id=29990
1288,Kattengat 1,29991,52.377869272618,4.8945813272855,Amsterdam,Renaissance Executive Lounge,Hotel Bar,http://tour-pedia.org/api/getPlaceDetails?id=29991
1289,Martelaarsgracht 22,29992,52.377845,4.896184,Amsterdam,De Ster,Bar,http://tour-pedia.org/api/getPlaceDetails?id=29992
1291,Kattengat 1,29994,52.377488,4.894334,Amsterdam,Koepelcafé,Hotel Bar,http://tour-pedia.org/api/getPlaceDetails?id=29994
1292,Nieuwendijk 29HS,29995,52.378338969836,4.8954577813339,Amsterdam,Blarney Stone,Bar,http://tour-pedia.org/api/getPlaceDetails?id=29995
1293,Het IJ,29996,52.381264907511,4.9008068168217,Amsterdam,Het IJ,River,http://tour-pedia.org/api/getPlaceDetails?id=29996
1294,Stationsplein,29997,52.377983227467,4.8998594284058,Amsterdam,Stationsplein,Plaza,http://tour-pedia.org/api/getPlaceDetails?id=29997
1295,Oudezijds Armsteeg 26,29998,52.375564790369,4.899365901947,Amsterdam,Proeflokaal de Prael,Beer Garden,http://tour-pedia.org/api/getPlaceDetails?id=29998
1296,Warmoesstraat 117,29999,52.374105168434,4.8965225381806,Amsterdam,Durty Nelly's Irish Bar & Hostel,Bar,http://tour-pedia.org/api/getPlaceDetails?id=29999
1297,Oudekerksplein 34,30000,52.374692636815,4.8973069537697,Amsterdam,Slainte Irish Pub,Pub,http://tour-pedia.org/api/getPlaceDetails?id=30000
1298,Amsterdam,30001,52.370935496383,4.9001169204712,Amsterdam,Amsterdam,City,http://tour-pedia.org/api/getPlaceDetails?id=30001
1299,Waterlooplein,30002,52.368305920196,4.9019593735491,Amsterdam,Waterlooplein,Flea Market,http://tour-pedia.org/api/getPlaceDetails?id=30002
1300,Jodenbreestraat 4,30003,52.369463,4.901366,Amsterdam,Het Rembrandthuis,Museum,http://tour-pedia.org/api/getPlaceDetails?id=30003
1301,DoubleTree by Hilton,30004,52.376817109281,4.9050343250101,Amsterdam,SkyLounge Amsterdam,Lounge,http://tour-pedia.org/api/getPlaceDetails?id=30004
1302,Amstel 196,30006,52.366541613953,4.9001508485609,Amsterdam,Ice Bar,Bar,http://tour-pedia.org/api/getPlaceDetails?id=30006
1304,Weesperzijde 98,30009,52.351988,4.911293,Amsterdam,Buutvrij for life,General Entertainment,http://tour-pedia.org/api/getPlaceDetails?id=30009
1305,Frederiksplein,30010,52.360322478727,4.8996019363403,Amsterdam,Frederiksplein,Park,http://tour-pedia.org/api/getPlaceDetails?id=30010
1307,Weteringschans 267,30012,52.359503467089,4.8973381519318,Amsterdam,Café Kale,Bar,http://tour-pedia.org/api/getPlaceDetails?id=30012
1308,Noorderstraat 46,30013,52.360948,4.8935625,Amsterdam,Mercure Hotel Amsterdam Arthur Frommer,Hotel,http://tour-pedia.org/api/getPlaceDetails?id=30013
1309,De Mirandalaan 9,30014,52.339245183465,4.9026694285043,Amsterdam,De Mirandabad,Pool,http://tour-pedia.org/api/getPlaceDetails?id=30014
1310,Van der Helstplein,30015,52.351812091102,4.8949762254956,Amsterdam,Van der Helstplein,Plaza,http://tour-pedia.org/api/getPlaceDetails?id=30015
1312,Sarphatipark,30017,52.354281091918,4.8942160606384,Amsterdam,Speeltuin Sarphatipark,Playground,http://tour-pedia.org/api/getPlaceDetails?id=30017
1313,Eerste van der Helststraat 62HS,30018,52.355146069971,4.8929929733276,Amsterdam,Chocolate Bar,Bar,http://tour-pedia.org/api/getPlaceDetails?id=30018
1314,Gerard Douplein,30019,52.35599792575,4.8926711082458,Amsterdam,Gerard Douplein,Outdoors & Recreation,http://tour-pedia.org/api/getPlaceDetails?id=30019
1315,Eerste van der Helststraat 45,30020,52.355211708479,4.8931753800392,Amsterdam,Café Schilders,Bar,http://tour-pedia.org/api/getPlaceDetails?id=30020
1316,2e Van der Helststraat 1,30021,52.35286563677,4.8949670791626,Amsterdam,Oranjekerk,Building,http://tour-pedia.org/api/getPlaceDetails?id=30021
1317,Gerard Doustraat 74,30022,52.355537538824,4.8915112864544,Amsterdam,SID LEE,Office,http://tour-pedia.org/api/getPlaceDetails?id=30022
1318,Jan Vroegopsingel 4,30023,52.3359452583,4.9083494813305,Amsterdam,Roeivereniging Willem III,Other Great Outdoors,http://tour-pedia.org/api/getPlaceDetails?id=30023
1323,"RAI, Amsterdam",30028,52.343347,4.889457,Amsterdam,Teleste Booth,General Entertainment,http://tour-pedia.org/api/getPlaceDetails?id=30028
1325,Amstelpark,30031,52.3287880175,4.8926675468825,Amsterdam,Shamajo fair (Kermis voor meervoudig beperkte mensen),Theme Park,http://tour-pedia.org/api/getPlaceDetails?id=30031
1326,De Borcht 10,30032,52.324083163846,4.8944201104114,Amsterdam,De Riekermolen,Monument / Landmark,http://tour-pedia.org/api/getPlaceDetails?id=30032
1327,amsteldijk,30033,52.323721580385,4.8946279766721,Amsterdam,Rembrandt Beeld,Art Gallery,http://tour-pedia.org/api/getPlaceDetails?id=30033
1328,Ouderkerkerdijk 174-245,30034,52.324445776366,4.8971142527551,Amsterdam,De Grote Bocht,Harbor / Marina,http://tour-pedia.org/api/getPlaceDetails?id=30034
1329,Oudekerkerdijk 225,30035,52.322107841253,4.8980525940361,Amsterdam,Klarenbeek 1604 a/h Water,Scenic Lookout,http://tour-pedia.org/api/getPlaceDetails?id=30035
1331,Ouderkerkerdijk 215,30037,52.323238675168,4.8963694139705,Amsterdam,oranjevelt,Art Gallery,http://tour-pedia.org/api/getPlaceDetails?id=30037
1333,Amsteldijk 877,30040,52.334248423576,4.9045479297638,Amsterdam,Palingsteiger,Harbor / Marina,http://tour-pedia.org/api/getPlaceDetails?id=30040
1336,Vikingpad 44,30066,52.415415025977,4.9157723504197,Amsterdam,sv Kadoelen,Soccer Field,http://tour-pedia.org/api/getPlaceDetails?id=30066
1337,Vikingpad 28,30067,52.411903700936,4.9130359707662,Amsterdam,Stichting Ponyclub Floradorp,Stables,http://tour-pedia.org/api/getPlaceDetails?id=30067
1338,Scheepsbouwweg,30068,52.407791,4.899993,Amsterdam,Scheepsbouwweg,Dog Run,http://tour-pedia.org/api/getPlaceDetails?id=30068
1340,Vikingpad 41,30071,52.414160455916,4.914858341217,Amsterdam,Amsterdamse Mixed Hockeyclub FIT,Hockey Field,http://tour-pedia.org/api/getPlaceDetails?id=30071
1342,Vikingpad 1,30073,52.411908,4.914406,Amsterdam,Hockey FIT AMHC,Hockey Field,http://tour-pedia.org/api/getPlaceDetails?id=30073
1345,Papaverweg,30076,52.395200440338,4.9110341985996,Amsterdam,Club De Loods,Nightclub,http://tour-pedia.org/api/getPlaceDetails?id=30076
1347,Asterweg 20H1,30078,52.391113,4.905252,Amsterdam,TENT circustheater producties,Performing Arts Venue,http://tour-pedia.org/api/getPlaceDetails?id=30078
1349,Distelweg,30080,52.391708664182,4.9091506004333,Amsterdam,Disteldorp,Neighborhood,http://tour-pedia.org/api/getPlaceDetails?id=30080
1350,Wilgenweg 16A,30081,52.388885772763,4.9060566709197,Amsterdam,Decibel,General Entertainment,http://tour-pedia.org/api/getPlaceDetails?id=30081
1351,Korte Papaverweg 17,30082,52.394159,4.911255,Amsterdam,Danszaal Eddy Spier,Dance Studio,http://tour-pedia.org/api/getPlaceDetails?id=30082
1352,Silodam 10,30083,52.391527,4.890729,Amsterdam,In Case Of Fire,Public Art,http://tour-pedia.org/api/getPlaceDetails?id=30083
1355,IJplein,30086,52.382292531161,4.9095797538757,Amsterdam,IJplein,Harbor / Marina,http://tour-pedia.org/api/getPlaceDetails?id=30086
1356,Tolhuisweg 2,30087,52.384044813653,4.9058993289693,Amsterdam,Open Coop,Art Gallery,http://tour-pedia.org/api/getPlaceDetails?id=30087
1357,Prins Hendrikkade,30089,52.378877935073,4.8969005895854,Amsterdam,Canal Cruise by Lovers,Other Great Outdoors,http://tour-pedia.org/api/getPlaceDetails?id=30089
1358,Stationsplein 15,30090,52.378319065012,4.8998930727315,Amsterdam,Café Balkon,Café,http://tour-pedia.org/api/getPlaceDetails?id=30090
1360,Haarlemmerstraat 65-67,30092,52.3801,4.89275,Amsterdam,Quentin Arrivé hotel,Hotel,http://tour-pedia.org/api/getPlaceDetails?id=30092
1363,Martelaarsgracht 13HS,30095,52.377768,4.896182,Amsterdam,The Flying Dutchman,Bar,http://tour-pedia.org/api/getPlaceDetails?id=30095
1364,Oudekerksplein 23,30096,52.374103407292,4.8981886598688,Amsterdam,Oude Kerk,Church,http://tour-pedia.org/api/getPlaceDetails?id=30096
1365,Zeedijk,30097,52.374206274781,4.9002193817009,Amsterdam,Chinatown Amsterdam | 阿姆斯特丹唐人街,Neighborhood,http://tour-pedia.org/api/getPlaceDetails?id=30097
1366,Plantage Kerklaan 38-40,30099,52.366955913539,4.9136754870415,Amsterdam,Natura Artis Magistra,Zoo,http://tour-pedia.org/api/getPlaceDetails?id=30099
1368,Rembrandtplein 46,30102,52.365843859019,4.8974186182022,Amsterdam,The Old Bell,Pub,http://tour-pedia.org/api/getPlaceDetails?id=30102
1369,Amstelstraat,30103,52.36636303965,4.9008464813232,Amsterdam,Blauwbrug (Brug 236),Bridge,http://tour-pedia.org/api/getPlaceDetails?id=30103
1370,Muntplein,30104,52.366978842203,4.8932504653931,Amsterdam,Muntplein,Plaza,http://tour-pedia.org/api/getPlaceDetails?id=30104
1371,Amstel 56-58,30105,52.367063,4.895987,Amsterdam,De Kleine Komedie,Theater,http://tour-pedia.org/api/getPlaceDetails?id=30105
1372,Amstel 100,30108,52.3670814879,4.8967239378647,Amsterdam,Mulligans Irish Bar,Pub,http://tour-pedia.org/api/getPlaceDetails?id=30108
1373,Stadhouderskade (Singelgracht),30109,52.358330615989,4.89089012146,Amsterdam,Freddy Heinekenbrug (Brug 84),Bridge,http://tour-pedia.org/api/getPlaceDetails?id=30109
1374,Weesperzijde 130+131,30111,52.349817425062,4.9123405663402,Amsterdam,Café Restaurant Hesp,Bar,http://tour-pedia.org/api/getPlaceDetails?id=30111
1375,Stadhouderskade 550,30112,52.358271,4.891675,Amsterdam,Amsterdam Canal Cruises,Harbor / Marina,http://tour-pedia.org/api/getPlaceDetails?id=30112
1376,Wibautstraat 150,30113,52.352800105341,4.9125623703003,Amsterdam,Doka,Nightclub,http://tour-pedia.org/api/getPlaceDetails?id=30113
1377,Wibautstraat 2,30114,52.358793049242,4.9082896654215,Amsterdam,Studio HvA,College Lab,http://tour-pedia.org/api/getPlaceDetails?id=30114
1378,Utrechtsestraat 140,30115,52.3610843,4.899274,Amsterdam,Café Oosterling,Bar,http://tour-pedia.org/api/getPlaceDetails?id=30115
1379,Amstelkade,30116,52.349785554582,4.9111032485962,Amsterdam,Amstel,River,http://tour-pedia.org/api/getPlaceDetails?id=30116
1380,President Kennedylaan,30117,52.34039981074,4.9109315872192,Amsterdam,Martin Luther Kingpark,Park,http://tour-pedia.org/api/getPlaceDetails?id=30117
1381,Rijnstraat 170,30118,52.34460518298,4.9054820265454,Amsterdam,Yorbody LadyFit,Athletics & Sports,http://tour-pedia.org/api/getPlaceDetails?id=30118
1382,Van der Helstplein 9,30119,52.35172051,4.894834,Amsterdam,Cafe Ruis,Bar,http://tour-pedia.org/api/getPlaceDetails?id=30119
1383,Albert Cuypstraat 124,30120,52.355373779182,4.8925544321537,Amsterdam,Café Toko,Cocktail Bar,http://tour-pedia.org/api/getPlaceDetails?id=30120
1387,Weerenweg 21-23,30124,52.328990629408,4.9081342208403,Amsterdam,Silverstone karting,Racetrack,http://tour-pedia.org/api/getPlaceDetails?id=30124
1390,De Parade,30127,52.340130257002,4.9093283820493,Amsterdam,Cafe Correct,Pub,http://tour-pedia.org/api/getPlaceDetails?id=30127
1391,Martin Luther King Park,30128,52.340419186085,4.9102715294969,Amsterdam,De Zweef,Theme Park Ride / Attraction,http://tour-pedia.org/api/getPlaceDetails?id=30128
1392,Martin Luther Kingpark,30129,52.340819327861,4.9125623703003,Amsterdam,Rups,Theater,http://tour-pedia.org/api/getPlaceDetails?id=30129
1393,Kinderdijkstraat 3,30130,52.343162844551,4.9035134838652,Amsterdam,TennisVerenigingRivierenbuurt,Tennis Court,http://tour-pedia.org/api/getPlaceDetails?id=30130
1394,Parade Amsterdam,30131,52.340892339125,4.9114046618342,Amsterdam,Silent Disco,Music Venue,http://tour-pedia.org/api/getPlaceDetails?id=30131
1396,Ouderkerkerdijk 150,30134,52.32862548843,4.9034321308136,Amsterdam,survival vereniging APGS,Athletics & Sports,http://tour-pedia.org/api/getPlaceDetails?id=30134
1400,Zuidelijke Wandelweg 23,30140,52.33755998,4.90364662,Amsterdam,Reuben's Partijtje,Field,http://tour-pedia.org/api/getPlaceDetails?id=30140
1406,Ankerplaats 36,30150,52.40755060207,4.9168733295114,Amsterdam,Winkelcentrum Banne Centrum,Mall,http://tour-pedia.org/api/getPlaceDetails?id=30150
1408,Vikingpad,30152,52.412000867728,4.9155879020691,Amsterdam,Honden uitlaat zone,Dog Run,http://tour-pedia.org/api/getPlaceDetails?id=30152
1410,Koppelingpad,30155,52.405312017657,4.9043762683868,Amsterdam,bart & margreets boot,Lake,http://tour-pedia.org/api/getPlaceDetails?id=30155
1411,Aakhof,30156,52.406348716498,4.9134940088469,Amsterdam,Aakhof,Park,http://tour-pedia.org/api/getPlaceDetails?id=30156
1412,Ankerplaats 2,30157,52.40644949,4.9171718735886,Amsterdam,In de Ban,Bar,http://tour-pedia.org/api/getPlaceDetails?id=30157
1413,Sneeuwbalweg 5,30158,52.398822342301,4.9187325704524,Amsterdam,Floraparkbad,Gym Pool,http://tour-pedia.org/api/getPlaceDetails?id=30158
1414,Buiksloterkerkpad 10,30159,52.401849767539,4.9160933446144,Amsterdam,Buiksloterkerk,Church,http://tour-pedia.org/api/getPlaceDetails?id=30159
1417,Buikslotermeerdijk,30162,52.406703345492,4.9266089666393,Amsterdam,De Nieuwe Noorder,Cemetery,http://tour-pedia.org/api/getPlaceDetails?id=30162
1420,Buikslotermeerdijk 83,30165,52.406012365545,4.9273252487183,Amsterdam,Noorderbegraafplaats,Cemetery,http://tour-pedia.org/api/getPlaceDetails?id=30165
1423,Floraweg,30168,52.399211320986,4.9161028862,Amsterdam,Floradorp (Tuindorp Buiksloterham),Neighborhood,http://tour-pedia.org/api/getPlaceDetails?id=30168
1424,Noorderpark,30170,52.395043,4.920325,Amsterdam,Noorderparkbar,Bar,http://tour-pedia.org/api/getPlaceDetails?id=30170
1426,Mosveld 75,30172,52.391508801623,4.9130543839625,Amsterdam,De Bult,Bar,http://tour-pedia.org/api/getPlaceDetails?id=30172
1429,Wingerdweg,30175,52.394720355057,4.9197936058044,Amsterdam,Florapark,Park,http://tour-pedia.org/api/getPlaceDetails?id=30175
1430,Floraparkweg 1,30176,52.395158997653,4.9202310270645,Amsterdam,Noorderparkkamer,Performing Arts Venue,http://tour-pedia.org/api/getPlaceDetails?id=30176
1431,J.H. Hisgenpad 2,30177,52.400291,4.925966,Amsterdam,asv DWV,Soccer Stadium,http://tour-pedia.org/api/getPlaceDetails?id=30177
1433,Kraaienplein,30179,52.386291,4.914593,Amsterdam,Kraaienplein,Plaza,http://tour-pedia.org/api/getPlaceDetails?id=30179
1435,Meeuwenlaan,30181,52.385632279675,4.9162745475769,Amsterdam,Vogelbuurt,Neighborhood,http://tour-pedia.org/api/getPlaceDetails?id=30181
1436,Buiksloterweg 27,30182,52.387701487284,4.9142789840698,Amsterdam,Cafe Ot En Sien,Bar,http://tour-pedia.org/api/getPlaceDetails?id=30182
1438,Sijsjesstraat 21,30184,52.386355259899,4.9169432758999,Amsterdam,Speeltuin De Speelvogel,Playground,http://tour-pedia.org/api/getPlaceDetails?id=30184
1440,Sperwerlaan 27,30186,52.385664735962,4.9141167985778,Amsterdam,Mazazik,Hookah Bar,http://tour-pedia.org/api/getPlaceDetails?id=30186
1441,Sixhavenweg,30187,52.382233592154,4.9063074588776,Amsterdam,Sixhaven,Harbor / Marina,http://tour-pedia.org/api/getPlaceDetails?id=30187
1443,Ijpromenade,30189,52.38624699322,4.8996577798419,Amsterdam,IJpromenade,Park,http://tour-pedia.org/api/getPlaceDetails?id=30189
1444,Westerdoksplein 20-3,30190,52.383104571693,4.8932611942291,Amsterdam,Westerdoksluis (Brug 314),Bridge,http://tour-pedia.org/api/getPlaceDetails?id=30190
1449,Han Lammersburg,30195,52.383192085184,4.8914282716663,Amsterdam,Han Lammersbrug,Bridge,http://tour-pedia.org/api/getPlaceDetails?id=30195
1451,Westerdok 318,30197,52.38437499224,4.8917055130005,Amsterdam,Ateliers Westerdok,Art Gallery,http://tour-pedia.org/api/getPlaceDetails?id=30197
1452,Oosterdoksstraat,30198,52.376673325371,4.9070692062378,Amsterdam,Oosterdokseiland,Island,http://tour-pedia.org/api/getPlaceDetails?id=30198
1453,Prins Hendrikkade 85,30199,52.376846466173,4.9015374102388,Amsterdam,Café Batavia 1920,Bar,http://tour-pedia.org/api/getPlaceDetails?id=30199
1454,Zeedijk 4-8,30200,52.376114,4.900325,Amsterdam,'Skek,Pub,http://tour-pedia.org/api/getPlaceDetails?id=30200
1455,Gedempt Hamerkanaal t/o 96,30201,52.382790235194,4.9206519126892,Amsterdam,Kromhouthal (De Overkant),General Entertainment,http://tour-pedia.org/api/getPlaceDetails?id=30201
1456,Oostelijke Handelskade,30202,52.378088017956,4.9226045608521,Amsterdam,Jan Schaeferbrug (Brug 2000),Bridge,http://tour-pedia.org/api/getPlaceDetails?id=30202
1457,Zeedijk 1,30203,52.376362799267,4.9000119779255,Amsterdam,In 't Aepjen,Pub,http://tour-pedia.org/api/getPlaceDetails?id=30203
1458,Zeedijk 21,30204,52.375842,4.900639,Amsterdam,De Engel van Amsterdam,Gay Bar,http://tour-pedia.org/api/getPlaceDetails?id=30204
1459,Zeedijk 20HS,30205,52.375597147512,4.900494377815,Amsterdam,The Queen's Head,Gay Bar,http://tour-pedia.org/api/getPlaceDetails?id=30205
1460,Prins Hendrikkade 121HS,30206,52.374343,4.905044,Amsterdam,Café Pollux,Bar,http://tour-pedia.org/api/getPlaceDetails?id=30206
1461,Zeedijk 26E,30207,52.375566407152,4.9007049052403,Amsterdam,Casablanca,Karaoke Bar,http://tour-pedia.org/api/getPlaceDetails?id=30207
1462,Damrak 35,30208,52.375837131353,4.89661786055,Amsterdam,Teasers,Nightclub,http://tour-pedia.org/api/getPlaceDetails?id=30208
1463,Oudezijds Voorburgwal 3,30209,52.375144123666,4.9000899104446,Amsterdam,Hotel The Globe Amsterdam,Hostel,http://tour-pedia.org/api/getPlaceDetails?id=30209
1464,Oudezijds Voorburgwal 40,30210,52.375006554262,4.8994294095684,Amsterdam,Museum Ons' Lieve Heer op Solder,Museum,http://tour-pedia.org/api/getPlaceDetails?id=30210
1465,Rokin 85HS,30211,52.370288,4.892854,Amsterdam,The Tara Irish Pub,Bar,http://tour-pedia.org/api/getPlaceDetails?id=30211
1466,Amstel,30213,52.363559064181,4.9023699760437,Amsterdam,Magere Brug (Brug 242),Bridge,http://tour-pedia.org/api/getPlaceDetails?id=30213
1468,Plantage Middenlaan 51,30215,52.364600748741,4.9178516864777,Amsterdam,Artis Aquarium,Aquarium,http://tour-pedia.org/api/getPlaceDetails?id=30215
1469,Thorbeckeplein 5,30217,52.365498281148,4.8955249786377,Amsterdam,Heeren van Aemstel,Music Venue,http://tour-pedia.org/api/getPlaceDetails?id=30217
1470,Amstel,30218,52.355237809075,4.9066615104675,Amsterdam,De Amstel,River,http://tour-pedia.org/api/getPlaceDetails?id=30218
1471,Weesperzijde 190,30219,52.34615471402,4.9167680740356,Amsterdam,De LAX,Bar,http://tour-pedia.org/api/getPlaceDetails?id=30219
1472,Ceintuurbaan,30220,52.356161742287,4.9061143398285,Amsterdam,Nieuwe Amstelbrug (Brug 101),Bridge,http://tour-pedia.org/api/getPlaceDetails?id=30220
1473,Amsteldijk (Amstel),30222,52.347360658039,4.9127447605133,Amsterdam,Berlagebrug (Brug 423),Bridge,http://tour-pedia.org/api/getPlaceDetails?id=30222
1474,Sarphatistraat,30223,52.36033558279,4.904043674469,Amsterdam,Hogesluisbrug (Brug 246),Bridge,http://tour-pedia.org/api/getPlaceDetails?id=30223
1476,Ruyschstraat 34,30225,52.35696158938,4.9092448029314,Amsterdam,De Ruyschkamer,Bar,http://tour-pedia.org/api/getPlaceDetails?id=30225
1477,Wibautstraat 2-4,30226,52.35891376931,4.9085175991058,Amsterdam,Kohnstammhof,Plaza,http://tour-pedia.org/api/getPlaceDetails?id=30226
1478,Beukenplein 27,30227,52.356902,4.918481,Amsterdam,Café Maxwell,Pub,http://tour-pedia.org/api/getPlaceDetails?id=30227
1479,Eerste Sweelinckstraat,30228,52.356436952702,4.8974347114563,Amsterdam,André Hazes standbeeld,Other Great Outdoors,http://tour-pedia.org/api/getPlaceDetails?id=30228
1480,Eerste Sweelinckstraat 10,30229,52.356572485344,4.8971659383137,Amsterdam,De Badcuyp,Music Venue,http://tour-pedia.org/api/getPlaceDetails?id=30229
1481,Van Woustraat 17,30230,52.356936720999,4.8996400995263,Amsterdam,Running Junkies,Track,http://tour-pedia.org/api/getPlaceDetails?id=30230
1482,Albert Cuypstraat 240HS,30231,52.356578,4.89765072,Amsterdam,Café Bozz,Pub,http://tour-pedia.org/api/getPlaceDetails?id=30231
1483,Stadhouderskade,30232,52.358894112582,4.9047946929932,Amsterdam,Torontobrug (Brug 350),Bridge,http://tour-pedia.org/api/getPlaceDetails?id=30232
1486,Spaklerweg,30235,52.333787083626,4.91692174,Amsterdam,Amstel Business Park,Other Great Outdoors,http://tour-pedia.org/api/getPlaceDetails?id=30235
1487,Willem Fenengastraat 12,30236,52.334440876669,4.9170424767763,Amsterdam,Melody Muziekcafé,Music Venue,http://tour-pedia.org/api/getPlaceDetails?id=30236
1488,Victorieplein,30237,52.346277,4.904499,Amsterdam,Victory Square,Other Great Outdoors,http://tour-pedia.org/api/getPlaceDetails?id=30237
1489,vrijheidslaan,30238,52.346881866455,4.9082107543945,Amsterdam,Lol palace,Playground,http://tour-pedia.org/api/getPlaceDetails?id=30238
1492,IJselstraat,30241,52.347175594379,4.9027746297307,Amsterdam,M&N's Casa di Mangiare,General Entertainment,http://tour-pedia.org/api/getPlaceDetails?id=30241
1495,Daniël Goedkoopstraat 16,30244,52.334970571093,4.9203644401997,Amsterdam,Poledance Factory,Dance Studio,http://tour-pedia.org/api/getPlaceDetails?id=30244
1497,Borssenburgplein,30246,52.34868713841,4.9074114704153,Amsterdam,Borssenburgplein,Park,http://tour-pedia.org/api/getPlaceDetails?id=30246
1498,Rijnstraat 11,30247,52.348371,4.9044698,Amsterdam,Café Riviera,Bar,http://tour-pedia.org/api/getPlaceDetails?id=30247
1499,Weesperzijde 1094,30248,52.348072,4.912859,Amsterdam,Roeicentrum Berlagebrug,Other Great Outdoors,http://tour-pedia.org/api/getPlaceDetails?id=30248
1500,Amsteldijk,30249,52.349837983308,4.9097406864166,Amsterdam,P.L. Kramerbrug (Brug 400),Bridge,http://tour-pedia.org/api/getPlaceDetails?id=30249
1501,Weesperzijde,30250,52.349942840575,4.9121761322021,Amsterdam,Weesperkade,Scenic Lookout,http://tour-pedia.org/api/getPlaceDetails?id=30250
1502,Ferdinand Bolstraat 333,30251,52.347330880325,4.8913513708181,Amsterdam,Hotel Okura Main Kitchen,Hotel Bar,http://tour-pedia.org/api/getPlaceDetails?id=30251
1505,Willem Fenengastraat 12,30255,52.334395,4.917059,Amsterdam,Brasa Dance Studios,Dance Studio,http://tour-pedia.org/api/getPlaceDetails?id=30255
1506,Spaklerweg 8,30256,52.342465,4.918895,Amsterdam,Omvalbrug,Bridge,http://tour-pedia.org/api/getPlaceDetails?id=30256
1508,Willem Fenegastraat 12,30258,52.334459949544,4.9170268406001,Amsterdam,Swing Latino/BrasaZouk,Dance Studio,http://tour-pedia.org/api/getPlaceDetails?id=30258
1509,Martin Luther Kingpark,30259,52.340457,4.91184,Amsterdam,Studio 7,Theater,http://tour-pedia.org/api/getPlaceDetails?id=30259
1510,Korte Ouderkerkerdijk 10,30260,52.341881,4.917725,Amsterdam,"Jachthaven ""De Omval""",Harbor / Marina,http://tour-pedia.org/api/getPlaceDetails?id=30260
1514,Korte Ouderkerkerdijk 30,30264,52.340712422531,4.9164342531214,Amsterdam,BadBuiten,Pool,http://tour-pedia.org/api/getPlaceDetails?id=30264
1517,Lekstraat 63,30267,52.344095,4.902747,Amsterdam,AAG,Art Gallery,http://tour-pedia.org/api/getPlaceDetails?id=30267
1519,Uiterwaardstraat 209,30269,52.342728,4.898569,Amsterdam,BBK,Public Art,http://tour-pedia.org/api/getPlaceDetails?id=30269
1520,Weesperzijde,30270,52.34296929064,4.9208879470825,Amsterdam,Amstel Skatebaan,Skate Park,http://tour-pedia.org/api/getPlaceDetails?id=30270
1521,Willem Fenegastraat 12,30272,52.333704992212,4.9167363453752,Amsterdam,BrasaZouk,Nightclub,http://tour-pedia.org/api/getPlaceDetails?id=30272
1524,Amstelpark,30278,52.330467891588,4.8948490619659,Amsterdam,Japanse Tuin,Garden,http://tour-pedia.org/api/getPlaceDetails?id=30278
1525,OuderKerkerDijk 225,30279,52.328057,4.900951,Amsterdam,Zorglandgoed Klarenbeek,Farm,http://tour-pedia.org/api/getPlaceDetails?id=30279
1526,Parlevinker 6,30280,52.409218407545,4.9226368706892,Amsterdam,De Banne,Other Great Outdoors,http://tour-pedia.org/api/getPlaceDetails?id=30280
1528,Giessenburg 46,30282,52.413233193526,4.9254327511741,Amsterdam,Giessenburg 46,Casino,http://tour-pedia.org/api/getPlaceDetails?id=30282
1530,"Statenjachtstraat, 1034 Stadsdeel Noord",30284,52.406117070481,4.918654302925,Amsterdam,speeltuin De Zeeslag,Playground,http://tour-pedia.org/api/getPlaceDetails?id=30284
1531,Noordhollandskanaaldijk 19 (behind the Krijtmolen),30286,52.40173810671,4.9229907989502,Amsterdam,"Kinderboerderij ""De Buiktuin""",Other Great Outdoors,http://tour-pedia.org/api/getPlaceDetails?id=30286
1535,IJdoornlaan,30290,52.404840749268,4.9250507354736,Amsterdam,Bannebrug - IJdoornlaanbrug - Brug der Zuchten (Brug 970),Bridge,http://tour-pedia.org/api/getPlaceDetails?id=30290
1536,Noordhollandskanaaldijk 19,30293,52.40203,4.923025,Amsterdam,De Buiktuin,Farm,http://tour-pedia.org/api/getPlaceDetails?id=30293
1537,Kamperfoelieweg 207,30294,52.399143818939,4.9105801255944,Amsterdam,Huize Antonius,Other Nightlife,http://tour-pedia.org/api/getPlaceDetails?id=30294
1539,Buiksloterdijk 205-235,30296,52.397688031197,4.9220412969589,Amsterdam,Moestuin,Garden,http://tour-pedia.org/api/getPlaceDetails?id=30296
1540,Schiermonnikoogstraat,30297,52.393630277634,4.9268370866776,Amsterdam,Stoeptegel,Field,http://tour-pedia.org/api/getPlaceDetails?id=30297
1542,Sneeuwbalstraat,30300,52.39511316915,4.9163389205933,Amsterdam,Bloemenbuurt (Tuindorp Buiksloterham),Neighborhood,http://tour-pedia.org/api/getPlaceDetails?id=30300
1544,Ridderspoorweg,30302,52.395257200108,4.9034643173218,Amsterdam,Ridderspoorbrug,Bridge,http://tour-pedia.org/api/getPlaceDetails?id=30302
1547,Schiermonnikoogstraat,30305,52.393703670623,4.9267995357513,Amsterdam,Buiten,Garden,http://tour-pedia.org/api/getPlaceDetails?id=30305
1549,Mekongweg 5,30307,52.380270952339,4.9061200043224,Amsterdam,The Sand Amsterdam,Concert Hall,http://tour-pedia.org/api/getPlaceDetails?id=30307
1550,Meeuwenlaan,30308,52.389927741583,4.9307155609131,Amsterdam,W.H. Vliegenbos,Park,http://tour-pedia.org/api/getPlaceDetails?id=30308
1551,Amsterdam Noord,30309,52.38943317944,4.9227441159504,Amsterdam,Amsterdam Noord,Neighborhood,http://tour-pedia.org/api/getPlaceDetails?id=30309
1552,Meeuwenlaan 138b,30310,52.390772379274,4.9277624487877,Amsterdam,Scouting Wartburg,Other Great Outdoors,http://tour-pedia.org/api/getPlaceDetails?id=30310
1553,Meeuwenlaan 98-100,30311,52.385461919171,4.9216546808816,Amsterdam,A-Film,Office,http://tour-pedia.org/api/getPlaceDetails?id=30311
1554,Meeuwenlaan 138,30312,52.390622862938,4.92842452704,Amsterdam,Camping Vliegenbos,Campground,http://tour-pedia.org/api/getPlaceDetails?id=30312
1556,Meeuwenlaan 98-100,30314,52.385263,4.921637,Amsterdam,A-Film Screeningroom,Movie Theater,http://tour-pedia.org/api/getPlaceDetails?id=30314
1558,Zamenhofstraat,30316,52.388485812718,4.9277588387683,Amsterdam,Volkstuinencomplex Buitenzorg,Garden,http://tour-pedia.org/api/getPlaceDetails?id=30316
1559,Zamenhofstraat,30317,52.387563979661,4.9272608757019,Amsterdam,Vogeldorp,Neighborhood,http://tour-pedia.org/api/getPlaceDetails?id=30317
1560,Tip of the Java island,30318,52.37950266522,4.9180555343628,Amsterdam,Kop van Java-eiland,Scenic Lookout,http://tour-pedia.org/api/getPlaceDetails?id=30318
1561,Dijksgracht 2,30319,52.376571186145,4.9117258301843,Amsterdam,De Klimmuur,Climbing Gym,http://tour-pedia.org/api/getPlaceDetails?id=30319
1562,Atlantisplein 1,30320,52.376948408035,4.9204802513123,Amsterdam,RIDE,Indie Theater,http://tour-pedia.org/api/getPlaceDetails?id=30320
1563,De Ruyterkade 153,30321,52.377675395175,4.909487297583,Amsterdam,Lovers Powerzone,Bowling Alley,http://tour-pedia.org/api/getPlaceDetails?id=30321
1564,Oosterdokstraat 4,30322,52.37651628331,4.9052294445579,Amsterdam,Executive Lounge,Hotel Bar,http://tour-pedia.org/api/getPlaceDetails?id=30322
1567,Oosterdok 2,30325,52.374163,4.91235273,Amsterdam,BovenNEMO,Scenic Lookout,http://tour-pedia.org/api/getPlaceDetails?id=30325
1568,Aambeeldstraat 24,30326,52.383482,4.92893945,Amsterdam,M-Lab,Theater,http://tour-pedia.org/api/getPlaceDetails?id=30326
1570,oosterdokkade 4,30328,52.376622178402,4.9055533721108,Amsterdam,double tree street terrace,Bar,http://tour-pedia.org/api/getPlaceDetails?id=30328
1571,Oosterdoksstraat 4,30329,52.37666,4.905457,Amsterdam,Lobby Bar,Bar,http://tour-pedia.org/api/getPlaceDetails?id=30329
1572,Veemkade 576,30330,52.376066780659,4.927740766107,Amsterdam,Café Pakhuis Wilhelmina,Music Venue,http://tour-pedia.org/api/getPlaceDetails?id=30330
1573,Piet Heinkade 4,30331,52.377681953426,4.9132490158081,Amsterdam,Zouthavenbrug (Brug 2326),Bridge,http://tour-pedia.org/api/getPlaceDetails?id=30331
1574,Oosterdokskade 143,30332,52.375585666072,4.9079860031732,Amsterdam,AmsterdamFM in de OBA,General Entertainment,http://tour-pedia.org/api/getPlaceDetails?id=30332
1575,De Ruijterkade,30333,52.378424608924,4.8995336751438,Amsterdam,Fietsknooppunt 5,Other Great Outdoors,http://tour-pedia.org/api/getPlaceDetails?id=30333
1576,Veenkade,30334,52.376553,4.924455,Amsterdam,Veenkade,Outdoors & Recreation,http://tour-pedia.org/api/getPlaceDetails?id=30334
1580,Oosterdokskade,30338,52.373961704572,4.909815788269,Amsterdam,Oosterdok,Harbor / Marina,http://tour-pedia.org/api/getPlaceDetails?id=30338
1581,Prins Hendrikkade 600,30339,52.37145625477,4.9126321077347,Amsterdam,ARCAM,Museum,http://tour-pedia.org/api/getPlaceDetails?id=30339
1582,Funenkade 7,30341,52.366638186532,4.9263060092926,Amsterdam,Brouwerij 't IJ,Brewery,http://tour-pedia.org/api/getPlaceDetails?id=30341
1583,Rapenburg 18,30342,52.371701893387,4.9076271057129,Amsterdam,HPS,Cocktail Bar,http://tour-pedia.org/api/getPlaceDetails?id=30342
1584,Natura Artis Magistra,30343,52.367277145386,4.91325799,Amsterdam,Artis Planetarium,Planetarium,http://tour-pedia.org/api/getPlaceDetails?id=30343
1585,Nieuwe Uilenburgerstraat 173-175,30344,52.369624536613,4.9037132048898,Amsterdam,Gassan Diamonds,Jewelry Store,http://tour-pedia.org/api/getPlaceDetails?id=30344
1586,Voc-Kade 10-12,30346,52.371663418954,4.9256904798219,Amsterdam,Mediamatic Fabriek,Art Gallery,http://tour-pedia.org/api/getPlaceDetails?id=30346
1588,Nieuwmarkt 2,30348,52.373046375913,4.9004407433106,Amsterdam,Café De Zon,Bar,http://tour-pedia.org/api/getPlaceDetails?id=30348
1589,Nieuwe Achtergracht 170,30349,52.363401826643,4.9129915237427,Amsterdam,CREA Café,Speakeasy,http://tour-pedia.org/api/getPlaceDetails?id=30349
1590,Nieuwe Achtergracht 170,30350,52.363135005962,4.9131465669234,Amsterdam,Crea Studio's,College Arts Building,http://tour-pedia.org/api/getPlaceDetails?id=30350
1591,Linaeusstraat 29,30351,52.36218600399,4.9239264869416,Amsterdam,De Biertuin,Beer Garden,http://tour-pedia.org/api/getPlaceDetails?id=30351
1592,Dapperstraat,30352,52.362664768221,4.9274861812592,Amsterdam,Dappermarkt,Market,http://tour-pedia.org/api/getPlaceDetails?id=30352
1593,Funenpark,30353,52.368231840738,4.9298777770523,Amsterdam,Funenpark,Park,http://tour-pedia.org/api/getPlaceDetails?id=30353
1594,Mauritskade 63,30354,52.362589423778,4.9214565753937,Amsterdam,Koninklijk Instituut voor de Tropen,Monument / Landmark,http://tour-pedia.org/api/getPlaceDetails?id=30354
1595,Jodenbreestraat 1,30355,52.369768809804,4.9017139913594,Amsterdam,De Sluyswacht,Bar,http://tour-pedia.org/api/getPlaceDetails?id=30355
1596,Amstelstraat 30,30356,52.366218,4.899518,Amsterdam,Abe,Lounge,http://tour-pedia.org/api/getPlaceDetails?id=30356
1597,Keizersgracht 711HS,30357,52.363975140538,4.8983724236849,Amsterdam,Café van Leeuwen,Bar,http://tour-pedia.org/api/getPlaceDetails?id=30357
1598,Dapperstraat,30358,52.362229232977,4.9259473487454,Amsterdam,Dapperbuurt,Other Great Outdoors,http://tour-pedia.org/api/getPlaceDetails?id=30358
1599,Natura Artis Magistra,30359,52.365349087943,4.9203450718931,Amsterdam,Vlinderpaviljoen,Zoo,http://tour-pedia.org/api/getPlaceDetails?id=30359
1600,Fronemanstraat 3,30360,52.356560923966,4.9288643347162,Amsterdam,Sportfondsenbad Oost,Gym Pool,http://tour-pedia.org/api/getPlaceDetails?id=30360
1601,Atlantisplein 1,30361,52.357360860844,4.9305438995361,Amsterdam,MuzyQ Studio's,Music Venue,http://tour-pedia.org/api/getPlaceDetails?id=30361
1602,Plantage Muidergracht 155,30362,52.363927,4.917749,Amsterdam,De Plantage,Dance Studio,http://tour-pedia.org/api/getPlaceDetails?id=30362
1603,Sarphatistraat 510,30363,52.363888,4.919803,Amsterdam,De Groene Olifant,Bar,http://tour-pedia.org/api/getPlaceDetails?id=30363
1605,Linnaeusstraat 48HS,30366,52.35747,4.926745,Amsterdam,Ruk & Pluk,Bar,http://tour-pedia.org/api/getPlaceDetails?id=30366
1606,Plantage Middenlaan 4a,30367,52.367018,4.909558,Amsterdam,Desmet Studio's,Bar,http://tour-pedia.org/api/getPlaceDetails?id=30367
1607,Amstel 81,30368,52.363704442978,4.903044,Amsterdam,Café De Magere Brug,Bar,http://tour-pedia.org/api/getPlaceDetails?id=30368
1608,Plantage Parklaan 10,30369,52.367256,4.90943,Amsterdam,Cafe Smit & Voogt,Bar,http://tour-pedia.org/api/getPlaceDetails?id=30369
1609,Plantage Kerklaan 61D,30370,52.367933460313,4.9126261884308,Amsterdam,Verzetsmuseum,Museum,http://tour-pedia.org/api/getPlaceDetails?id=30370
1610,Plantage Middenlaan 24,30371,52.36638028319,4.9110724711423,Amsterdam,Hollandsche Schouwburg,Museum,http://tour-pedia.org/api/getPlaceDetails?id=30371
1613,Wibautstraat 150,30375,52.353987,4.912056,Amsterdam,Volkskrantgebouw,Art Gallery,http://tour-pedia.org/api/getPlaceDetails?id=30375
1614,Weesperzijde 1046 a,30376,52.354227922502,4.9086081454214,Amsterdam,"Koninklijke Amsterdamsche Roei- en Zeilvereeniging ""De Hoop""",Other Great Outdoors,http://tour-pedia.org/api/getPlaceDetails?id=30376
1615,Van Woustraat,30377,52.354555563981,4.9014179635435,Amsterdam,Van Woustraat,Other Great Outdoors,http://tour-pedia.org/api/getPlaceDetails?id=30377
1617,Krugerplein,30379,52.353940950308,4.9201348064748,Amsterdam,Krugerplein,Plaza,http://tour-pedia.org/api/getPlaceDetails?id=30379
1618,Linnaeusstraat,30380,52.3590882022,4.926085911037,Amsterdam,de Linnaeusstraat,Plaza,http://tour-pedia.org/api/getPlaceDetails?id=30380
1620,Middenweg 73HS,30382,52.353121662292,4.9317431816859,Amsterdam,Elsa's Café,Bar,http://tour-pedia.org/api/getPlaceDetails?id=30382
1621,Wibautstraat 85,30383,52.356521,4.9107731,Amsterdam,Café Leentje,Bar,http://tour-pedia.org/api/getPlaceDetails?id=30383
1622,Tweede Boerhaavestraat 10,30384,52.359084021458,4.9108329111295,Amsterdam,Amstelcampushal,Athletics & Sports,http://tour-pedia.org/api/getPlaceDetails?id=30384
1623,Hemonystraat,30385,52.356073343545,4.9029068836428,Amsterdam,Galerie & Coffeeshop Yo-yo,Art Gallery,http://tour-pedia.org/api/getPlaceDetails?id=30385
1625,Oosterpark,30388,52.360246,4.9169892311197,Amsterdam,Speeltuin Oosterpark,Playground,http://tour-pedia.org/api/getPlaceDetails?id=30388
1626,Middenweg (Ringvaart),30389,52.355296784112,4.9282371997833,Amsterdam,Oetewalerbrug (Brug 189),Bridge,http://tour-pedia.org/api/getPlaceDetails?id=30389
1627,Linnaeusstraat 219,30390,52.356312009687,4.9276020061114,Amsterdam,Meram Café Oost,Hookah Bar,http://tour-pedia.org/api/getPlaceDetails?id=30390
1630,Vechstraat,30393,52.34503232828,4.9077719489667,Amsterdam,Vechstraat,Playground,http://tour-pedia.org/api/getPlaceDetails?id=30393
1633,Kruislaan 4,30396,52.340594530106,4.9296855926514,Amsterdam,ASV Wartburgia,Soccer Field,http://tour-pedia.org/api/getPlaceDetails?id=30396
1634,Eerste Ringdijkstraat 4,30397,52.349951,4.918761,Amsterdam,Bar Upstairs,Hotel Bar,http://tour-pedia.org/api/getPlaceDetails?id=30397
1638,Weesperzijde 94,30401,52.352319,4.910933,Amsterdam,Galerie Weesperzijde,Art Gallery,http://tour-pedia.org/api/getPlaceDetails?id=30401
1639,Drie Burgpad 3,30403,52.340528411477,4.9295644262887,Amsterdam,A.V.V. Fit,Soccer Field,http://tour-pedia.org/api/getPlaceDetails?id=30403
1640,Duivendrechtsekade 80,30404,52.337107009295,4.9348836529622,Amsterdam,Singel Studio,General Entertainment,http://tour-pedia.org/api/getPlaceDetails?id=30404
1642,H.J.E. Wenckebachweg,30406,52.336596,4.926329,Amsterdam,Bajesdorp Festival,Music Venue,http://tour-pedia.org/api/getPlaceDetails?id=30406
1648,H. Cleyndertweg 63B,30443,52.401954120537,4.9357688426971,Amsterdam,J.A.N. Café De Afdeling,Bar,http://tour-pedia.org/api/getPlaceDetails?id=30443
1649,bep van klaveren boulevard,30444,52.404789,4.918189,Amsterdam,Ruth's Playboy Mansion,Gay Bar,http://tour-pedia.org/api/getPlaceDetails?id=30444
1653,Buikslotermeerpleim,30448,52.400361906556,4.9339900011288,Amsterdam,Kermis,Theme Park,http://tour-pedia.org/api/getPlaceDetails?id=30448
1655,Buikslotermeerplein 6,30450,52.400895819289,4.9369823287486,Amsterdam,Lucky Jack,Casino,http://tour-pedia.org/api/getPlaceDetails?id=30450
1656,Buikslotermeerplein,30451,52.399525540561,4.9351680278778,Amsterdam,Buikslotermeerplein,Plaza,http://tour-pedia.org/api/getPlaceDetails?id=30451
1659,Buikslotermeerplein 11,30454,52.399524,4.93536,Amsterdam,La Rosa,Bar,http://tour-pedia.org/api/getPlaceDetails?id=30454
1660,Buikslotermeerplein 145,30455,52.399198,4.937407,Amsterdam,Snookercentrum Boven 't IJ,Pool Hall,http://tour-pedia.org/api/getPlaceDetails?id=30455
1661,Zamenhofstraat 28a,30456,52.388186034544,4.9259734153748,Amsterdam,Museum Amsterdam Noord,History Museum,http://tour-pedia.org/api/getPlaceDetails?id=30456
1662,Nieuwendammerkade 15,30458,52.389872187694,4.9360767712445,Amsterdam,TC. Elzenhagen,Other Great Outdoors,http://tour-pedia.org/api/getPlaceDetails?id=30458
1664,Java Eiland,30460,52.37735447931,4.9349212646484,Amsterdam,Java Eiland,Island,http://tour-pedia.org/api/getPlaceDetails?id=30460
1666,Veemkade,30463,52.376022488089,4.926807224087,Amsterdam,IJhaven,Harbor / Marina,http://tour-pedia.org/api/getPlaceDetails?id=30463
1670,Oudeschans 22,30467,52.372390457007,4.9108732068581,Amsterdam,Iris,Harbor / Marina,http://tour-pedia.org/api/getPlaceDetails?id=30467
1673,KNSM Laan,30471,52.377118696443,4.9395990371704,Amsterdam,KNSM - Eiland,Other Great Outdoors,http://tour-pedia.org/api/getPlaceDetails?id=30471
1674,Fred Petterbaan,30472,52.372858014134,4.9338430166245,Amsterdam,Voor de Bijen (gestapelde tafels),Sculpture Garden,http://tour-pedia.org/api/getPlaceDetails?id=30472
1676,Panamalaan 38,30474,52.370241142317,4.9343419075012,Amsterdam,Castle Wolfenstein,Castle,http://tour-pedia.org/api/getPlaceDetails?id=30474
1677,Azartplein 2A,30475,52.376455664635,4.937823,Amsterdam,Café De Zuid,Bar,http://tour-pedia.org/api/getPlaceDetails?id=30475
1678,Rapenburgerplein 1,30476,52.370418,4.91119685,Amsterdam,Café Scharrebier,Bar,http://tour-pedia.org/api/getPlaceDetails?id=30476
1679,Zeeburgerdijk 3,30477,52.366054,4.926696,Amsterdam,Dorst,Bar,http://tour-pedia.org/api/getPlaceDetails?id=30477
1681,Natura Artis Magistra,30479,52.367231,4.9151368718594,Amsterdam,Reptielenhuis,Zoo,http://tour-pedia.org/api/getPlaceDetails?id=30479
1684,Sumatrastraat,30483,52.358645126601,4.9376463890076,Amsterdam,"Amsterdam Oost, Watergraafsmeer en de Eilanden",Neighborhood,http://tour-pedia.org/api/getPlaceDetails?id=30483
1685,Alexanderplein,30484,52.363779033998,4.9191993781684,Amsterdam,Alexanderplein,Plaza,http://tour-pedia.org/api/getPlaceDetails?id=30484
1687,Natura Artis Magistra,30486,52.365211,4.920116,Amsterdam,Zeeleeuwen,Aquarium,http://tour-pedia.org/api/getPlaceDetails?id=30486
1688,Roetersstraat 192,30487,52.362314251679,4.9108242988586,Amsterdam,Café De Roeter,Bar,http://tour-pedia.org/api/getPlaceDetails?id=30487
1689,Middenweg 72,30488,52.351222256318,4.9334483458253,Amsterdam,Huize Frankendael,Monument / Landmark,http://tour-pedia.org/api/getPlaceDetails?id=30488
1690,Nieuwe Achtergracht 110,30489,52.362766,4.909838,Amsterdam,Poollokaal De gracht,Pool Hall,http://tour-pedia.org/api/getPlaceDetails?id=30489
1695,Eikenweg 66,30494,52.357336,4.922022,Amsterdam,Buikdanswinkel,Dance Studio,http://tour-pedia.org/api/getPlaceDetails?id=30494
1696,Derde Oosterparkstraat,30495,52.357046341092,4.9186563491821,Amsterdam,Derde Oosterparkstraat,Neighborhood,http://tour-pedia.org/api/getPlaceDetails?id=30495
1698,Polderweg 300,30497,52.357983117309,4.9311631517335,Amsterdam,Wethouder Verheijhal,Stadium,http://tour-pedia.org/api/getPlaceDetails?id=30497
1701,Drieburgpad 5,30501,52.34069566951,4.9321356841127,Amsterdam,DVVA,Soccer Field,http://tour-pedia.org/api/getPlaceDetails?id=30501
1702,Drie Burgpad 3-7,30502,52.34071,4.932334,Amsterdam,Voetbalkantine D.V.V.A.,Sports Bar,http://tour-pedia.org/api/getPlaceDetails?id=30502
1704,Kamerlingh Onneslaan 5,30504,52.351742,4.929567,Amsterdam,Speeltuin Frankendael,Playground,http://tour-pedia.org/api/getPlaceDetails?id=30504
1706,Rijnstraat 1,30506,52.348836986149,4.9049989072337,Amsterdam,Café de Rijnbar,Bar,http://tour-pedia.org/api/getPlaceDetails?id=30506
1708,Duivendrechtsekade 85B,30508,52.337066,4.93576,Amsterdam,Amsterdam Studio's,General Entertainment,http://tour-pedia.org/api/getPlaceDetails?id=30508
1709,Duivendrechtsekade,30510,52.337314457268,4.9362981326143,Amsterdam,Beyoğlu gecesi- Amsterdam,Music Venue,http://tour-pedia.org/api/getPlaceDetails?id=30510
1711,Buikslotermeerdijk 141,30518,52.409232258797,4.9424046278,Amsterdam,Golfbaan Amsterdam-Waterland,Golf Course,http://tour-pedia.org/api/getPlaceDetails?id=30518
1714,H. Cleyndertweg 63/B,30521,52.403577907014,4.9351603401533,Amsterdam,Stichting Trefcentrum Jongerenflat Amsterdam Noord,Bar,http://tour-pedia.org/api/getPlaceDetails?id=30521
1715,Kampina 5,30522,52.403513789177,4.9396044015884,Amsterdam,Paloina,Dance Studio,http://tour-pedia.org/api/getPlaceDetails?id=30522
1717,Amerbos,30524,52.404190093739,4.944756789591,Amsterdam,Amerbos Het Hondenveld,Dog Run,http://tour-pedia.org/api/getPlaceDetails?id=30524
1718,Buikslotermeerplein,30525,52.399559,4.935009,Amsterdam,Bowling Dani Noord,Bowling Alley,http://tour-pedia.org/api/getPlaceDetails?id=30525
1719,Buikslotermeerplein,30526,52.399673,4.936329,Amsterdam,Studio BOEF.,Performing Arts Venue,http://tour-pedia.org/api/getPlaceDetails?id=30526
1720,"Buikslotermeerplein 10, 1025 Stadsdeel Noord",30527,52.399334426349,4.9354232617914,Amsterdam,cafe bascule,Bar,http://tour-pedia.org/api/getPlaceDetails?id=30527
1721,Buikslotermeerplein 178,30528,52.398139530867,4.9371980808335,Amsterdam,Speelplek Buikslotermeerplein,Playground,http://tour-pedia.org/api/getPlaceDetails?id=30528
1722,Buikslotermeerplein 389,30529,52.398357,4.94157,Amsterdam,Cafe Noord,Other Nightlife,http://tour-pedia.org/api/getPlaceDetails?id=30529
1723,Hensbroekerstraat,30531,52.392416,4.943768,Amsterdam,De Zeurlaan,Trail,http://tour-pedia.org/api/getPlaceDetails?id=30531
1724,Tuindorp Nieuwendam,30532,52.391132491205,4.9441266059875,Amsterdam,Purmerplein,Plaza,http://tour-pedia.org/api/getPlaceDetails?id=30532
1725,Purmerweg,30533,52.391067016527,4.9442553520203,Amsterdam,Tuindorp Nieuwendam,Neighborhood,http://tour-pedia.org/api/getPlaceDetails?id=30533
1727,Nieuwendammerdijk 413,30535,52.389575,4.943984,Amsterdam,IJ-zicht,Pub,http://tour-pedia.org/api/getPlaceDetails?id=30535
1736,KNSM-Laan 31,30544,52.37721038993,4.9385905265808,Amsterdam,Amsterdam Recording Company,Music Venue,http://tour-pedia.org/api/getPlaceDetails?id=30544
1737,Veemkade,30545,52.376469,4.925687,Amsterdam,De Kade,Other Great Outdoors,http://tour-pedia.org/api/getPlaceDetails?id=30545
1743,Natura Artis Magistra,30551,52.366573635127,4.9177623613335,Amsterdam,Afrika Savanne,Zoo,http://tour-pedia.org/api/getPlaceDetails?id=30551
1744,Jacob Burggraafstraat,30552,52.371913738461,4.9236462329181,Amsterdam,Het Beamhuis,Indie Movie Theater,http://tour-pedia.org/api/getPlaceDetails?id=30552
1745,"Fortuinstraat 4, 1018 Amsterdam",30553,52.372117665145,4.9247729011982,Amsterdam,Watersportvereniging De Oostvaarders,Harbor / Marina,http://tour-pedia.org/api/getPlaceDetails?id=30553
1746,Kattenburgerstraat 7,30554,52.373581802371,4.9175405502319,Amsterdam,Marine Etablissement Amsterdam,Military Base,http://tour-pedia.org/api/getPlaceDetails?id=30554
1750,Keesje Brijdeplantsoen,30558,52.374054837304,4.9450527923548,Amsterdam,Keesje Brijdeplantsoen,Playground,http://tour-pedia.org/api/getPlaceDetails?id=30558
1751,Zeeburgerdijk 84,30560,52.365969969702,4.9363803863525,Amsterdam,Bos Theaterproducties,General Entertainment,http://tour-pedia.org/api/getPlaceDetails?id=30560
1753,Kattenburgerplein 39,30564,52.370942046841,4.9162530899048,Amsterdam,Café Daan & Daan,Pub,http://tour-pedia.org/api/getPlaceDetails?id=30564
1754,Natura Artis Magistra,30566,52.36704107709,4.9156898260117,Amsterdam,Leeuwenkuil,Zoo,http://tour-pedia.org/api/getPlaceDetails?id=30566
1756,Plantage Kerklaan 38-40,30568,52.36621236325,4.9181628227234,Amsterdam,Giraffenstal,Zoo,http://tour-pedia.org/api/getPlaceDetails?id=30568
1758,Molukkenstraat,30570,52.361361201044,4.9386876399614,Amsterdam,Indische Buurt,Neighborhood,http://tour-pedia.org/api/getPlaceDetails?id=30570
1759,Javaplein,30571,52.363801470957,4.9395561218262,Amsterdam,Javaplein,Plaza,http://tour-pedia.org/api/getPlaceDetails?id=30571
1760,Djambistraat,30572,52.36482339441,4.9380626663799,Amsterdam,Djambistraat,Other Great Outdoors,http://tour-pedia.org/api/getPlaceDetails?id=30572
1761,Cruquiusweg 67,30573,52.36922113542,4.9472376619566,Amsterdam,The Harbour Club,Lounge,http://tour-pedia.org/api/getPlaceDetails?id=30573
1762,Natura Artis Magistra,30574,52.365370960704,4.9186686104322,Amsterdam,Chimpansees,Zoo,http://tour-pedia.org/api/getPlaceDetails?id=30574
1763,Polderweg,30575,52.357649168651,4.9358654022217,Amsterdam,De Valreep,General Entertainment,http://tour-pedia.org/api/getPlaceDetails?id=30575
1764,187 Sarphatistraat,30576,52.36267,4.914606,Amsterdam,Sweet Thai Massage Sarphatistraat,Strip Club,http://tour-pedia.org/api/getPlaceDetails?id=30576
1766,Mendelhof,30578,52.351637039862,4.9445336330056,Amsterdam,mendelhof,Playground,http://tour-pedia.org/api/getPlaceDetails?id=30578
1768,kruislaan 224-228,30580,52.349025331061,4.9438047409058,Amsterdam,scouting oost 1,Playground,http://tour-pedia.org/api/getPlaceDetails?id=30580
1769,Radioweg 77,30581,52.350362267152,4.946551322937,Amsterdam,TOS actief,Field,http://tour-pedia.org/api/getPlaceDetails?id=30581
1771,Radioweg 86,30583,52.346345,4.946633,Amsterdam,WV-HEDW,Other Great Outdoors,http://tour-pedia.org/api/getPlaceDetails?id=30583
1772,Radioweg 1,30584,52.348846810139,4.944928482618,Amsterdam,Jaap Edenhal,Skating Rink,http://tour-pedia.org/api/getPlaceDetails?id=30584
1773,Mariotteplein,30585,52.352097722419,4.9391419238044,Amsterdam,Speeltuin Mariotteplein,Playground,http://tour-pedia.org/api/getPlaceDetails?id=30585
1775,kruislaan,30587,52.348993512306,4.943583,Amsterdam,Verkennerlokaal,Playground,http://tour-pedia.org/api/getPlaceDetails?id=30587
1776,Radioweg 80,30588,52.347688354535,4.9470663070679,Amsterdam,Chip & Charge,Tennis Court,http://tour-pedia.org/api/getPlaceDetails?id=30588
1778,Middenweg,30590,52.344280192249,4.9457788467407,Amsterdam,Rinus Michelsbrug (Brug 245),Bridge,http://tour-pedia.org/api/getPlaceDetails?id=30590
1779,Christiaan huygenplein,30591,52.349306114613,4.9391703952598,Amsterdam,Christiaan Huygenplein,Plaza,http://tour-pedia.org/api/getPlaceDetails?id=30591
1780,Imaginary Street,30593,52.347262663768,4.938490657721,Amsterdam,The Imaginary Zoo,Theme Park,http://tour-pedia.org/api/getPlaceDetails?id=30593
1785,Brinkstraat 123,30602,52.340102,4.943128,Amsterdam,'t Praathuis,Bar,http://tour-pedia.org/api/getPlaceDetails?id=30602
1786,Fizeaustraat 37,30603,52.343335190245,4.9305093948397,Amsterdam,Speeltuin Frankendael,Playground,http://tour-pedia.org/api/getPlaceDetails?id=30603
1789,Zuivelplein 24,30608,52.3396142,4.9457278,Amsterdam,"Olaf Meijer - Contrabassist, basgitarist, basles",Music Venue,http://tour-pedia.org/api/getPlaceDetails?id=30608
1792,H. Cleyndertweg,30611,52.401783927913,4.9360156059265,Amsterdam,Biggy Sanka Party Town,Nightclub,http://tour-pedia.org/api/getPlaceDetails?id=30611
1794,Buikslotermeerplein 145,30613,52.40966859537,4.9504861779379,Amsterdam,Snookercentrum Boven 't Y,Pool Hall,http://tour-pedia.org/api/getPlaceDetails?id=30613
1796,Buikslotermeerplein 54,30615,52.398882,4.936981,Amsterdam,Huis van Oranje,Pub,http://tour-pedia.org/api/getPlaceDetails?id=30615
1800,Buikslotermeerplein 527,30619,52.397697313705,4.9415440992979,Amsterdam,CRUSH+,Nightclub,http://tour-pedia.org/api/getPlaceDetails?id=30619
1802,Hensbroekerstraat,30621,52.392445,4.944081,Amsterdam,Hensbroekermeer,Lake,http://tour-pedia.org/api/getPlaceDetails?id=30621
1804,Nieuwendammerkade 24C,30623,52.390513637441,4.9390641708385,Amsterdam,Barn In The City,Art Gallery,http://tour-pedia.org/api/getPlaceDetails?id=30623
1807,Nieuwendammerdijk 542,30626,52.38533702614,4.9498834898963,Amsterdam,Oranjewerf scheepsreparaties B.V.,Harbor / Marina,http://tour-pedia.org/api/getPlaceDetails?id=30626
1809,Monnikendammerplantsoen,30628,52.38911,4.9499925132841,Amsterdam,Speeltuinvereniging Nieuwendam,Playground,http://tour-pedia.org/api/getPlaceDetails?id=30628
1815,Levantplein,30634,52.376505,4.942918,Amsterdam,Magic Circus,Public Art,http://tour-pedia.org/api/getPlaceDetails?id=30634
1816,Bogortuinen,30635,52.377183023223,4.9341618221096,Amsterdam,Strand van Java,Beach,http://tour-pedia.org/api/getPlaceDetails?id=30635
1818,Spiegelgracht 61,30638,52.371386286753,4.9317127930103,Amsterdam,Gallery SIXTY ONE,Art Gallery,http://tour-pedia.org/api/getPlaceDetails?id=30638
1823,zeeburgerkade,30643,52.369099,4.943777,Amsterdam,zeeburgerkade,Bridge,http://tour-pedia.org/api/getPlaceDetails?id=30643
1826,Borneokade,30646,52.372073536929,4.9465833433348,Amsterdam,Zena Boat,General Entertainment,http://tour-pedia.org/api/getPlaceDetails?id=30646
1827,Ketelstraat 2,30647,52.369250090673,4.9470453293718,Amsterdam,Amsterdam Harbour Club,General Entertainment,http://tour-pedia.org/api/getPlaceDetails?id=30647
1828,Convention Factory,30648,52.372899,4.928112,Amsterdam,Hedkandi,Nightclub,http://tour-pedia.org/api/getPlaceDetails?id=30648
1829,Czaar Peterstraat,30649,52.370407786915,4.9298216898048,Amsterdam,Czaar Peter Festival,General Entertainment,http://tour-pedia.org/api/getPlaceDetails?id=30649
1830,Czaar Peterstraat 213,30650,52.371552992249,4.9255600483286,Amsterdam,Lasercity Amsterdam,Arts & Entertainment,http://tour-pedia.org/api/getPlaceDetails?id=30650
1831,Oostenburgervoorstraat 181,30651,52.371315421346,4.9257588386536,Amsterdam,Van Gendthallen,Performing Arts Venue,http://tour-pedia.org/api/getPlaceDetails?id=30651
1833,Zeeburgerdijk,30653,52.366044522396,4.9282268465102,Amsterdam,UK Roomtuintjes,Playground,http://tour-pedia.org/api/getPlaceDetails?id=30653
1834,Oostenburgervoorstraat 188,30654,52.369645,4.925904,Amsterdam,In Vino Momentum,Wine Bar,http://tour-pedia.org/api/getPlaceDetails?id=30654
1835,Linnaeusstraat 11A,30656,52.363048040135,4.923849105835,Amsterdam,East of Eden,Bar,http://tour-pedia.org/api/getPlaceDetails?id=30656
1836,Eerste Atjehstraat 107,30657,52.36270756,4.937283925,Amsterdam,Jardin de petitvins,Scenic Lookout,http://tour-pedia.org/api/getPlaceDetails?id=30657
1837,Molukkenstraat,30658,52.361569022495,4.9391760895638,Amsterdam,Molukkenstraat,Other Great Outdoors,http://tour-pedia.org/api/getPlaceDetails?id=30658
1838,Cruquiusweg,30659,52.368623,4.951659,Amsterdam,De Service Garage,Art Gallery,http://tour-pedia.org/api/getPlaceDetails?id=30659
1839,Paradijsplein 1,30660,52.357622111751,4.9323233112624,Amsterdam,CMA,Nightclub,http://tour-pedia.org/api/getPlaceDetails?id=30660
1840,Science Park 201,30661,52.356701093273,4.9529844809109,Amsterdam,In 'de Natuur' rondom Science Park,Field,http://tour-pedia.org/api/getPlaceDetails?id=30661
1842,Radioweg 64,30663,52.346600392816,4.9527740478516,Amsterdam,Jaap Eden IJsbanen,Skating Rink,http://tour-pedia.org/api/getPlaceDetails?id=30663
1843,Radioweg 89,30664,52.342774405796,4.956719856473,Amsterdam,AV '23,Track,http://tour-pedia.org/api/getPlaceDetails?id=30664
1844,Wembleylaan 5,30665,52.344568814658,4.948514098982,Amsterdam,VVGA Tennis & Voetbalclub,Other Great Outdoors,http://tour-pedia.org/api/getPlaceDetails?id=30665
1846,Voorlandpad 11,30667,52.345937735239,4.9561203905693,Amsterdam,HC AthenA,Hockey Field,http://tour-pedia.org/api/getPlaceDetails?id=30667
1847,Voorlandpad 15,30668,52.34782826211,4.9540666198986,Amsterdam,GeuzenMiddenmeer,Soccer Field,http://tour-pedia.org/api/getPlaceDetails?id=30668
1848,Amsterdam Oost,30669,52.357675,4.931118,Amsterdam,Amsterdam Oost,Neighborhood,http://tour-pedia.org/api/getPlaceDetails?id=30669
1849,Timorplein,30670,52.364849393718,4.9354213546412,Amsterdam,Timorplein,Plaza,http://tour-pedia.org/api/getPlaceDetails?id=30670
1850,Ploegstraat 93,30671,52.342038526903,4.9476885795593,Amsterdam,Betondorp Watergraafsmeer,Neighborhood,http://tour-pedia.org/api/getPlaceDetails?id=30671
1858,Radioweg,30679,52.350025177002,4.947826,Amsterdam,Real Sranang,Soccer Field,http://tour-pedia.org/api/getPlaceDetails?id=30679
1859,Duivendrechtsekade 82,30683,52.337387,4.935253,Amsterdam,Meyson Communicatie,General Entertainment,http://tour-pedia.org/api/getPlaceDetails?id=30683
1861,Kruislaan 126,30687,52.345722139127,4.9374532699585,Amsterdam,Arboretum De Nieuwe Ooster,Park,http://tour-pedia.org/api/getPlaceDetails?id=30687
1862,Sportpark de Weeren 5,30688,52.399927986226,4.9574261759682,Amsterdam,Ronald McDonald Sport Centre,Athletics & Sports,http://tour-pedia.org/api/getPlaceDetails?id=30688
1863,Sportpark De Weeren 5,30689,52.400913316915,4.9574732780457,Amsterdam,Zwemschool SwimBee locatie Amsterdam Noord,Pool,http://tour-pedia.org/api/getPlaceDetails?id=30689
1873,Ronald McDonald Centre,30700,52.400690751948,4.9582672119141,Amsterdam,Sportclub Only Friends,Soccer Field,http://tour-pedia.org/api/getPlaceDetails?id=30700
1875,Buiksloterdijk,30702,52.403230334559,4.960798353804,Amsterdam,Krakers boerderij,Farm,http://tour-pedia.org/api/getPlaceDetails?id=30702
1877,Markengouw,30704,52.394787622435,4.95878679202,Amsterdam,Markengouw,Neighborhood,http://tour-pedia.org/api/getPlaceDetails?id=30704
1878,Alkmaarstraat 10,30705,52.394733499945,4.9512604687942,Amsterdam,Muziekcentrum Noord,Concert Hall,http://tour-pedia.org/api/getPlaceDetails?id=30705
1880,Katrijpstraat,30707,52.394224749541,4.9534113409754,Amsterdam,De Duinpan,General Entertainment,http://tour-pedia.org/api/getPlaceDetails?id=30707
1881,Hensbroekerstraat,30708,52.392418,4.943731,Amsterdam,De Feesttuin,Garden,http://tour-pedia.org/api/getPlaceDetails?id=30708
1884,Markengouw,30711,52.394786,4.959018,Amsterdam,Club DiKiMel,General Entertainment,http://tour-pedia.org/api/getPlaceDetails?id=30711
1885,Waterlandplein 76,30712,52.392873175043,4.9563764384161,Amsterdam,Koopmansbouw,Other Great Outdoors,http://tour-pedia.org/api/getPlaceDetails?id=30712
1891,Purmerplein,30718,52.393496463498,4.9440220094909,Amsterdam,magic circus,General Entertainment,http://tour-pedia.org/api/getPlaceDetails?id=30718
1892,Niewendammerdijk 284,30719,52.39037556,4.941319,Amsterdam,Jachthaven Nauticadam,Harbor / Marina,http://tour-pedia.org/api/getPlaceDetails?id=30719
1895,Wieringerwaardstraat,30722,52.394778,4.956215,Amsterdam,Tattoo Linda,Art Gallery,http://tour-pedia.org/api/getPlaceDetails?id=30722
1898,Nieuwendammerkade 15,30725,52.390311242412,4.9359330929141,Amsterdam,Tennispark Tennisclub Elzenhage Vliegenbos,Tennis Court,http://tour-pedia.org/api/getPlaceDetails?id=30725
1899,Schellingwouderdijk 220,30726,52.38471,4.959859,Amsterdam,ASV de Dijk,Other Great Outdoors,http://tour-pedia.org/api/getPlaceDetails?id=30726
1901,Schellingwouderdijk,30728,52.383923145822,4.9637067317963,Amsterdam,Schellingwoude,Neighborhood,http://tour-pedia.org/api/getPlaceDetails?id=30728
1902,KNSM Island,30729,52.377412529751,4.9478729869683,Amsterdam,Ij Class,Lake,http://tour-pedia.org/api/getPlaceDetails?id=30729
1903,Venetiehof,30730,52.377422651173,4.9479208888515,Amsterdam,Venetiehof Binnentuin,Garden,http://tour-pedia.org/api/getPlaceDetails?id=30730
1912,Borneokade,30740,52.371286494154,4.9455544483753,Amsterdam,Zwemsteiger Borneo-eiland,Lake,http://tour-pedia.org/api/getPlaceDetails?id=30740
1913,Cruquiusweg 120a,30741,52.368884709801,4.9549519568136,Amsterdam,Krux Amsterdam - Creative Workspace,Arts & Entertainment,http://tour-pedia.org/api/getPlaceDetails?id=30741
1915,Zeeburgerdijk 630,30743,52.364581094543,4.952130317688,Amsterdam,Flevoparkbad,Pool,http://tour-pedia.org/api/getPlaceDetails?id=30743
1918,Th. K. Van Lohuizenlaan,30746,52.36817182714,4.9465369290758,Amsterdam,Cruquius Tuin,Garden,http://tour-pedia.org/api/getPlaceDetails?id=30746
1919,Zeeburgerdijk 708,30747,52.365904457704,4.9446630477905,Amsterdam,Kruipclub,Playground,http://tour-pedia.org/api/getPlaceDetails?id=30747
1920,Entrepotbrug,30748,52.369591399449,4.9368712891358,Amsterdam,Entrepotbrug,Bridge,http://tour-pedia.org/api/getPlaceDetails?id=30748
1921,Niasstraat 1.,30749,52.364943,4.939594,Amsterdam,Best Friend Coffe Shop,Other Nightlife,http://tour-pedia.org/api/getPlaceDetails?id=30749
1922,Veemarkt,30750,52.36747323298,4.9357097746813,Amsterdam,KV Zeeburg,Harbor / Marina,http://tour-pedia.org/api/getPlaceDetails?id=30750
1926,Zuider IJdijk 20,30754,52.365186699178,4.9602272161655,Amsterdam,Camping Zeeburg,Campground,http://tour-pedia.org/api/getPlaceDetails?id=30754
1927,Zuiderzeeweg,30755,52.365852048036,4.9571943283081,Amsterdam,Amsterdamse Brug (Brug 54P),Bridge,http://tour-pedia.org/api/getPlaceDetails?id=30755
1929,Flevopark 15,30757,52.362703251149,4.9489661798133,Amsterdam,Flevor,Bar,http://tour-pedia.org/api/getPlaceDetails?id=30757
1930,Ceramplein 1-145,30758,52.362832043992,4.9412762853574,Amsterdam,Ceramplein,Plaza,http://tour-pedia.org/api/getPlaceDetails?id=30758
1933,Zuider IJdijk 26,30761,52.368256288885,4.9603350315589,Amsterdam,Kunstenaarsdorp,Art Gallery,http://tour-pedia.org/api/getPlaceDetails?id=30761
1936,Balistraat,30764,52.363303714526,4.9344988163433,Amsterdam,JPCoen Schoolplein,Playground,http://tour-pedia.org/api/getPlaceDetails?id=30764
1937,Valentijnkade 132,30765,52.358867903597,4.9543404579163,Amsterdam,T.V. Tie Breakers,Other Great Outdoors,http://tour-pedia.org/api/getPlaceDetails?id=30765
1938,Kruislaan 244,30766,52.351518,4.950218,Amsterdam,A.V.V. Zeeburgia,Soccer Stadium,http://tour-pedia.org/api/getPlaceDetails?id=30766
1939,Diemerzeedijk 6,30767,52.362076,4.962802,Amsterdam,Jachthaven Bovendiep,Harbor / Marina,http://tour-pedia.org/api/getPlaceDetails?id=30767
1940,Atlantisplein 1,30768,52.357328098475,4.9305975437164,Amsterdam,Music Matrix,Rock Club,http://tour-pedia.org/api/getPlaceDetails?id=30768
1943,Hogeweg,30771,52.354929827045,4.9327003955841,Amsterdam,Hogeweg fontein,Plaza,http://tour-pedia.org/api/getPlaceDetails?id=30771
1944,Zunderdorp,30780,52.406974507598,4.9664533138275,Amsterdam,Zunderdorp,Neighborhood,http://tour-pedia.org/api/getPlaceDetails?id=30780
1945,Broekergouw 5,30781,52.412799757604,4.9715470116278,Amsterdam,Boerderijwinkel,Farm,http://tour-pedia.org/api/getPlaceDetails?id=30781
1948,Hilversumstraat 332,30784,52.390757203102,4.9633687734604,Amsterdam,NIVON Centraal Bureau,Office,http://tour-pedia.org/api/getPlaceDetails?id=30784
1949,Volendammerweg 305,30785,52.395380945825,4.9649621071503,Amsterdam,Tuinpark Buikslotermeer,Garden,http://tour-pedia.org/api/getPlaceDetails?id=30785
1952,venhuizenstraat,30789,52.391186356544,4.9501186609268,Amsterdam,Elisie's Room,Lounge,http://tour-pedia.org/api/getPlaceDetails?id=30789
1955,Liergouw,30792,52.38988169962,4.9659687824101,Amsterdam,Rotonde Schellingwoude,Plaza,http://tour-pedia.org/api/getPlaceDetails?id=30792
1956,Waalenburgsingel,30793,52.389677049186,4.962596109122,Amsterdam,Ecologisch gebied Waalenburgsingel,Park,http://tour-pedia.org/api/getPlaceDetails?id=30793
1960,1019 LZ Amsterdam,30800,52.376471757887,4.9448132514952,Amsterdam,Steiger Barcelonaplein,Scenic Lookout,http://tour-pedia.org/api/getPlaceDetails?id=30800
1961,KNSM-Laan,30801,52.37706630008,4.937732219696,Amsterdam,Amphitrite fontein,Plaza,http://tour-pedia.org/api/getPlaceDetails?id=30801
1963,Zuiderzeeweg 29,30803,52.370396720283,4.9617160333727,Amsterdam,Cruise Inn,Nightclub,http://tour-pedia.org/api/getPlaceDetails?id=30803
1964,Zuiderzeeweg 2,30805,52.368680772237,4.9637430528661,Amsterdam,Holland Sport Boat Centre,Harbor / Marina,http://tour-pedia.org/api/getPlaceDetails?id=30805
1965,Spaarndammerdijk 316 C,30806,52.369991412655,4.9590381182229,Amsterdam,De Gabber Hondenschool,Dog Run,http://tour-pedia.org/api/getPlaceDetails?id=30806
1966,Zuiderzeeweg 38h,30807,52.371621150523,4.96069397,Amsterdam,Op stand 38h,Beer Garden,http://tour-pedia.org/api/getPlaceDetails?id=30807
1969,Flevoparkweg t.o. 501,30810,52.365775071222,4.9487467110157,Amsterdam,Man en Schaap,Sculpture Garden,http://tour-pedia.org/api/getPlaceDetails?id=30810
1970,West Merwedekanaaldijk,30812,52.359929355035,4.9618721008301,Amsterdam,Nieuwe Diep,Lake,http://tour-pedia.org/api/getPlaceDetails?id=30812
1973,Djakartaterras 91,30815,52.361326,4.9409126666667,Amsterdam,Casa de Booky II,Outdoors & Recreation,http://tour-pedia.org/api/getPlaceDetails?id=30815
1974,Kanaaldijk,30816,52.35644350531,4.9694359302521,Amsterdam,Nesciobrug (Brug 2013),Bridge,http://tour-pedia.org/api/getPlaceDetails?id=30816
1975,Rijksweg A10 (Ringweg Oost),30817,52.356836660013,4.9664211273193,Amsterdam,Zeeburgerbrug,Bridge,http://tour-pedia.org/api/getPlaceDetails?id=30817
1979,Diemerzeedijk 3,30821,52.363021833614,4.9600267410278,Amsterdam,Jachthaven Bouwmeester,Harbor / Marina,http://tour-pedia.org/api/getPlaceDetails?id=30821
1981,Flevopark,30823,52.362785974228,4.9494695663452,Amsterdam,Speeltuin flevopark,Playground,http://tour-pedia.org/api/getPlaceDetails?id=30823
1985,Sportpark Middenmeer,30827,52.348554606048,4.9500429660686,Amsterdam,Fortius,Soccer Field,http://tour-pedia.org/api/getPlaceDetails?id=30827
1987,Voltastraat,30829,52.35335742005,4.9427552890981,Amsterdam,Oma's Stulpje,History Museum,http://tour-pedia.org/api/getPlaceDetails?id=30829
1990,Radioweg 69,30832,52.349281254404,4.9479575571754,Amsterdam,A.v.v. TOG,Soccer Field,http://tour-pedia.org/api/getPlaceDetails?id=30832
1994,Radioweg 80,30843,52.347871022957,4.9470090285538,Amsterdam,buitenbar.de,Sports Bar,http://tour-pedia.org/api/getPlaceDetails?id=30843
1995,Wieringerwaardstraat 95-96,30844,52.395343780518,4.9567008018494,Amsterdam,Klusje,Field,http://tour-pedia.org/api/getPlaceDetails?id=30844
1999,Schellingwouderdijk 243,30848,52.38426366819,4.9624729156494,Amsterdam,Keramiek Atelier en Galerie Marjoke de Heer,Art Gallery,http://tour-pedia.org/api/getPlaceDetails?id=30848
2000,Liergouw 55,30849,52.387230030791,4.9731588363647,Amsterdam,Maijpark,Garden,http://tour-pedia.org/api/getPlaceDetails?id=30849
2001,Schellingwouderdijk,30850,52.385920403003,4.9536484479904,Amsterdam,Adano boot - Scouting Wartburg,Other Great Outdoors,http://tour-pedia.org/api/getPlaceDetails?id=30850
2002,Edammerpad 1,30851,52.3909795,4.95002505,Amsterdam,Cocktail Tuin,Cocktail Bar,http://tour-pedia.org/api/getPlaceDetails?id=30851
2003,Schellingwoudedijk,30852,52.385789,4.952389,Amsterdam,Onofficiële Volkstuinen Schellingwoude,Garden,http://tour-pedia.org/api/getPlaceDetails?id=30852
2005,Liergouw 52,30854,52.382502122025,4.9707832642962,Amsterdam,Faunapassage Liergouw,Other Great Outdoors,http://tour-pedia.org/api/getPlaceDetails?id=30854
2006,Zeeburgerweg 47,30862,52.376721174775,4.9634357221887,Amsterdam,Wind 'n Wheels,Other Great Outdoors,http://tour-pedia.org/api/getPlaceDetails?id=30862
2007,Eksterlaan 82 (Kweeklust),30864,52.381525,4.9745,Amsterdam,Landgoed Von Bannisseht,Garden,http://tour-pedia.org/api/getPlaceDetails?id=30864
2010,Ijdijk 10,30867,52.369870918208,4.9757872502318,Amsterdam,Magneet Festival,General Entertainment,http://tour-pedia.org/api/getPlaceDetails?id=30867
2012,"Zuider IJdijk 32, 1095 Amsterdam",30869,52.368203399433,4.9598451093506,Amsterdam,V.D.H. Kringgroep Haarlemmermeer,Dog Run,http://tour-pedia.org/api/getPlaceDetails?id=30869
2014,Cruquiusweg 124a,30871,52.368603471572,4.9542117118835,Amsterdam,Lofarmedia Headquarters,General Entertainment,http://tour-pedia.org/api/getPlaceDetails?id=30871
2015,Crucruiusweg 146,30872,52.370097029727,4.9547052383423,Amsterdam,Club GZG,Nightclub,http://tour-pedia.org/api/getPlaceDetails?id=30872
2016,Vogelaardreef 36,30873,52.371616474861,4.950887218922,Amsterdam,Camping de Ruigenhoek,Campground,http://tour-pedia.org/api/getPlaceDetails?id=30873
2017,Borneokade 96,30876,52.371596196729,4.9496814137757,Amsterdam,Historische veerpont De Vlieland,Historic Site,http://tour-pedia.org/api/getPlaceDetails?id=30876
2019,Ertskade 85,30878,52.374744,4.946331,Amsterdam,La Casa S&G,Campground,http://tour-pedia.org/api/getPlaceDetails?id=30878
2021,Oosterringdijk,30881,52.356253479282,4.9642109870911,Amsterdam,Trailer park Oosterringdijk,Campground,http://tour-pedia.org/api/getPlaceDetails?id=30881
2023,Science Park 904,30884,52.355320008998,4.9574317242814,Amsterdam,Dakterras Science Park,Scenic Lookout,http://tour-pedia.org/api/getPlaceDetails?id=30884
2027,Tureluurweg,30890,52.351730222082,4.9669427418051,Amsterdam,de Maan !,Other Great Outdoors,http://tour-pedia.org/api/getPlaceDetails?id=30890
2031,Diemerkade,30901,52.343216550833,4.9561896123154,Amsterdam,Project Diemen,Strip Club,http://tour-pedia.org/api/getPlaceDetails?id=30901
2033,Galggouw 8,30904,52.415026271717,4.9865105328269,Amsterdam,Volgermeer,Park,http://tour-pedia.org/api/getPlaceDetails?id=30904
2036,IJdijk 10,30907,52.371263018098,4.9749398231506,Amsterdam,Guestlist Magneet Festival,Gay Bar,http://tour-pedia.org/api/getPlaceDetails?id=30907
2037,Diemerzeedijk derde huisje na Peek,30908,52.360367086943,4.9726247583266,Amsterdam,Project Diemerzeedijk,Farm,http://tour-pedia.org/api/getPlaceDetails?id=30908
2044,Dorpsstraat Ransdorp,30923,52.393227629615,4.9945092201233,Amsterdam,Ransdorp,Neighborhood,http://tour-pedia.org/api/getPlaceDetails?id=30923
2045,Liergouw 78,30924,52.38893866539,4.9888283014297,Amsterdam,De Boer,Farm,http://tour-pedia.org/api/getPlaceDetails?id=30924
2047,Durgerdammerdijk,30926,52.377550964071,4.9903893470764,Amsterdam,Durgerdam,Neighborhood,http://tour-pedia.org/api/getPlaceDetails?id=30926
2048,Durgerdammerdijk 116a,30927,52.377922533258,4.9921451532899,Amsterdam,Zeilvereniging Het Y,Harbor / Marina,http://tour-pedia.org/api/getPlaceDetails?id=30927
2051,Zwanebloemlan 234,30941,52.361185950996,4.9921048312158,Amsterdam,Sebsoft-hq,Beer Garden,http://tour-pedia.org/api/getPlaceDetails?id=30941
2056,Durgerdammergouw 30,30958,52.385065555573,5.0020676851273,Amsterdam,Paardenpret,Farm,http://tour-pedia.org/api/getPlaceDetails?id=30958
2062,Bloemendalergouw 65,30984,52.40278225,5.0168402,Amsterdam,Paps En Mams,Farm,http://tour-pedia.org/api/getPlaceDetails?id=30984
2063,Bloemendalergouw 2,30985,52.395410012361,5.0136971123997,Amsterdam,Camping De Kikker,Campground,http://tour-pedia.org/api/getPlaceDetails?id=30985
2064,Uitdammerdijk 10-14,30986,52.385680169158,5.0119522005387,Amsterdam,Camping De Badhoeve,Campground,http://tour-pedia.org/api/getPlaceDetails?id=30986
2065,Kerkstraat,30987,52.385601485155,5.0124237601327,Amsterdam,Happy Feelings coffeeshop,Hookah Bar,http://tour-pedia.org/api/getPlaceDetails?id=30987
2067,Overdiemerweg,30991,52.343063998752,5.0135663889221,Amsterdam,De Stelling Van Amsterdam,History Museum,http://tour-pedia.org/api/getPlaceDetails?id=30991
2075,"Pampuslaan 56, 1087 Amsterdam",31004,52.352081297754,5.0077601034968,Amsterdam,Dreamland,General Entertainment,http://tour-pedia.org/api/getPlaceDetails?id=31004
2080,Lumièrestraat 77,31011,52.354274,5.001293,Amsterdam,Verhalenatelier IJburg,General Entertainment,http://tour-pedia.org/api/getPlaceDetails?id=31011
2083,Dorpsstraat,31015,52.41338825168,5.0255155563354,Amsterdam,Holysloot,Neighborhood,http://tour-pedia.org/api/getPlaceDetails?id=31015
2084,Bankie,31016,52.419076679627,5.0183643707046,Amsterdam,Zunderdorpa - Holysloot,Field,http://tour-pedia.org/api/getPlaceDetails?id=31016
2085,Het Die,31017,52.414077813859,5.0222670614747,Amsterdam,Het Die,Skating Rink,http://tour-pedia.org/api/getPlaceDetails?id=31017
2092,Eva Besnyostraat,31034,52.350988425,5.006362875,Amsterdam,The Eva Besnyo Posse,Beer Garden,http://tour-pedia.org/api/getPlaceDetails?id=31034
2093,Ijburglaan 1568,31035,52.351191,5.00165,Amsterdam,Ijburgcorners,Art Gallery,http://tour-pedia.org/api/getPlaceDetails?id=31035
2094,Lumierestraat,31036,52.353374967912,5.007887623789,Amsterdam,Moes 32,Garden,http://tour-pedia.org/api/getPlaceDetails?id=31036
2096,Krijn Taconiskade 412,31038,52.353447,5.006048,Amsterdam,Nederlandse Vereniging van Filmdistributeurs,Movie Theater,http://tour-pedia.org/api/getPlaceDetails?id=31038
2098,Uitdammerdijk,31041,52.401412595083,5.032547629493,Amsterdam,Knoopunt 79,Trail,http://tour-pedia.org/api/getPlaceDetails?id=31041
2099,Uitdammerdijk,31042,52.397585,5.027423,Amsterdam,Kampeervereniging Kinselmeerzicht,Other Great Outdoors,http://tour-pedia.org/api/getPlaceDetails?id=31042
2102,Erich Salomonstraat 223,33380,52.354233996593,4.9971949165468,Amsterdam,Moskee IJburg,Mosque,http://tour-pedia.org/api/getPlaceDetails?id=33380
2104,Ed Pelsterpark 2,33383,52.35658,4.995832,Amsterdam,Kerk Op IJburg,Church,http://tour-pedia.org/api/getPlaceDetails?id=33383
2105,Mattenbies 101,33390,52.35420822,4.99430134,Amsterdam,"Rens, Jeroen en Jurgens Place",Temple,http://tour-pedia.org/api/getPlaceDetails?id=33390
2107,Cacaoweg 20,33411,52.415717911458,4.7619295120239,Amsterdam,ACS Logistics,Auditorium,http://tour-pedia.org/api/getPlaceDetails?id=33411
2108,Ookmeerweg,33434,52.359233930523,4.7762732975245,Amsterdam,Crematorium Westgaarde,Auditorium,http://tour-pedia.org/api/getPlaceDetails?id=33434
2110,Kwakelsepad 4,33445,52.386501937358,4.7887825023828,Amsterdam,Rooms katholieke parochie St Jans Geboorte,Church,http://tour-pedia.org/api/getPlaceDetails?id=33445
2111,Waterschapstraat 1,33448,52.358758439256,4.7859195430427,Amsterdam,Masjid Al-Islam,Mosque,http://tour-pedia.org/api/getPlaceDetails?id=33448
2112,Welkom zondag 10uur,33453,52.355352,4.782804,Amsterdam,De Akerkerk,Church,http://tour-pedia.org/api/getPlaceDetails?id=33453
2113,Osdorperweg 386,33472,52.358291302005,4.7894167900085,Amsterdam,Haci Bayram Camii,Mosque,http://tour-pedia.org/api/getPlaceDetails?id=33472
2114,Jan Rebelstraat 2,33478,52.360485933333,4.7921510333333,Amsterdam,Air Hidup Amsterdam,Church,http://tour-pedia.org/api/getPlaceDetails?id=33478
2116,Sam van houtenstraat,33500,52.379423,4.799576,Amsterdam,Spirit,Auditorium,http://tour-pedia.org/api/getPlaceDetails?id=33500
2122,Ekingenstraat,33525,52.35529430376,4.7951219641931,Amsterdam,Euromuslim Mosque,Mosque,http://tour-pedia.org/api/getPlaceDetails?id=33525
2125,Langsom 34,33535,52.343496,4.796332,Amsterdam,GUK Amsterdam,Church,http://tour-pedia.org/api/getPlaceDetails?id=33535
2127,Dirk Sonoystraat,33541,52.378157992251,4.8048273561476,Amsterdam,Moskee Yaa-Ghaus,Mosque,http://tour-pedia.org/api/getPlaceDetails?id=33541
2131,Willenbroekstraat 62,33569,52.34437732013,4.805641255298,Amsterdam,Igreja Cristã Maranata,Auditorium,http://tour-pedia.org/api/getPlaceDetails?id=33569
2132,Melis Stokehof 10-2,33587,52.377377402577,4.8116791248322,Amsterdam,Melis Smokehof,Auditorium,http://tour-pedia.org/api/getPlaceDetails?id=33587
2137,Willem Kloosstraat 1,33632,52.375485,4.822574,Amsterdam,Oase Kerk,Church,http://tour-pedia.org/api/getPlaceDetails?id=33632
2138,Meer en Vaart 318,33634,52.358304,4.8086039580449,Amsterdam,Maranatha Church,Church,http://tour-pedia.org/api/getPlaceDetails?id=33634
2139,Louis Bouwmeesterstraat 76,33649,52.352138326231,4.8227239717361,Amsterdam,Verrijzenis kerk,Church,http://tour-pedia.org/api/getPlaceDetails?id=33649
2141,Louis Couperusstraat 133,33690,52.376129860282,4.8268268202066,Amsterdam,De Ontmoeting,Church,http://tour-pedia.org/api/getPlaceDetails?id=33690
2143,Henri Dunantstraat,33721,52.348347141565,4.8315507056603,Amsterdam,De Blauwe Moskee,Mosque,http://tour-pedia.org/api/getPlaceDetails?id=33721
2144,Donauweg 10,33735,52.394277,4.837126,Amsterdam,OORbit geluidsstudio,Auditorium,http://tour-pedia.org/api/getPlaceDetails?id=33735
2145,Radarweg 29,33743,52.3903809,4.8392672,Amsterdam,Reed Elsevier - Herman Boerhaave Room,Auditorium,http://tour-pedia.org/api/getPlaceDetails?id=33743
2146,Schoterweg 14,33746,52.388831,4.840267,Amsterdam,Fonteinkerk,Spiritual Center,http://tour-pedia.org/api/getPlaceDetails?id=33746
2147,"Kingsfordweg 151, Sloterdijk Teleport Towers,",33750,52.385753560748,4.8430318104528,Amsterdam,Regus,Auditorium,http://tour-pedia.org/api/getPlaceDetails?id=33750
2148,Baas Gansendonkstraat,33752,52.377288895317,4.8409591157152,Amsterdam,Moskee Mevlana,Mosque,http://tour-pedia.org/api/getPlaceDetails?id=33752
2149,Bos en Lommerplein 325,33753,52.377623523074,4.8425529829579,Amsterdam,Opstandingskerk De Kolenkit,Church,http://tour-pedia.org/api/getPlaceDetails?id=33753
2150,Derkinderenstraat 112,33783,52.366102660951,4.8409617473908,Amsterdam,Tituskapel,Church,http://tour-pedia.org/api/getPlaceDetails?id=33783
2151,Postjesweg 179,33784,52.364016626503,4.8425313995432,Amsterdam,Al-Ummah Amsterdam Mosque,Mosque,http://tour-pedia.org/api/getPlaceDetails?id=33784
2152,Nicolaas Japiksestraat 5,33786,52.36293053302,4.8374724570765,Amsterdam,Ayasofya Moskee,Mosque,http://tour-pedia.org/api/getPlaceDetails?id=33786
2153,Postjesweg 179,33787,52.363088164225,4.8376698109137,Amsterdam,Moskee Oumma,Mosque,http://tour-pedia.org/api/getPlaceDetails?id=33787
2154,Derkinderenstraat 90,33792,52.364322,4.841186,Amsterdam,The Blessing Amsterdam,Church,http://tour-pedia.org/api/getPlaceDetails?id=33792
2156,Schipluidenlaan 12,33798,52.356971,4.837157,Amsterdam,De Verbinding,Church,http://tour-pedia.org/api/getPlaceDetails?id=33798
2157,poeldijk straat 8,33802,52.350467608379,4.8432030591181,Amsterdam,IFGF GISI,Church,http://tour-pedia.org/api/getPlaceDetails?id=33802
2159,Spaarndammerdijk 687,33826,52.386506186293,4.8456060335123,Amsterdam,Petruskerk,Church,http://tour-pedia.org/api/getPlaceDetails?id=33826
2160,Schakelstraat 21,33830,52.390778,4.849423,Amsterdam,Guru Nanak Gurudwara,Temple,http://tour-pedia.org/api/getPlaceDetails?id=33830
2161,Haarlemmerweg,33834,52.385312,4.850435,Amsterdam,In De Bajes,Auditorium,http://tour-pedia.org/api/getPlaceDetails?id=33834
2162,Willem Leevendstraat 7,33845,52.383936242885,4.8466712236404,Amsterdam,Moskee Badr,Mosque,http://tour-pedia.org/api/getPlaceDetails?id=33845
2164,Erik de Roodestraat 16,33853,52.373198621841,4.8455607891083,Amsterdam,Sint Jozefkerk (De Vluchtkerk),Church,http://tour-pedia.org/api/getPlaceDetails?id=33853
2165,Hotelschool The Hague,33855,52.369192,4.843891,Amsterdam,Auditorium,Auditorium,http://tour-pedia.org/api/getPlaceDetails?id=33855
2166,Admiraal de Ruijterweg 408,33889,52.383379839111,4.8511548489223,Amsterdam,Franciscus Xaverius Kerk,Church,http://tour-pedia.org/api/getPlaceDetails?id=33889
2167,Erasmusgracht 24,33891,52.37685726331,4.8533656343922,Amsterdam,Augustina Kerk,Auditorium,http://tour-pedia.org/api/getPlaceDetails?id=33891
2170,Shackletonstraat 2,33911,52.372887489905,4.8524808883667,Amsterdam,Cosmopolitan Buddha,Temple,http://tour-pedia.org/api/getPlaceDetails?id=33911
2171,Jacob van Lennepkade 295 hs,33913,52.361665,4.858484,Amsterdam,Garage Baas,Temple,http://tour-pedia.org/api/getPlaceDetails?id=33913
2172,Amstelveenseweg 161-163,33923,52.35024430383,4.8578453063965,Amsterdam,Sint Agneskerk,Church,http://tour-pedia.org/api/getPlaceDetails?id=33923
2175,Van Slingelandtstraat 31,33983,52.382851,4.865451,Amsterdam,Yan Chuen Church / Life Access,Church,http://tour-pedia.org/api/getPlaceDetails?id=33983
2177,Witte De Withstraat,33988,52.368594310525,4.8592304166706,Amsterdam,Moskee Nour مسجد النور,Mosque,http://tour-pedia.org/api/getPlaceDetails?id=33988
2178,Van Kinsbergenstraat 6,33989,52.368381396984,4.8630453502768,Amsterdam,SGI Amsterdam Cultural Centre,Spiritual Center,http://tour-pedia.org/api/getPlaceDetails?id=33989
2179,Chassestraat 64,33990,52.370144730541,4.8619114804502,Amsterdam,Chassekerk,Church,http://tour-pedia.org/api/getPlaceDetails?id=33990
2184,Pazzanistraat 8,34045,52.386117679366,4.8727603125911,Amsterdam,Hillsong Church Amsterdam,Church,http://tour-pedia.org/api/getPlaceDetails?id=34045
2185,De Wittenstraat 114,34053,52.382652,4.87738,Amsterdam,Nassaukerk (De Kantlijn),Church,http://tour-pedia.org/api/getPlaceDetails?id=34053
2186,Markantilaan,34056,52.375309600186,4.8674770225224,Amsterdam,Neokatechumenale Zaal,Church,http://tour-pedia.org/api/getPlaceDetails?id=34056
2189,Danzigerkade 23,34113,52.400266,4.876038,Amsterdam,Man's Private Corner(east-side),Spiritual Center,http://tour-pedia.org/api/getPlaceDetails?id=34113
2191,"Lijnbaansgracht 48, 1015 GR",34139,52.379109135609,4.8806135666359,Amsterdam,St. Nicholas Of Myra Russian Orthodox Church,Church,http://tour-pedia.org/api/getPlaceDetails?id=34139
2192,Jacob Catskade,34143,52.38116044908,4.8781339077266,Amsterdam,Portugese Kerk Fatima,Church,http://tour-pedia.org/api/getPlaceDetails?id=34143
2194,Lijnbaansgracht 48,34145,52.379075414392,4.8805274162137,Amsterdam,Tichelkerk - Russisch-Orthodoxe Kerk H. Nicolaas van Myra,Church,http://tour-pedia.org/api/getPlaceDetails?id=34145
2195,Rozengracht 150,34151,52.372981567622,4.8785927637171,Amsterdam,Fatih Camii,Mosque,http://tour-pedia.org/api/getPlaceDetails?id=34151
2197,Bloemgracht 49,34153,52.374785,4.881411,Amsterdam,Bloemgracht Temple,Temple,http://tour-pedia.org/api/getPlaceDetails?id=34153
2198,Lauriergracht 39,34159,52.371309,4.881084,Amsterdam,KesselsKramer - Kapel De Voorzienigheid,Church,http://tour-pedia.org/api/getPlaceDetails?id=34159
2200,Jacob Obrechtstraat,34179,52.356023030677,4.8751710873327,Amsterdam,Obrechtkerk,Church,http://tour-pedia.org/api/getPlaceDetails?id=34179
2203,Plejadenplein,34227,52.414444474707,4.8860070091879,Amsterdam,Bethelkerk,Church,http://tour-pedia.org/api/getPlaceDetails?id=34227
2204,"Tasmanstraat 407, 1013 Amsterdam",34238,52.392400974486,4.8817020814538,Amsterdam,De Verlosser,Temple,http://tour-pedia.org/api/getPlaceDetails?id=34238
2207,Haarlemmerdijk 137,34252,52.383676606481,4.8853515873172,Amsterdam,Brahma Kumaris Spirituele Academie Amsterdam,Spiritual Center,http://tour-pedia.org/api/getPlaceDetails?id=34252
2208,Tussen de Bogen 83,34253,52.383037923233,4.8883207012046,Amsterdam,Tussen de Bogen 83,Spiritual Center,http://tour-pedia.org/api/getPlaceDetails?id=34253
2209,Haarlemmerstraat 124-126,34257,52.381177753972,4.8901390482082,Amsterdam,Posthoornkerk,Church,http://tour-pedia.org/api/getPlaceDetails?id=34257
2210,Noordermarkt 48,34261,52.379763824294,4.8865612567274,Amsterdam,Noorderkerk,Church,http://tour-pedia.org/api/getPlaceDetails?id=34261
2212,Prinsengracht 281,34268,52.374551201517,4.8837661743164,Amsterdam,Westerkerk,Church,http://tour-pedia.org/api/getPlaceDetails?id=34268
2213,Felix Meritis in the Koepel (Dome),34272,52.370037,4.883798,Amsterdam,Fronteers 2013 Workshop,Spiritual Center,http://tour-pedia.org/api/getPlaceDetails?id=34272
2214,Keizersgracht 220,34277,52.373087365414,4.884668997167,Amsterdam,Onze Lieve Vrouwekerk,Church,http://tour-pedia.org/api/getPlaceDetails?id=34277
2215,Singel 411,34284,52.368357815723,4.8890447616577,Amsterdam,UvA Oude Lutherse Kerk,Church,http://tour-pedia.org/api/getPlaceDetails?id=34284
2216,Keizersgracht 566,34286,52.364723682404,4.888115,Amsterdam,Keizersgrachtkerk,Church,http://tour-pedia.org/api/getPlaceDetails?id=34286
2219,Van boshuizenstraat 560,34327,52.325214797984,4.8751525131718,Amsterdam,Pelgrimskerk,Church,http://tour-pedia.org/api/getPlaceDetails?id=34327
2220,Van Boshuizenstraat 420-422,34328,52.326626603253,4.8798312095387,Amsterdam,De Goede Herder Kerk,Church,http://tour-pedia.org/api/getPlaceDetails?id=34328
2221,Kometensingel 58,34338,52.415143847466,4.8927944898605,Amsterdam,Pinkstergemeente Agapè,Church,http://tour-pedia.org/api/getPlaceDetails?id=34338
2223,Kattengat 1,34359,52.378048721552,4.8938941955566,Amsterdam,Koepelkerk,Church,http://tour-pedia.org/api/getPlaceDetails?id=34359
2224,Prins Hendrikkade 73,34369,52.376412977701,4.9011200666428,Amsterdam,Nicolaasbasiliek,Church,http://tour-pedia.org/api/getPlaceDetails?id=34369
2225,Geldersekade 96,34376,52.37365033638,4.9002738820958,Amsterdam,He Hua Temple | Buddhist Traditional Temple @ China Town,Temple,http://tour-pedia.org/api/getPlaceDetails?id=34376
2226,Kloveniersburgwal 50,34377,52.370329849308,4.8978829799841,Amsterdam,PhoneGap Day EU,Auditorium,http://tour-pedia.org/api/getPlaceDetails?id=34377
2228,Zeedijk 106-118,34379,52.373748828741,4.9001169204712,Amsterdam,Fo Guang Shan He Hua tempel,Temple,http://tour-pedia.org/api/getPlaceDetails?id=34379
2229,Prinsengracht 756,34383,52.361423206457,4.8968124389648,Amsterdam,De Duif,Church,http://tour-pedia.org/api/getPlaceDetails?id=34383
2230,Govert Flinckstraat 286,34388,52.356026,4.89759,Amsterdam,Selimiye,Mosque,http://tour-pedia.org/api/getPlaceDetails?id=34388
2231,Amstelveld 10,34393,52.362288044723,4.8965871334076,Amsterdam,Amstelkerk,Church,http://tour-pedia.org/api/getPlaceDetails?id=34393
2232,Zuidelijke Wandelweg 41,34406,52.337861,4.898132,Amsterdam,Synagoge LJG,Synagogue,http://tour-pedia.org/api/getPlaceDetails?id=34406
2235,Dintelstraat 134,34425,52.325055523802,4.8685602181908,Amsterdam,Maarten Luther Kerk,Church,http://tour-pedia.org/api/getPlaceDetails?id=34425
2236,Zuideinde 120,34432,52.421354,4.908147,Amsterdam,Buddhavihara Temple,Temple,http://tour-pedia.org/api/getPlaceDetails?id=34432
2239,Zuiderkerkhof 72,34454,52.370116681472,4.9000203609467,Amsterdam,Zuiderkerk,Church,http://tour-pedia.org/api/getPlaceDetails?id=34454
2240,Waterlooplein 207,34457,52.368279205563,4.9032175540924,Amsterdam,Mozes en Aäronkerk,Church,http://tour-pedia.org/api/getPlaceDetails?id=34457
2243,Barbara Strozzilaan 310,34487,52.335627523346,4.8881006240845,Amsterdam,Alex Auditorium,Auditorium,http://tour-pedia.org/api/getPlaceDetails?id=34487
2244,van Boshuizenstraat,34490,52.325387,4.875614,Amsterdam,Gemeente van Christus Amsterdam,Church,http://tour-pedia.org/api/getPlaceDetails?id=34490
2245,slijperweg 2,34497,52.399772828357,4.9074835315111,Amsterdam,Stichting Anwaaroel Uloom,Mosque,http://tour-pedia.org/api/getPlaceDetails?id=34497
2247,Boomerang Plaza,34505,52.390439384499,4.9054284173181,Amsterdam,FlabberHQ,Spiritual Center,http://tour-pedia.org/api/getPlaceDetails?id=34505
2248,Mosstraat 2,34510,52.39308325338,4.9135486345423,Amsterdam,Heilige Maria koptische Kerk,Church,http://tour-pedia.org/api/getPlaceDetails?id=34510
2249,Mosplein 2,34512,52.392873988252,4.9129399746984,Amsterdam,Church,Church,http://tour-pedia.org/api/getPlaceDetails?id=34512
2251,'s-Gravenhekje 1A,34522,52.372245568669,4.9075627326965,Amsterdam,Akvo Foundation,Auditorium,http://tour-pedia.org/api/getPlaceDetails?id=34522
2253,Eerste Jacob van Campenstraat 33-hs,34540,52.351791176522,4.8972525123505,Amsterdam,Studio Soulful,Spiritual Center,http://tour-pedia.org/api/getPlaceDetails?id=34540
2254,Kuipersstraat 148 ‎,34542,52.353319051137,4.8999675837353,Amsterdam,Rigpa Nederland,Temple,http://tour-pedia.org/api/getPlaceDetails?id=34542
2255,Mosplein 2,34584,52.391651,4.912451,Amsterdam,Koptisch Orthodoxe Kerk,Church,http://tour-pedia.org/api/getPlaceDetails?id=34584
2256,1032 GA Amsterdam,34586,52.39192707319,4.9150157107221,Amsterdam,Apgen Amsterdam Noord,Temple,http://tour-pedia.org/api/getPlaceDetails?id=34586
2257,Hagedoornplein 2,34589,52.388041980509,4.9142575263977,Amsterdam,De Rosakerk,Church,http://tour-pedia.org/api/getPlaceDetails?id=34589
2258,Zwanenplein 34-36,34594,52.387112165881,4.9185597896576,Amsterdam,Bethlehemkerk,Church,http://tour-pedia.org/api/getPlaceDetails?id=34594
2259,Zwanenplein 34,34596,52.387083,4.918806,Amsterdam,House Of Worship,Church,http://tour-pedia.org/api/getPlaceDetails?id=34596
2263,Dintelstraat 134,34648,52.34149223752,4.8950458705028,Amsterdam,Maarten Lutherkerk,Church,http://tour-pedia.org/api/getPlaceDetails?id=34648
2265,Paul Van Vlissingenstraat 8,34663,52.334194778464,4.9213735357813,Amsterdam,MarketingMonday Vestiging Kauwgomballenkantoren,Church,http://tour-pedia.org/api/getPlaceDetails?id=34663
2266,Rode Kruisstraat 20,34687,52.395293542081,4.9295434948665,Amsterdam,"Hoop voor Noord, Kruiskerk",Church,http://tour-pedia.org/api/getPlaceDetails?id=34687
2272,Nieuwe Uilenburgerstraat 91,34711,52.370621073252,4.9049556255341,Amsterdam,Uilenburgersjoel,Synagogue,http://tour-pedia.org/api/getPlaceDetails?id=34711
2273,Weesperzijde 75,34736,52.359222401064,4.9088745305331,Amsterdam,Moskee Al-Kabir,Mosque,http://tour-pedia.org/api/getPlaceDetails?id=34736
2276,Het Laagt 159,34776,52.396990028571,4.9382477142857,Amsterdam,Casa Di Morte,Temple,http://tour-pedia.org/api/getPlaceDetails?id=34776
2277,Johan van Hasseltweg 4c,34779,52.385295042028,4.9298626184464,Amsterdam,LifeStylePress,Auditorium,http://tour-pedia.org/api/getPlaceDetails?id=34779
2278,Nieuwendammerdijk 227,34780,52.391558074243,4.9353289604187,Amsterdam,Sint-Augustinuskerk,Church,http://tour-pedia.org/api/getPlaceDetails?id=34780
2279,nieuwendammerkade 26,34782,52.390609,4.938147,Amsterdam,Tmc,Auditorium,http://tour-pedia.org/api/getPlaceDetails?id=34782
2281,Kleine Wittenburgerstraat 1,34794,52.370011872067,4.9193322658539,Amsterdam,Oosterkerk,Church,http://tour-pedia.org/api/getPlaceDetails?id=34794
2282,Zeeburgerdijk,34806,52.366244338207,4.9391746521485,Amsterdam,Ulu Camii Amsterdam-Oost,Mosque,http://tour-pedia.org/api/getPlaceDetails?id=34806
2283,Hugo de Vrieslaan  2,34811,52.35056,4.934388,Amsterdam,kerk de bron,Church,http://tour-pedia.org/api/getPlaceDetails?id=34811
2284,Van 't Hofflaan 20,34815,52.348455154841,4.9361979961395,Amsterdam,Koningskerk,Church,http://tour-pedia.org/api/getPlaceDetails?id=34815
2287,James Wattstraat 58,34827,52.351871644666,4.9251508495262,Amsterdam,Christus Koningskerk Amsterdam,Church,http://tour-pedia.org/api/getPlaceDetails?id=34827
2288,Zaaiersweg 180,34828,52.339709,4.939075,Amsterdam,Blessed Trinity,Church,http://tour-pedia.org/api/getPlaceDetails?id=34828
2289,Brede Kerkepad 6-8,34851,52.391764316855,4.9408596754074,Amsterdam,Nieuwendammerkerk,Church,http://tour-pedia.org/api/getPlaceDetails?id=34851
2291,Javastraat 108,34881,52.363794027966,4.9377112842504,Amsterdam,Eltheto,Temple,http://tour-pedia.org/api/getPlaceDetails?id=34881
2294,Domselaerstraat 47,34891,52.360068381076,4.9281268991853,Amsterdam,De Dom,Church,http://tour-pedia.org/api/getPlaceDetails?id=34891
2295,Linnaeushof 93,34896,52.352996699336,4.9337840080261,Amsterdam,Hofkerk,Church,http://tour-pedia.org/api/getPlaceDetails?id=34896
2296,Linnaeushof 51hs,34897,52.351557,4.935471,Amsterdam,Area 51,Spiritual Center,http://tour-pedia.org/api/getPlaceDetails?id=34897
2298,Zaaiersweg 17,34910,52.344283707322,4.9444068089982,Amsterdam,Kerk van Jezus Christus van de Heiligen der Laatste Dagen,Church,http://tour-pedia.org/api/getPlaceDetails?id=34910
2299,james wattstraat 75,34917,52.349809,4.92292,Amsterdam,keuken 5 a,Temple,http://tour-pedia.org/api/getPlaceDetails?id=34917
2300,Alkmaarstraat 10,34934,52.394009,4.949274,Amsterdam,Rafaël Amsterdam Noord,Church,http://tour-pedia.org/api/getPlaceDetails?id=34934
2303,galileïplantsoen,34956,52.35526812201,4.9411306195739,Amsterdam,Apgen,Church,http://tour-pedia.org/api/getPlaceDetails?id=34956
2304,duiventrecht,34967,52.339929795716,4.9507770281744,Amsterdam,El Encuentro Con Dios Amsterdam,Church,http://tour-pedia.org/api/getPlaceDetails?id=34967
2305,Schoolstraat 8-10,34970,52.338286813747,4.9521918105801,Amsterdam,De Ontmoeting,Church,http://tour-pedia.org/api/getPlaceDetails?id=34970
2306,Langeraarseweg 41,34973,52.351668534447,4.9343908213527,Amsterdam,Kerk Langeraar,Church,http://tour-pedia.org/api/getPlaceDetails?id=34973
2308,watergraafsmeer,34981,52.345375,4.934313,Amsterdam,Rex Bundy,Temple,http://tour-pedia.org/api/getPlaceDetails?id=34981
2310,Zuiderzeeweg 38H,34992,52.371629839534,4.960949420929,Amsterdam,De Echoput,Church,http://tour-pedia.org/api/getPlaceDetails?id=34992
2311,"Celebesstraat, 1094 Amsterdam",35014,52.361073904276,4.9321555807532,Amsterdam,Nasr,Mosque,http://tour-pedia.org/api/getPlaceDetails?id=35014
2312,Achterlaan 12,35031,52.406895966176,4.9669790267944,Amsterdam,NH Dorpskerk Zunderdorp,Church,http://tour-pedia.org/api/getPlaceDetails?id=35031
2313,Wijkergouw 6,35032,52.383556426489,4.9654233455658,Amsterdam,Schellingwouderkerk,Church,http://tour-pedia.org/api/getPlaceDetails?id=35032
2314,Dorpsweg Ransdorp 59,35061,52.392919948472,4.993581282886,Amsterdam,Kerktoren Ransdorp,Church,http://tour-pedia.org/api/getPlaceDetails?id=35061
2315,Dorpsstraat Holysloot 30,35073,52.412943246487,5.0248503684998,Amsterdam,Zaalkerk Holysloot,Church,http://tour-pedia.org/api/getPlaceDetails?id=35073
